{"type":"FeatureCollection","features":[{"type":"Feature","properties":{"OBJECTID":1,"Id":0,"superficie":0,"Shape_Leng":1.94013511361,"Shape_Area":0.0264580578844,"superficie_ha":26631.9,"perimetre_km":190.5,"nom":"Limite officielle du Parc National de Belezma"},"geometry":{"type":"Polygon","coordinates":[[[5.998435402000041,35.62615167800004],[5.99970362800002,35.62573279700007],[6.00186545300005,35.62589603600003],[6.006352740000068,35.62670240500006],[6.012580850000063,35.62693866400008],[6.014488534000066,35.62632105400007],[6.014430377000053,35.62488205500006],[6.014804103000074,35.624812828000074],[6.015265275000047,35.62593711300008],[6.015672404000043,35.62612824900003],[6.016671281000072,35.627419762000045],[6.017951139000047,35.62820160500007],[6.019382697000026,35.62750383400004],[6.020121538000069,35.62631299100008],[6.020355223000024,35.624904324000056],[6.020766570000035,35.62458468600005],[6.020978215000071,35.62471541000008],[6.020866765000051,35.62535915400008],[6.021512438000059,35.626185296000074],[6.022875549000048,35.626710281000044],[6.024205383000037,35.62599231200005],[6.0245405180000375,35.62472844200005],[6.025570112000025,35.62396396500003],[6.026954548000049,35.623404986000025],[6.0279410130000315,35.62182121400008],[6.029471712000031,35.62189658800003],[6.0307553450000455,35.62145350000003],[6.031407030000025,35.62247436100006],[6.032638967000025,35.62246381800003],[6.034228770000027,35.62189970800006],[6.035076227000047,35.62116045400006],[6.036057522000021,35.62072994400006],[6.036607831000026,35.61952036500003],[6.035994754000058,35.61843142400005],[6.0357332890000635,35.617301422000025],[6.032119066000064,35.61512413000003],[6.031800246000046,35.614788737000026],[6.0319481410000435,35.614655234000054],[6.0339717670000255,35.614903956000035],[6.034401245000026,35.614785407000056],[6.03458633300005,35.614107888000035],[6.036876072000041,35.61606628200008],[6.037280200000055,35.617258771000024],[6.037156011000036,35.61836988500005],[6.037778847000027,35.61884781600003],[6.03755241600004,35.619779083000026],[6.038085893000073,35.620392940000045],[6.039289568000072,35.62083516000007],[6.043066387000067,35.621238919000064],[6.046454740000058,35.620006827000054],[6.046625101000075,35.61929112300004],[6.046477947000028,35.61867645600006],[6.0466503440000565,35.618581891000076],[6.047728097000061,35.619849213000066],[6.048722385000076,35.620069568000076],[6.051138842000057,35.61968223900004],[6.053836424000053,35.61817751700005],[6.055577776000064,35.61809972000003],[6.056062584000074,35.61770678900007],[6.055941066000059,35.61738848700003],[6.054139586000076,35.617119838000065],[6.053977691000057,35.61691889700006],[6.054160915000068,35.61651895600005],[6.055620232000024,35.61656276000008],[6.057406122000032,35.616249362000076],[6.058590736000042,35.61552762800005],[6.060550914000032,35.61540554700008],[6.061343745000045,35.615177482000036],[6.062136362000047,35.61461421100006],[6.062958398000035,35.614583985000024],[6.06427188400005,35.61192302200004],[6.064674610000054,35.61145914100007],[6.065248524000026,35.61127526900003],[6.0654303830000345,35.61159495900006],[6.06531403300005,35.61215420700006],[6.0639264170000615,35.61315720600004],[6.063986556000032,35.614528955000026],[6.064481016000059,35.614885471000036],[6.06648179900003,35.61519782700003],[6.067168992000063,35.61569197000006],[6.068460189000064,35.61561966700003],[6.069299344000058,35.61608606400006],[6.069743065000068,35.61566544400006],[6.073417033000055,35.61610587200005],[6.07405718800004,35.61551391200004],[6.075490943000034,35.61509228500006],[6.075558527000055,35.61531676000004],[6.076923272000045,35.615880907000076],[6.077749823000033,35.61595569800005],[6.078684947000056,35.61566920300004],[6.07986965300006,35.61642616200004],[6.080884907000041,35.616490214000066],[6.08095159800007,35.61680585700003],[6.0815786110000545,35.61679797900007],[6.080458090000036,35.61784316600006],[6.080421766000029,35.61812005500008],[6.080877409000038,35.61820822100003],[6.081076322000058,35.61787041200006],[6.081456556000035,35.61778869900007],[6.08178072100003,35.61792895900004],[6.081786452000074,35.618985778000024],[6.082113788000072,35.61916550500007],[6.08518753200002,35.61984116000008],[6.086695149000036,35.61993751000006],[6.087050360000035,35.62039458500004],[6.087536451000062,35.620342110000024],[6.089356315000032,35.61920911000004],[6.091580880000038,35.619666573000075],[6.0933613560000595,35.61950315100006],[6.094746096000051,35.62041562500008],[6.094831576000047,35.62165321500004],[6.095094930000073,35.621948444000054],[6.096422736000022,35.62232370600003],[6.098152574000039,35.62227792200008],[6.097540180000067,35.62280050900006],[6.097838702000047,35.623125465000044],[6.098397867000074,35.62317516000007],[6.101308776000053,35.62219917800007],[6.102311680000071,35.622284569000044],[6.107280949000028,35.625211139000044],[6.1085031770000455,35.62571225600004],[6.110404917000039,35.62605769100003],[6.111376281000048,35.625501729000064],[6.11215009700004,35.624546630000054],[6.11248746800004,35.623653613000045],[6.11227519800002,35.62200822400007],[6.11260637700002,35.62166565200005],[6.112925634000021,35.62149526400003],[6.113273603000039,35.621627552000064],[6.113825570000074,35.62128264100005],[6.114501294000036,35.62178774600005],[6.115241838000031,35.62130260400005],[6.11482875300004,35.62066411200004],[6.114228433000051,35.62033496400005],[6.114221020000059,35.620085037000024],[6.115632707000032,35.61930217400004],[6.117147773000056,35.62017792800003],[6.11788636700004,35.62023415800007],[6.117745565000064,35.61965257300005],[6.118001173000039,35.618317586000046],[6.1183898330000375,35.61778747200003],[6.119387599000049,35.61779700500006],[6.11971036500006,35.61823812700004],[6.11877215100003,35.62068808400005],[6.119271875000038,35.621133230000055],[6.120873493000033,35.621131185000024],[6.120779761000051,35.62162890900004],[6.120231285000045,35.622084029000064],[6.119673370000044,35.623482179000064],[6.117756894000024,35.62396442000005],[6.117641221000042,35.624513884000066],[6.116500267000049,35.62440115600003],[6.115902414000061,35.624829807000026],[6.115574767000055,35.625522991000025],[6.116596551000043,35.62596463400007],[6.117957767000064,35.62604417400007],[6.118302138000047,35.62666986200003],[6.116413739000052,35.626944094000066],[6.116447859000061,35.62735236700007],[6.116774750000047,35.62767528400008],[6.118144735000044,35.62856087200004],[6.120828957000072,35.62962090100007],[6.122286899000073,35.62936481700007],[6.1230126690000475,35.628894098000046],[6.122815990000049,35.62937291600008],[6.122209468000051,35.62969087400006],[6.120397704000027,35.630117658000074],[6.118666886000028,35.63089864500006],[6.118500094000069,35.63127655400007],[6.118634020000059,35.63217155900003],[6.119427180000059,35.63327596100004],[6.126822147000041,35.63578670000004],[6.132184279000057,35.63709331500007],[6.135085367000045,35.63839552700006],[6.134591687000068,35.639121601000056],[6.135862681000049,35.64010316800005],[6.138378142000022,35.640434783000046],[6.139064025000039,35.64099332300003],[6.140173125000047,35.641198444000054],[6.140641681000034,35.64175508000005],[6.143005206000055,35.64202240800006],[6.145654107000041,35.64316841600004],[6.148687564000056,35.64409638500007],[6.150826597000048,35.64407757500004],[6.152287897000065,35.644575721000024],[6.152741711000033,35.64441472300007],[6.155343654000035,35.64549518100006],[6.157190015000026,35.645729165000034],[6.158883124000056,35.646958451000046],[6.16000260800007,35.64714498300003],[6.16089596300003,35.64701906000005],[6.163157286000057,35.64786226200005],[6.164157168000031,35.64925943700007],[6.163724615000035,35.64978667400004],[6.164728953000065,35.65063195400006],[6.164805308000041,35.65153903000004],[6.167219449000072,35.65205330800006],[6.16729063300005,35.65312404700006],[6.168095446000052,35.65280503400004],[6.168900612000073,35.65293143200006],[6.169575494000071,35.65266361100004],[6.172882513000047,35.653347275000044],[6.173034544000075,35.65383506200004],[6.174450344000036,35.65418110200005],[6.17518079000007,35.65648014800007],[6.176834962000044,35.65680870400007],[6.176667983000073,35.65749867100004],[6.178078282000058,35.65805794100004],[6.17883988400007,35.65802806700003],[6.179277008000042,35.65838131600003],[6.180182672000058,35.65831409500004],[6.180801502000065,35.65872247200008],[6.1812989280000465,35.65877903200004],[6.181701144000044,35.658418132000065],[6.181950963000077,35.65853720200005],[6.18195879600006,35.658927851000044],[6.182560116000047,35.659265462000064],[6.183248603000038,35.65908365000007],[6.183809354000061,35.65965091000004],[6.18477155000005,35.659951625000076],[6.185543700000039,35.661053837000054],[6.186679654000045,35.661657458000036],[6.188290640000048,35.66197432800004],[6.189016508000066,35.66377229500006],[6.190872020000029,35.664019875000065],[6.191246195000076,35.66469115700005],[6.191703044000064,35.664781176000076],[6.191823334000048,35.66512433300005],[6.192203609000046,35.66478754100007],[6.192441356000074,35.66321326700006],[6.1942808890000265,35.66379720000003],[6.195082282000044,35.663804423000045],[6.195622033000063,35.66345744000006],[6.198879815000055,35.66413855400003],[6.200410889000068,35.66315740500005],[6.200579117000075,35.66225981700006],[6.201635073000034,35.66187513400007],[6.201976155000068,35.662010474000056],[6.201570426000046,35.66227611800008],[6.201534395000067,35.66307471500005],[6.202458879000062,35.66413212900005],[6.203968896000049,35.66467830600004],[6.204482945000052,35.66532729200003],[6.20571104000004,35.66597627800007],[6.206012240000064,35.666508399000065],[6.206705001000046,35.66659875900007],[6.206905801000062,35.66681963900004],[6.206785321000041,35.66766300000006],[6.207568441000035,35.667843721000054],[6.209315404000051,35.66760276000008],[6.210470005000047,35.66790396000005],[6.212962849000064,35.66745951200005],[6.213591256000029,35.66788300200005],[6.214021973000058,35.66944502400003],[6.214487696000049,35.67010684100006],[6.215813543000024,35.67042759900005],[6.217633913000043,35.670275899000046],[6.218149972000049,35.669933524000044],[6.218210957000053,35.66953419500004],[6.2188080540000215,35.66957704200007],[6.2188146640000355,35.669900004000056],[6.2193420540000375,35.66989134800008],[6.219359883000038,35.670386962000066],[6.220144454000035,35.670892683000034],[6.220296980000057,35.671773640000026],[6.221258454000065,35.67262179900007],[6.221397409000076,35.67343607400005],[6.22207056000002,35.673987811000075],[6.222846157000049,35.675228857000036],[6.222945069000048,35.67584334000003],[6.223411977000069,35.67616131500006],[6.22837217700004,35.67505093300008],[6.229866988000026,35.67518609900003],[6.230636569000069,35.67412534500005],[6.230469708000044,35.672823566000034],[6.230178547000037,35.67258260600005],[6.230399427000066,35.67239184500005],[6.230188587000043,35.67047420400007],[6.230599215000041,35.67010700800006],[6.231356151000057,35.67028303200004],[6.231777371000021,35.66979886200005],[6.232168160000072,35.66981739100004],[6.232340136000062,35.67013320900003],[6.233205411000029,35.67031998900006],[6.23366805400002,35.67111676400003],[6.236553152000056,35.671714346000044],[6.234422420000044,35.67368083800005],[6.233172254000067,35.67384944600008],[6.23260474500006,35.67460201400007],[6.2336370740000575,35.67657809600007],[6.236044686000071,35.678012558000034],[6.237548152000045,35.67794345900006],[6.238116594000076,35.677605518000064],[6.238195326000039,35.677997066000046],[6.2395860390000735,35.67887769300006],[6.240780800000039,35.67925921400007],[6.241935402000024,35.67917889300003],[6.242494630000067,35.67866890300007],[6.243609553000056,35.67877607400004],[6.243853044000048,35.67931945400005],[6.24295948200006,35.680484095000054],[6.243574311000032,35.68073119300004],[6.246011645000067,35.68079533500003],[6.246011972000076,35.68108305900006],[6.247493246000033,35.68186726600004],[6.247452844000065,35.682434956000066],[6.247746231000065,35.68251480600003],[6.251379980000024,35.68234864800007],[6.251916858000072,35.681670809000025],[6.252327272000059,35.68027780700004],[6.2534830270000725,35.68039528800006],[6.254166215000055,35.67968140800008],[6.25489542300005,35.67967091300005],[6.255520131000026,35.67936613400008],[6.257547724000062,35.679517815000054],[6.260246561000031,35.67796173100004],[6.261288268000044,35.67823941000006],[6.261856409000075,35.67772813800008],[6.262000420000049,35.679652934000046],[6.26277761700004,35.68199875500005],[6.265797256000042,35.68578414900003],[6.266866874000073,35.687986790000025],[6.269096704000049,35.69017176800003],[6.270110781000028,35.690939126000046],[6.271959439000057,35.69146523000006],[6.273651916000063,35.69321711500004],[6.274592747000042,35.69277106100003],[6.274824069000033,35.69287387000003],[6.274508687000036,35.69338446000006],[6.275467506000041,35.693707947000064],[6.276369979000037,35.69352207600008],[6.277071816000046,35.69250110000007],[6.277541093000025,35.69243312100008],[6.277374015000021,35.692795201000024],[6.277812775000029,35.693259639000075],[6.279405451000059,35.69213191500006],[6.280682893000062,35.691947164000055],[6.280964648000065,35.69317691200007],[6.280579405000026,35.69458027100006],[6.281693847000042,35.69520275200006],[6.283611489000066,35.69491159100005],[6.284434769000029,35.695152551000035],[6.28626679100006,35.69481351500008],[6.2866406640000605,35.69450018400005],[6.287091144000044,35.69329767800008],[6.288616253000043,35.69420530000008],[6.2896233230000576,35.69418608800004],[6.290230413000074,35.693576172000064],[6.2912124060000565,35.69445288800006],[6.294226103000028,35.69503976300007],[6.295153836000054,35.69462686400004],[6.295787178000069,35.695435850000024],[6.2974645460000716,35.695726861000026],[6.29795989400003,35.69634922200004],[6.299158188000035,35.69670569300007],[6.299428449000061,35.696298555000055],[6.300663248000035,35.696179147000066],[6.30109264500004,35.695805937000046],[6.301578345000053,35.695839068000055],[6.301771702000053,35.695544437000024],[6.302576506000037,35.69607227500006],[6.304796382000063,35.695813275000035],[6.3053135770000495,35.69662000000005],[6.306296694000025,35.69689630100004],[6.307144873000027,35.69620876100004],[6.307613944000025,35.69498147000007],[6.307613944000025,35.69408188500006],[6.307250680000038,35.693179583000074],[6.307376629000032,35.69292005800003],[6.3087454250000405,35.69306660400008],[6.309413600000028,35.69203648200005],[6.309280514000022,35.69026538500003],[6.3089413270000705,35.68988215400003],[6.308324044000074,35.68980695100004],[6.308055565000075,35.689377415000024],[6.308506373000057,35.688393964000056],[6.306797536000033,35.687672848000034],[6.306882485000074,35.68735785700005],[6.308867318000068,35.68666058400004],[6.3083397770000715,35.68624143900007],[6.308455084000059,35.68548010300003],[6.308247355000049,35.68440057000004],[6.306523215000027,35.685342442000035],[6.306453116000057,35.684486083000024],[6.305863828000042,35.68371035300004],[6.304784727000026,35.68340656500004],[6.304776117000074,35.683825211000055],[6.3030236490000675,35.68255752600004],[6.301698867000027,35.68216478700003],[6.300953682000056,35.68255722300006],[6.3005724990000544,35.68240201900005],[6.295005493000076,35.67842303600003],[6.291847636000057,35.67485722300006],[6.290296415000057,35.67427106800005],[6.290537190000066,35.673123919000034],[6.288987656000074,35.67242972300005],[6.288326135000034,35.67177647900007],[6.287979338000071,35.67118895200008],[6.2880370340000695,35.67041143400007],[6.2877172890000566,35.669846938000035],[6.287022507000074,35.66992564100008],[6.28591717300003,35.669454694000024],[6.285317201000055,35.66949101900008],[6.2853648450000605,35.667603832000054],[6.285070549000068,35.66643250900006],[6.285547429000076,35.66608781000008],[6.285803495000039,35.66437972600005],[6.28561785200003,35.66369285900004],[6.286035279000032,35.663333572000056],[6.285824929000057,35.66293639100007],[6.286176712000042,35.66276410200004],[6.2861363730000335,35.662483257000076],[6.284034071000065,35.66035609700003],[6.281710106000048,35.659954182000035],[6.282307460000027,35.65921115700007],[6.283114855000065,35.65911000800003],[6.281221966000032,35.65642822700005],[6.281776900000068,35.654968351000036],[6.27991774000003,35.65478539900005],[6.278183637000041,35.65547199900004],[6.277584588000025,35.654543975000024],[6.27724319500004,35.652118716000075],[6.275860790000024,35.65247132200005],[6.275463566000042,35.651281666000045],[6.275902807000023,35.65072485500008],[6.274512071000061,35.64920049600005],[6.273930912000026,35.64901267500005],[6.273635331000037,35.649211868000066],[6.273747212000046,35.65029841900008],[6.273386015000028,35.65062762000008],[6.273146986000029,35.65023996600007],[6.273439703000065,35.649628145000065],[6.273296075000076,35.649416117000044],[6.271750327000063,35.648338212000056],[6.272878492000075,35.648374716000035],[6.273462248000044,35.647563742000045],[6.271367695000038,35.645366644000035],[6.270108521000054,35.64596727900005],[6.270088487000066,35.64650356400006],[6.270541309000066,35.64709544600004],[6.270707887000071,35.647983974000056],[6.27004164300007,35.64763780800007],[6.269696435000071,35.647830363000025],[6.268488421000029,35.647682574000044],[6.268302077000044,35.64749623100005],[6.268494846000067,35.64684081900003],[6.269399039000064,35.64637652700003],[6.268679257000031,35.646154602000024],[6.270962239000028,35.643799571000045],[6.269944079000027,35.64272837200008],[6.267497013000025,35.64098354600003],[6.266640522000046,35.63983732200006],[6.264058215000034,35.63797806100007],[6.262555942000063,35.637312476000034],[6.261418829000036,35.63713781400003],[6.260790383000028,35.63653270200007],[6.259130541000047,35.63605770800007],[6.2571280800000295,35.63518489000006],[6.256809376000035,35.63474944300003],[6.25502421300007,35.63420800700004],[6.25462660900007,35.63361661600004],[6.253441346000045,35.63286016500007],[6.252045932000044,35.632545347000075],[6.248762051000028,35.63085583600008],[6.247931619000042,35.63013475400004],[6.246255820000044,35.62764753000005],[6.245675445000074,35.627716892000024],[6.244286603000035,35.62692474100004],[6.2439088940000715,35.62696571400005],[6.2419873490000555,35.62816540000006],[6.24153380100006,35.628878436000036],[6.24118240100006,35.628858355000034],[6.241102080000076,35.62816559400005],[6.24211555200003,35.62611559900006],[6.241473246000055,35.62505692800005],[6.241050450000046,35.62464214600004],[6.240405243000055,35.62457897000007],[6.239098471000034,35.62379630700008],[6.237930371000061,35.62376147200007],[6.235067207000043,35.622475775000055],[6.232703901000036,35.62228536600003],[6.233102020000047,35.62328936200004],[6.232914402000063,35.62440374500005],[6.232501060000061,35.62370645300007],[6.232191549000049,35.622151056000064],[6.231629351000038,35.62185611600006],[6.230425832000037,35.62454616900004],[6.228626550000058,35.62568684900003],[6.228893020000044,35.62672509600003],[6.228568519000021,35.626976125000056],[6.228315849000069,35.627781810000045],[6.2269840370000225,35.62889579100005],[6.22716355700004,35.628027057000054],[6.228478260000031,35.626974156000074],[6.228158176000022,35.62573808500008],[6.229122756000038,35.62480044100005],[6.228783019000048,35.624153904000025],[6.229211268000029,35.62349953700004],[6.228784044000065,35.62321981900004],[6.229136702000062,35.622616837000066],[6.229028034000066,35.62159477900008],[6.227888278000023,35.619760875000054],[6.226874181000028,35.619476536000036],[6.226532299000041,35.61889549800003],[6.22647025200007,35.61774699400007],[6.225379792000069,35.617346259000044],[6.225144757000066,35.61657089900007],[6.224157324000032,35.61609046500007],[6.2243460130000585,35.61584877000007],[6.225250108000068,35.61581935800007],[6.225336334000076,35.615640975000076],[6.224799945000029,35.614875418000054],[6.223745267000027,35.614606554000034],[6.222696803000076,35.61535386300005],[6.222101188000067,35.615160572000036],[6.222108297000034,35.61494768600005],[6.222802173000048,35.61460232700006],[6.222658691000049,35.61409116600004],[6.223298783000075,35.614154324000026],[6.223674765000055,35.61378767000008],[6.22287009300004,35.61309408300008],[6.221532592000074,35.61348272300006],[6.2213277710000625,35.61330617200008],[6.221709392000037,35.61224521200006],[6.217096927000057,35.61039528900005],[6.2144858140000565,35.61119324500004],[6.212855443000024,35.61139909600007],[6.211258193000049,35.61107995000003],[6.207911465000052,35.609449668000025],[6.206943953000064,35.60803015100004],[6.207819377000021,35.60642272100006],[6.207464428000037,35.60536994900008],[6.204269400000044,35.60364027900005],[6.203936769000052,35.60375069600008],[6.203326336000032,35.60316596600006],[6.202317515000061,35.603378011000075],[6.2019448310000485,35.60411053100006],[6.201256127000022,35.60460600400006],[6.199777807000032,35.604708612000024],[6.1993456720000495,35.60451132800006],[6.1979802300000415,35.60506352800007],[6.197421409000071,35.60568058700005],[6.19642402900007,35.60556552800006],[6.196258168000043,35.60538280000003],[6.199162542000067,35.60350652300008],[6.200549824000063,35.60321012500003],[6.201951256000029,35.602202125000076],[6.202620803000059,35.60112632400006],[6.205067244000077,35.60091665400006],[6.206157613000073,35.60026464900005],[6.208449524000059,35.60027270300003],[6.209317372000044,35.59937542900008],[6.210934339000062,35.59909520600007],[6.21241636600007,35.59758302000006],[6.2122078210000495,35.59710363700003],[6.211352947000023,35.596568656000045],[6.210966265000025,35.595085263000044],[6.210742359000051,35.59503118400005],[6.210271904000024,35.595598524000025],[6.2091274500000395,35.59562254600007],[6.209425096000075,35.59527265100007],[6.2092984120000665,35.595011760000034],[6.208377872000028,35.59508985900004],[6.207661261000055,35.59447185500005],[6.206125268000051,35.59405706300004],[6.206429515000025,35.59351066600004],[6.205439960000035,35.59284483500005],[6.206514241000036,35.59282475400005],[6.206267849000028,35.59249926100006],[6.20381347700004,35.592041633000065],[6.202006275000031,35.59104767200006],[6.200789039000028,35.590756243000044],[6.19947619200002,35.590836832000036],[6.198562551000066,35.58940111000004],[6.1987332310000625,35.58901959000008],[6.2003217000000745,35.58854588300005],[6.199777394000023,35.58838706900008],[6.199134832000027,35.58768426800003],[6.1992071780000515,35.58729673600004],[6.198970933000055,35.587102654000034],[6.198092538000026,35.586825171000044],[6.19733345700007,35.58613242800004],[6.195598503000042,35.58582373200005],[6.19545014800002,35.58748346800007],[6.19386382600004,35.58800554900006],[6.189330184000028,35.58522835000008],[6.189767502000052,35.58353774400007],[6.189546621000034,35.583005623000076],[6.1863014530000555,35.583828407000055],[6.185968168000045,35.584192477000045],[6.1857671950000395,35.58538979000008],[6.185444239000049,35.58544818200005],[6.183121014000051,35.583045783000046],[6.182726457000058,35.58276587800003],[6.181843713000035,35.58276813800006],[6.178966608000053,35.58084697600003],[6.17523250000005,35.58037842400006],[6.1746812420000765,35.58125679600005],[6.173032067000065,35.58213886100003],[6.169287415000042,35.58194195800007],[6.166227242000048,35.58260338600007],[6.16694983900004,35.582879114000036],[6.165761833000033,35.58268009100004],[6.165115726000067,35.58300205900008],[6.164655320000065,35.583688934000065],[6.1639461280000205,35.58595228900003],[6.162731476000033,35.585644871000056],[6.158635789000073,35.585387670000046],[6.154614324000022,35.58569223600006],[6.151386067000033,35.58623161100007],[6.149524353000061,35.58726960300004],[6.146327124000038,35.58829207900004],[6.146014687000047,35.587900552000065],[6.146465176000049,35.587082535000036],[6.146374885000057,35.58654812100008],[6.145575220000069,35.586638581000045],[6.144934244000069,35.587028376000035],[6.1434904400000505,35.58689729100007],[6.14315534900004,35.58716579500003],[6.142870770000059,35.586666440000045],[6.14070203700004,35.586558429000036],[6.139114611000025,35.587094458000024],[6.139028021000058,35.587506579000035],[6.138141258000076,35.58837388100005],[6.137859639000055,35.58726332900005],[6.137511742000072,35.58685126300003],[6.137259696000058,35.587161061000074],[6.136256168000045,35.586862361000044],[6.136042227000075,35.58501391400006],[6.134873789000039,35.58424811200007],[6.133235072000048,35.584171655000034],[6.132243832000029,35.58491824400005],[6.132049520000066,35.58565327000008],[6.131385392000027,35.586012889000074],[6.13088702500005,35.58716496900007],[6.130519795000055,35.58731440300005],[6.12591072500004,35.587624119000054],[6.125554520000037,35.58780336700005],[6.125545468000041,35.58841441200008],[6.125011766000057,35.58849104500007],[6.124574340000038,35.588924779000024],[6.123440022000068,35.588918773000046],[6.123226954000074,35.589495613000054],[6.122209138000073,35.58961054500003],[6.121445821000066,35.58934674900007],[6.119624918000056,35.59036414000008],[6.118657226000039,35.59040733000006],[6.117520266000042,35.59082514100004],[6.116690847000029,35.59072741400007],[6.1164761550000435,35.59065351900006],[6.116695526000058,35.590244435000045],[6.116538986000023,35.589885958000025],[6.11592792700003,35.58940869600008],[6.116075619000071,35.58897826400005],[6.11648008800006,35.58880014400006],[6.117508122000061,35.58943476500008],[6.117906101000074,35.58944381200007],[6.1181465090000415,35.58912393300005],[6.117461037000055,35.58870414000006],[6.117781763000039,35.58850439400004],[6.118888879000053,35.58859856400005],[6.119408588000056,35.58788081500006],[6.119272287000058,35.58624114700007],[6.1185242080000535,35.585408950000044],[6.118194770000059,35.584514762000026],[6.118163394000021,35.58321269900006],[6.117496987000038,35.58244458100006],[6.117435452000052,35.58178263900004],[6.116911352000045,35.58158340600005],[6.11684288400005,35.58077342300004],[6.117193504000056,35.58040675700005],[6.117715437000072,35.58032003000005],[6.1181599060000735,35.57933438500004],[6.118170715000076,35.578674086000035],[6.117694072000063,35.57815059200004],[6.118318063000061,35.576192357000025],[6.117967327000031,35.576185029000044],[6.11910464500005,35.576059190000024],[6.118854872000043,35.57586482200003],[6.118806583000037,35.57514931500003],[6.1180692690000456,35.57361193700007],[6.118900708000069,35.57306287400007],[6.119387021000023,35.56954887100005],[6.1196223340000415,35.56915668200003],[6.120092959000033,35.56903118200006],[6.120485148000057,35.56921943300006],[6.120030211000028,35.56953318200004],[6.119779209000058,35.57019205900008],[6.119931356000052,35.571106593000025],[6.1204000070000575,35.57073034700005],[6.120639606000054,35.57014009200003],[6.123349879000045,35.568577693000066],[6.1245447490000515,35.569357543000024],[6.124311379000062,35.568254585000034],[6.124432003000038,35.56755733600005],[6.124102022000045,35.56724393500008],[6.1241904600000225,35.56519606200004],[6.123478384000066,35.565561124000055],[6.122550894000028,35.564642614000036],[6.120099784000047,35.563192525000034],[6.1208649090000335,35.56269507500008],[6.12011354200007,35.562292987000035],[6.120871056000055,35.56182171000006],[6.120393400000069,35.56095260700005],[6.121280421000051,35.56126193100005],[6.121972422000056,35.56121490000004],[6.123360330000025,35.56087131800007],[6.125117028000034,35.559951925000064],[6.121422576000043,35.55828087000003],[6.12055263000002,35.557620299000064],[6.120125244000064,35.55776834200003],[6.11981598400007,35.55694303300004],[6.119144744000039,35.55611936100007],[6.118297823000034,35.55618885700005],[6.1144312780000405,35.55496719400003],[6.106716026000072,35.552021109000066],[6.102539273000048,35.551058186000034],[6.095563285000026,35.54872967800003],[6.092397643000027,35.54818391600003],[6.091279068000063,35.54774419300003],[6.089704201000075,35.54793481300004],[6.090658154000039,35.54859752600004],[6.09077628600005,35.54901430700005],[6.087315558000057,35.547594064000066],[6.08592597300003,35.54766072600006],[6.082154492000029,35.549259850000055],[6.082150660000025,35.54971326700007],[6.082694333000063,35.551066572000025],[6.08463073300004,35.55298822000003],[6.084867230000043,35.55367986500005],[6.085721774000035,35.55385263900007],[6.085951551000051,35.55465709300006],[6.088691556000072,35.55722815100006],[6.088912666000056,35.557805038000026],[6.088584267000044,35.558579390000034],[6.0889947910000615,35.55902115200007],[6.089022785000054,35.560292584000024],[6.08822751200006,35.56083567600007],[6.0878028170000675,35.56078651900003],[6.087189262000038,35.56133035300007],[6.086813536000022,35.56193695700006],[6.086853118000022,35.56252939600006],[6.085364579000043,35.56266368400003],[6.084734764000075,35.56366798400006],[6.0857220430000325,35.56511485800007],[6.08687954100003,35.56531912300005],[6.087781710000058,35.56582978400007],[6.087713622000024,35.56611915900004],[6.087185939000051,35.565846806000025],[6.085670976000074,35.56596596000003],[6.086232704000054,35.566731952000055],[6.0878497990000255,35.56741283500003],[6.088694589000056,35.56746990700003],[6.089432576000036,35.568119427000056],[6.088511444000062,35.56858135600004],[6.0882075900000245,35.56933350600008],[6.08498815400003,35.56892431800003],[6.084887963000028,35.56855331200006],[6.084003002000031,35.568458013000054],[6.083001172000024,35.56949971200004],[6.082612868000069,35.57024990200006],[6.082554236000021,35.570889374000046],[6.082859383000027,35.571478065000065],[6.082011436000073,35.57294722100005],[6.081772890000025,35.57424308800006],[6.082218931000057,35.57494347000005],[6.083568637000042,35.575339307000036],[6.0836250910000444,35.57579411000006],[6.082329706000053,35.57625723700005],[6.07955154900003,35.574510786000076],[6.078434458000061,35.57599610700004],[6.079305413000043,35.57453009300008],[6.078499248000071,35.57415969300007],[6.07844340500003,35.573870621000026],[6.0776948180000545,35.57388294000003],[6.077369680000061,35.57352052600004],[6.077444855000067,35.573098334000065],[6.077701111000067,35.57336057100008],[6.078160666000031,35.57333173100005],[6.079074694000042,35.57273169700005],[6.078141570000071,35.572158099000035],[6.078784450000057,35.57171941200005],[6.078911753000057,35.57049986100003],[6.078857405000065,35.569985951000035],[6.0780459740000765,35.56904052400006],[6.078430799000046,35.56873391600004],[6.080327169000043,35.56833396600007],[6.080575346000046,35.56710733500006],[6.080104902000073,35.56641624400004],[6.078066951000039,35.565008773000045],[6.077173953000056,35.56398259000008],[6.076910637000026,35.56289205300004],[6.076403326000047,35.56256487200005],[6.075735489000067,35.562342433000026],[6.074155461000032,35.56267074400006],[6.073119230000032,35.56331721600003],[6.072592363000069,35.56423177100004],[6.071924953000064,35.56365440500008],[6.07107863300007,35.56370386300006],[6.070595540000056,35.56303216200007],[6.069415143000072,35.56297529600005],[6.068362398000033,35.56340445100005],[6.066881242000022,35.564691251000056],[6.066616014000033,35.56468511300005],[6.065947177000055,35.56551748100003],[6.0639457940000625,35.56581618400003],[6.063020971000071,35.56569616400003],[6.062593102000051,35.56585384600004],[6.062374584000054,35.566233270000055],[6.061364197000046,35.56648588500008],[6.060756310000045,35.566274613000076],[6.060508836000054,35.565766078000024],[6.059605000000033,35.565735249000056],[6.059478656000067,35.565554862000056],[6.059862966000026,35.564922962000026],[6.061104353000076,35.56496161800004],[6.062377979000075,35.56442920200004],[6.063232192000044,35.56449829500008],[6.064429988000029,35.564062687000046],[6.065245251000022,35.56420973200005],[6.067196340000066,35.56259863300005],[6.067272001000049,35.561821542000075],[6.066953309000041,35.560936740000045],[6.068889496000054,35.561799809000036],[6.0725207340000225,35.56112460800006],[6.072683769000037,35.56060585900008],[6.072315224000022,35.55907909800004],[6.07184828100003,35.55863452800003],[6.070785114000046,35.55833391800007],[6.072467240000037,35.558530519000044],[6.073436135000065,35.55842472900008],[6.073956298000041,35.55804238700006],[6.073951932000057,35.55748033700007],[6.072938597000075,35.55610629000006],[6.070496812000044,35.554186575000074],[6.067882543000053,35.55374163700003],[6.066254688000072,35.55440394000004],[6.065845889000059,35.55436490100004],[6.065960835000055,35.553499991000024],[6.067178244000047,35.55250285500006],[6.067118169000025,35.55181135400005],[6.064958511000043,35.54942483900004],[6.063512786000047,35.54834632600006],[6.061060069000064,35.54845707700008],[6.0603926470000715,35.54754445100008],[6.058879181000066,35.54736146000005],[6.058602175000033,35.54769022800008],[6.059208050000052,35.54829581200005],[6.058716605000029,35.54923084500007],[6.058157412000071,35.54901083400006],[6.057822221000038,35.54927909700007],[6.05726846400006,35.54924652300008],[6.055416736000041,35.54839509800007],[6.055526698000051,35.54733291100007],[6.055337186000031,35.54730400900007],[6.057402441000022,35.54750464000006],[6.0582735290000755,35.54709107600007],[6.0582902430000445,35.54661824600004],[6.057833413000026,35.54623300900005],[6.057921749000059,35.545781557000055],[6.0592308040000376,35.54457959700005],[6.0592091740000456,35.543484774000035],[6.059606338000037,35.54316865000004],[6.061165851000055,35.543411853000066],[6.061606465000068,35.54288969600003],[6.062762802000066,35.542936213000075],[6.064721581000072,35.543829439000035],[6.067826385000046,35.54369426100004],[6.071790508000049,35.54450557600006],[6.072254056000077,35.544358543000044],[6.072286478000024,35.54412268100003],[6.070396507000055,35.54161432600006],[6.067959968000025,35.53990172300007],[6.066061945000058,35.53865504300006],[6.064721764000069,35.53869302900006],[6.0635903950000625,35.538282335000076],[6.061782635000043,35.53824044700008],[6.060421365000025,35.538534226000024],[6.060460529000068,35.53879146200006],[6.059542729000043,35.53916452300007],[6.060809548000066,35.54017977900003],[6.060826572000053,35.540722405000054],[6.059940511000036,35.54087931400005],[6.058852429000069,35.54163291200007],[6.056803350000052,35.541250149000064],[6.055094261000022,35.54182026500007],[6.053277559000037,35.54153722700005],[6.052847050000025,35.54121415900005],[6.052492467000036,35.540411231000064],[6.052727502000039,35.53959793400003],[6.055165273000057,35.53898032300003],[6.057426901000042,35.53917733500003],[6.058972990000029,35.538779755000064],[6.059733587000039,35.538099041000066],[6.059605094000062,35.53756627300004],[6.05915279200002,35.537025990000075],[6.058399322000071,35.53667136800004],[6.057953833000056,35.53593858900007],[6.058786884000028,35.53487426000004],[6.05980132600007,35.53451249300008],[6.059471881000036,35.533830574000035],[6.061647336000021,35.53229164600003],[6.061561292000022,35.530555793000076],[6.06036408600005,35.52942029600007],[6.0572166070000435,35.52845626100003],[6.055266292000056,35.52862770200005],[6.053820248000022,35.52953327300003],[6.053199565000057,35.529591088000075],[6.052415053000061,35.529283873000054],[6.051487253000062,35.52969575900005],[6.050646434000043,35.52931497700007],[6.051196702000027,35.52874982800006],[6.052881265000053,35.52859635600004],[6.053963030000034,35.52799538700003],[6.052992929000027,35.527105910000046],[6.051856848000057,35.52508074200006],[6.050909420000039,35.524384428000076],[6.048793244000024,35.523420086000044],[6.046071414000039,35.52292322200003],[6.044613881000032,35.52332270800008],[6.044184752000035,35.523794328000065],[6.043469837000032,35.52401846600003],[6.043311182000025,35.52350905900005],[6.043596570000034,35.52293776500005],[6.042723869000042,35.522628431000044],[6.042662914000061,35.521856408000076],[6.041223825000031,35.52090773300006],[6.041087783000023,35.52059150000008],[6.0428174600000375,35.51916291100002],[6.042747107000025,35.51865556400003],[6.041267159000029,35.51720023100006],[6.041003146000037,35.517169987000045],[6.040724602000068,35.51754878300005],[6.038407690000042,35.51809669800008],[6.03792431200003,35.51926538300006],[6.037621450000074,35.519499117000066],[6.03715227400005,35.519439986000066],[6.036469916000044,35.51874975700008],[6.034870105000039,35.51818255200004],[6.0330817390000675,35.51794804800005],[6.03248542700004,35.51815081700005],[6.028293661000021,35.515933446000076],[6.025553985000045,35.51512265200006],[6.024447937000048,35.515578309000034],[6.024216145000025,35.516295299000035],[6.023537562000058,35.51632752300003],[6.020637546000046,35.514236553000046],[6.018215691000023,35.51360163600003],[6.016566873000045,35.51358690500007],[6.016253511000059,35.51329055100007],[6.0154624170000375,35.51317559600005],[6.013299630000063,35.51435276300003],[6.01331611300003,35.51471436800006],[6.012847936000071,35.515449844000045],[6.0130593700000645,35.517766610000024],[6.012865533000024,35.51824366100004],[6.011078119000047,35.51798477300008],[6.010182283000063,35.51832484800008],[6.008912504000023,35.51841527900007],[6.005457150000041,35.517033266000055],[6.004429744000049,35.51693673300008],[6.004157955000039,35.517941705000055],[6.0047560570000655,35.51932846700004],[6.004861654000024,35.52130560400008],[6.006137572000057,35.52350305900006],[6.007428239000035,35.52447271600005],[6.007722578000028,35.52529842400003],[6.008851397000058,35.52585486900006],[6.0095985210000435,35.52719696400004],[6.010374188000071,35.52774505700006],[6.011348061000035,35.527695796000046],[6.012947868000026,35.52826331500006],[6.013498542000036,35.529335864000075],[6.015349497000045,35.530294569000034],[6.016518443000052,35.532200429000056],[6.015969747000042,35.533536043000026],[6.015096282000059,35.534069325000075],[6.014965597000071,35.53442746200005],[6.011888749000036,35.536217255000054],[6.011380539000072,35.53609425800005],[6.0111995140000545,35.53576914100006],[6.011116837000031,35.535478589000036],[6.011757074000059,35.53449535900006],[6.011146525000072,35.533745526000075],[6.01076979000004,35.53262423100006],[6.008668422000028,35.53170356500004],[6.007725630000039,35.53087249200007],[6.002963642000054,35.52997755500007],[6.002378743000065,35.530196542000056],[6.002287265000064,35.530583071000024],[6.001294623000035,35.531461653000065],[6.0013090370000555,35.53176282100003],[6.0042036660000235,35.53332405000003],[6.004346940000062,35.53379104800007],[6.004867202000071,35.53366649700007],[6.005548074000046,35.53422366600006],[6.006597561000035,35.53462606900007],[6.009018209000033,35.53658899000004],[6.009838642000034,35.53678566100007],[6.010916021000071,35.53647179400008],[6.011373113000047,35.536737007000056],[6.011249626000051,35.53709121900005],[6.010581428000023,35.53744311100007],[6.010605405000035,35.538258763000044],[6.0117980980000425,35.53927617100004],[6.012545609000028,35.53921056100006],[6.0138291660000505,35.539511341000036],[6.014530703000048,35.53997992500007],[6.014672113000074,35.54088462800007],[6.015063457000053,35.54109615300007],[6.017072147000022,35.54158061900006],[6.017159581000044,35.542257317000065],[6.017861900000071,35.54321301600004],[6.017179637000027,35.54334143500006],[6.015976875000035,35.542373944000076],[6.01274710000007,35.54219875100006],[6.012162336000074,35.54352026500004],[6.01234031000007,35.543720793000034],[6.0113864770000305,35.545491637000055],[6.012250663000032,35.54686147900003],[6.011522542000023,35.548314782000034],[6.012289599000042,35.54907314600007],[6.012415611000051,35.549672498000064],[6.011937397000054,35.54984012600005],[6.011713031000056,35.54948193100006],[6.0104712030000655,35.549276451000026],[6.010622943000044,35.549677694000025],[6.010130261000029,35.55011052300006],[6.00886603500004,35.55003250500005],[6.008016059000056,35.55030746500006],[6.007279947000029,35.55100137000005],[6.007169313000077,35.551513717000034],[6.0067384610000545,35.55175620000006],[6.007211678000033,35.55276596700003],[6.006999558000075,35.55318415900007],[6.0071357370000555,35.55474451500004],[6.005954754000072,35.55555589100004],[6.0059369050000555,35.555244420000065],[6.006480371000066,35.55478973400005],[6.0065542110000365,35.55408972200007],[6.0064535530000285,35.55376770100003],[6.005732407000039,35.55335899500005],[6.005276381000044,35.55277791300006],[6.0046041760000435,35.552683269000056],[6.00376798800005,35.552018091000036],[6.002427140000066,35.55201540100006],[6.002013899000076,35.55227876500004],[6.001697944000057,35.55225403400004],[6.001617328000066,35.55201376900004],[6.000309352000045,35.55201112300006],[6.001644547000069,35.55196142200003],[6.001774105000038,35.551712262000024],[6.002669107000031,35.55141231600004],[6.00454708500007,35.55099399000005],[6.004834533000064,35.55032557100003],[6.003485471000033,35.54982890200006],[6.003195905000041,35.549384975000066],[6.003481605000047,35.54918242400004],[6.004146198000058,35.54926540800005],[6.004437673000041,35.548481534000075],[6.007644072000062,35.54593922300006],[6.010020031000067,35.542885012000056],[6.008401180000021,35.540831756000046],[6.00764325800003,35.53935136400003],[6.006370624000056,35.53843479100004],[6.00608932800003,35.53834385500005],[6.004207393000058,35.53895785000003],[6.004027835000045,35.53834511300005],[6.00312413100005,35.537989476000064],[6.002308939000045,35.53715745000005],[6.001409482000042,35.53682460700003],[6.0008387160000325,35.53702781800007],[5.99998041300006,35.53810245100004],[5.998762490000047,35.53899690500003],[5.998677303000022,35.53860206600007],[5.999464905000025,35.53753799400005],[5.9996732980000615,35.53639894600008],[5.999602002000074,35.53606985600004],[5.998419514000034,35.53572195700008],[5.998081586000069,35.53493993200004],[5.997381862000054,35.534946870000056],[5.996224082000026,35.53550716600006],[5.995123055000022,35.53543806000005],[5.994434315000035,35.53501644900007],[5.993757231000075,35.53508891300004],[5.993857913000056,35.53487924900003],[5.992488129000037,35.53515010900003],[5.992179572000055,35.53405914100006],[5.993326893000074,35.53395093600005],[5.9952632020000465,35.53310289700005],[5.996664825000039,35.531917054000075],[5.997098423000068,35.53000387600008],[5.996591583000054,35.529355218000035],[5.995739896000032,35.52953819700008],[5.994888635000052,35.53016818300006],[5.994018069000049,35.52949733300005],[5.991194496000048,35.528305997000075],[5.990466533000074,35.52827515000007],[5.98984418200007,35.52853126800005],[5.988890993000041,35.52739787300004],[5.988017570000068,35.526808189000064],[5.986887885000044,35.526889675000064],[5.985540900000046,35.52748070200005],[5.984796394000057,35.527449431000036],[5.984339467000041,35.52817000300007],[5.984564869000053,35.528351462000046],[5.984597253000061,35.52928687000008],[5.983749959000022,35.52934795900006],[5.983545038000045,35.529058623000026],[5.983966781000049,35.528851942000074],[5.983993639000062,35.52856813000005],[5.983222266000041,35.528820659000075],[5.983111281000049,35.52868256000005],[5.983541853000077,35.52823227400006],[5.983451969000043,35.52751222300003],[5.98393624800002,35.526494307000064],[5.98277960300004,35.525491475000024],[5.979635280000025,35.52492886400006],[5.978202043000067,35.52424448200003],[5.977679998000042,35.52447583700007],[5.977031090000025,35.52546270600004],[5.97660836700004,35.52569643000004],[5.976306940000029,35.524415960000056],[5.975029131000042,35.52355916300007],[5.973999304000074,35.52362936800006],[5.973046401000033,35.52249586200003],[5.973111326000037,35.52207750800005],[5.974023952000039,35.52158459900005],[5.974061667000058,35.52100304600003],[5.9711313910000285,35.51911788500007],[5.971863338000048,35.518947354000034],[5.97096104700006,35.51869780000004],[5.968656329000055,35.51743430700003],[5.9675418870000385,35.51713310700006],[5.96683908600005,35.517193347000045],[5.963927482000031,35.51587810600006],[5.9641985620000355,35.51581786600008],[5.96110623900006,35.51421146400003],[5.950300601000038,35.512983570000074],[5.9493239380000205,35.51318384600006],[5.943748673000073,35.51323309500003],[5.942680863000021,35.51399901000008],[5.942061061000061,35.51377400800004],[5.941130608000037,35.51406185900004],[5.939678653000044,35.51795488500005],[5.9389580400000455,35.51862826300004],[5.939022747000024,35.520471987000064],[5.940378320000036,35.52136770200008],[5.9400506640000685,35.52162259800008],[5.940545045000022,35.522160875000054],[5.943405952000035,35.52409260500008],[5.944345467000062,35.525083153000026],[5.945213534000061,35.52552342000007],[5.945323943000062,35.52603203100006],[5.945803518000048,35.526481724000064],[5.946918757000049,35.52673462300004],[5.947692201000052,35.527216732000056],[5.948564224000052,35.528408977000026],[5.949413895000021,35.528834095000036],[5.94984306300006,35.52993257300005],[5.95045624200003,35.53020717700008],[5.951506785000049,35.53175271300006],[5.952804956000023,35.53246880900008],[5.95387495600005,35.532492922000074],[5.95650605700007,35.53317229800007],[5.956698304000042,35.53365101600008],[5.95644248900004,35.53432914200005],[5.95253159400005,35.53467732100006],[5.950323096000034,35.53441776000005],[5.949514826000041,35.53525948400005],[5.949068375000024,35.53539915600004],[5.948207242000024,35.53280201600006],[5.946083356000031,35.531073089000074],[5.945407297000031,35.53105041500004],[5.943196887000056,35.531559550000054],[5.940345337000053,35.531867928000054],[5.937525624000045,35.533091711000054],[5.935713880000037,35.53518330500003],[5.936549290000073,35.536493490000055],[5.937237529000072,35.535900868000056],[5.937307064000038,35.53496451400008],[5.937598521000041,35.53494649700008],[5.93782907700006,35.53569700300005],[5.938412516000028,35.53609377200007],[5.937105115000065,35.53844956000006],[5.936260343000072,35.53859602800003],[5.934767251000039,35.53829751500007],[5.934007371000064,35.53807761300004],[5.93348562400007,35.53756594400005],[5.931313485000032,35.53816035400007],[5.930403566000052,35.53803779000003],[5.929193740000073,35.53825123400003],[5.928469967000069,35.53867607800004],[5.9280494360000375,35.53990075400003],[5.928618045000064,35.54110654100003],[5.929525262000027,35.54167037700006],[5.9321574470000655,35.54218706300003],[5.932063710000023,35.542490513000075],[5.931592666000029,35.54261171500008],[5.929967328000032,35.542516513000066],[5.92838663200007,35.54281873100007],[5.927742427000055,35.543305307000026],[5.925958292000075,35.54576915400003],[5.925762574000032,35.54754734900007],[5.92467128800007,35.54901210700007],[5.923264234000044,35.549679483000034],[5.922680032000073,35.55034299700003],[5.923136474000046,35.556273041000054],[5.922322239000039,35.55934282800007],[5.922705850000057,35.56136703200008],[5.923588196000026,35.561341423000044],[5.924578527000051,35.56192315200008],[5.927284995000036,35.56142936800006],[5.929301810000027,35.56066313100007],[5.930194604000064,35.56059828000008],[5.933823175000043,35.55837704000004],[5.935586757000067,35.55771212900004],[5.936891809000031,35.55787363300004],[5.939106332000051,35.55875517000004],[5.9404481040000405,35.559574687000065],[5.939678119000064,35.561031712000045],[5.938589196000066,35.56242008900006],[5.9383987510000225,35.56536545600005],[5.936998899000059,35.56681935600005],[5.936796749000052,35.56768997900008],[5.934287088000076,35.56922696000004],[5.932797924000056,35.57225276400004],[5.9314898080000376,35.57399392900004],[5.930234407000057,35.57505981700007],[5.9258221550000485,35.577976299000056],[5.924158891000047,35.578733647000035],[5.922026671000026,35.57887878900004],[5.920109699000022,35.57972842600003],[5.918150083000057,35.579652682000074],[5.9173460620000355,35.58019404700008],[5.914039689000049,35.58040219500003],[5.911911024000062,35.580986703000065],[5.9095079950000695,35.58379488800006],[5.909190104000061,35.58550271400003],[5.9078989580000325,35.587166694000075],[5.905392032000066,35.58806944100007],[5.904172734000042,35.59009557300004],[5.902873312000054,35.593162447000054],[5.903184844000066,35.59448096700004],[5.904006412000058,35.596028225000055],[5.9061176170000635,35.59811588200006],[5.909163318000026,35.60063463100005],[5.909674272000075,35.60084461300005],[5.912019800000053,35.60062256500004],[5.91467261400004,35.602010144000076],[5.9167901870000605,35.601713490000066],[5.917702458000065,35.600910354000064],[5.918792420000045,35.60133911600008],[5.920145492000074,35.600274988000024],[5.922507078000024,35.59775518600003],[5.922714385000063,35.59499927100006],[5.92357462800004,35.59287277000004],[5.924883744000056,35.59408414300003],[5.925183702000027,35.59331244700007],[5.926097446000028,35.593279833000054],[5.9273098290000235,35.59285371500005],[5.929538496000021,35.59300721200003],[5.931419130000052,35.59278694000005],[5.933376793000036,35.59168852000005],[5.933991329000037,35.591775158000075],[5.934453925000071,35.59156224700007],[5.938516027000048,35.58934995800007],[5.938952695000069,35.58863144400004],[5.938718996000034,35.58770395800008],[5.938988602000052,35.58681853400003],[5.938938216000054,35.58552916100007],[5.94015532700007,35.58576970800004],[5.941387214000031,35.586485982000056],[5.9424525430000585,35.586504183000045],[5.94489328100002,35.58552501600008],[5.945388685000069,35.58496186800005],[5.948850093000033,35.58417590200003],[5.949549138000066,35.58380867300008],[5.9510868460000665,35.58452439100006],[5.950976164000053,35.58506224000007],[5.950506260000054,35.585138415000074],[5.950185777000058,35.585852456000055],[5.949682512000038,35.585584975000074],[5.9490110840000625,35.585837586000025],[5.947799385000053,35.585790631000066],[5.945963645000063,35.58741179400005],[5.945395451000024,35.58767161800006],[5.945069752000052,35.58753507200004],[5.943479024000055,35.58964606700005],[5.944486099000073,35.589856318000045],[5.942193173000021,35.592324543000075],[5.9431401580000625,35.59277858100006],[5.942551119000029,35.59435342200004],[5.9422013900000366,35.594731000000024],[5.93978994400004,35.59562460500007],[5.938901304000069,35.59640129600007],[5.93901489600006,35.59717876700006],[5.9393877610000345,35.59762571400006],[5.940881617000059,35.59812430900007],[5.941360044000021,35.598647811000035],[5.941688038000052,35.59859933000007],[5.941184379000049,35.59916745100003],[5.940384939000069,35.599484493000034],[5.942348283000058,35.599899107000056],[5.941738118000046,35.60005295600007],[5.941755620000038,35.60065373700007],[5.941235427000038,35.60102644800003],[5.940924733000031,35.60205739500003],[5.941282688000058,35.602376813000035],[5.941981842000075,35.60246161400005],[5.941701721000072,35.60277336400003],[5.941849680000075,35.60293047400006],[5.942914167000026,35.60268594200005],[5.943274762000044,35.60290083600006],[5.943237019000037,35.60448595100007],[5.9447806210000635,35.605529079000064],[5.946785715000033,35.60584583000008],[5.948609109000074,35.60439060600004],[5.949570481000023,35.60444612800006],[5.949967655000023,35.60417533200007],[5.950057550000054,35.605203463000066],[5.950620664000041,35.605830809000054],[5.952775733000067,35.60569926800008],[5.952981409000074,35.60565813300008],[5.953405090000047,35.60462197700008],[5.954632366000055,35.60439757600005],[5.954971260000036,35.603298418000065],[5.954799120000075,35.60262359700005],[5.956091908000076,35.60308565400004],[5.956188182000062,35.603363615000035],[5.956959406000067,35.60369300000008],[5.9587097880000215,35.603022777000035],[5.959883852000075,35.603776168000024],[5.960514243000034,35.603600648000054],[5.9609127640000565,35.603068489000066],[5.960573563000025,35.60249107100003],[5.961624765000067,35.603224311000076],[5.962651488000063,35.60470449600007],[5.965100229000029,35.605062961000044],[5.966645404000076,35.60406228200003],[5.967831456000056,35.603838203000066],[5.968013004000056,35.60342405800003],[5.970893925000041,35.60333378400003],[5.971073471000068,35.60295881600007],[5.972878151000032,35.60213513000008],[5.9737635870000645,35.602413682000076],[5.97356205400007,35.60293712600003],[5.97208680500006,35.60382289100005],[5.972330748000047,35.60531871300003],[5.971299871000042,35.60538884400006],[5.968894077000073,35.606320002000075],[5.96769499800007,35.60645379700003],[5.965227536000043,35.607708487000025],[5.964903266000022,35.60795806100003],[5.964908446000038,35.60826972800004],[5.965425107000044,35.609108390000074],[5.962465322000071,35.610215750000066],[5.960872531000064,35.611586174000024],[5.960099782000043,35.611852044000045],[5.958218369000065,35.61728252100005],[5.959048135000046,35.61843105300005],[5.958157638000046,35.61888708200007],[5.96082817000007,35.61978147900004],[5.961485129000039,35.62040929400007],[5.959703714000057,35.62101666700005],[5.96018087300007,35.62190553500005],[5.959387753000044,35.62206469900008],[5.958526524000035,35.62172940900007],[5.957354578000036,35.622211478000054],[5.957271268000056,35.62249610500004],[5.95802255600006,35.623436222000066],[5.958814170000039,35.623891979000064],[5.959300990000031,35.626162184000066],[5.960457984000072,35.62797878300006],[5.960926205000021,35.628254205000076],[5.96492489000002,35.628286195000044],[5.965516029000071,35.627865187000054],[5.966617346000021,35.62759984400003],[5.967461929000024,35.62815526400004],[5.969136811000055,35.62858155400005],[5.972553774000062,35.628515202000074],[5.973158313000056,35.62636980800005],[5.973101402000054,35.62611108700003],[5.972578892000058,35.62588185100003],[5.972898504000057,35.62530705800003],[5.973298292000038,35.62526244900005],[5.973729971000068,35.62479869900005],[5.974010941000074,35.62399420000003],[5.974203199000044,35.62463542800003],[5.9754956700000434,35.62535941800007],[5.975571849000062,35.62509033600003],[5.976334457000064,35.62480155000003],[5.97663755800005,35.62437535000004],[5.9780194830000255,35.62590739800004],[5.97961534600006,35.62581910700004],[5.980696561000059,35.62528506000007],[5.98380226200004,35.62564814700005],[5.984288701000025,35.62686979500006],[5.9870089220000295,35.627494514000034],[5.989054342000031,35.62842819400004],[5.989673549000031,35.627214827000046],[5.989938768000059,35.627221140000074],[5.990466409000021,35.627919994000024],[5.991838020000046,35.627916508000055],[5.992647427000065,35.627556490000075],[5.992232397000066,35.62619208600006],[5.991761886000063,35.62574744400007],[5.992027257000075,35.62513970300006],[5.993626168000048,35.624921656000026],[5.998435402000041,35.62615167800004]]]}}]}