{"type":"FeatureCollection","features":[{"type":"Feature","properties":{},"geometry":{"type":"Polygon","coordinates":[[[6.12286,35.59409],[6.12496,35.59458],[6.12728,35.59487],[6.12796,35.59508],[6.12908,35.59567],[6.13017,35.59574],[6.13107,35.59601],[6.1315,35.59627],[6.1326,35.59653],[6.13353,35.59699],[6.13478,35.59713],[6.13654,35.59709],[6.13853,35.59797],[6.14111,35.59837],[6.14134,35.59857],[6.14141,35.5988],[6.14119,35.59896],[6.14019,35.59912],[6.13981,35.59942],[6.13917,35.59932],[6.13882,35.59943],[6.13789,35.5992],[6.13616,35.59853],[6.13468,35.59764],[6.1331,35.59722],[6.13271,35.59725],[6.12915,35.5966],[6.1258,35.59535],[6.12356,35.59486],[6.12324,35.5947],[6.12255,35.59411],[6.12286,35.59409]]]}},{"type":"Feature","properties":{},"geometry":{"type":"Polygon","coordinates":[[[6.10125,35.58436],[6.10097,35.58454],[6.10093,35.58413],[6.10064,35.58391],[6.1005,35.5836],[6.10063,35.58348],[6.10088,35.58389],[6.10103,35.58396],[6.10104,35.58385],[6.10123,35.58388],[6.10126,35.58348],[6.10128,35.58362],[6.10147,35.58373],[6.10146,35.58336],[6.10162,35.58321],[6.10171,35.5836],[6.10156,35.58395],[6.1013,35.58398],[6.10122,35.58419],[6.1011,35.5842],[6.10125,35.58436]]]}},{"type":"Feature","properties":{},"geometry":{"type":"Polygon","coordinates":[[[6.10059,35.58599],[6.09994,35.58595],[6.09969,35.58537],[6.09992,35.58536],[6.1001,35.58561],[6.10026,35.58539],[6.1004,35.5855],[6.10057,35.58537],[6.10092,35.58543],[6.10094,35.5855],[6.10067,35.58552],[6.10059,35.58572],[6.10023,35.58568],[6.10017,35.58588],[6.10029,35.58593],[6.1008,35.58584],[6.10128,35.58602],[6.10151,35.58626],[6.10059,35.58599]]]}},{"type":"Feature","properties":{},"geometry":{"type":"Polygon","coordinates":[[[6.0986,35.58367],[6.09773,35.58328],[6.09734,35.5837],[6.09726,35.5836],[6.09726,35.58321],[6.09702,35.58305],[6.09706,35.58289],[6.09745,35.58271],[6.09772,35.58279],[6.09767,35.58301],[6.09775,35.58304],[6.09812,35.5829],[6.09819,35.58301],[6.09813,35.58321],[6.09842,35.58339],[6.0986,35.58367]]]}},{"type":"Feature","properties":{},"geometry":{"type":"Polygon","coordinates":[[[6.09982,35.58359],[6.09985,35.58389],[6.09965,35.58391],[6.09959,35.58411],[6.09934,35.58411],[6.09962,35.58356],[6.0999,35.58351],[6.09982,35.58359]]]}},{"type":"Feature","properties":{},"geometry":{"type":"Polygon","coordinates":[[[6.10471,35.58684],[6.10406,35.58674],[6.10357,35.58693],[6.10293,35.58653],[6.10311,35.58638],[6.10358,35.58634],[6.10467,35.58661],[6.10561,35.58755],[6.10577,35.58789],[6.10471,35.58684]]]}},{"type":"Feature","properties":{},"geometry":{"type":"Polygon","coordinates":[[[6.03413,35.56573],[6.03643,35.56673],[6.03794,35.56712],[6.03928,35.56787],[6.04143,35.56812],[6.04236,35.5685],[6.04302,35.56892],[6.04378,35.56907],[6.04434,35.56937],[6.04412,35.56941],[6.04355,35.56911],[6.04223,35.56896],[6.04182,35.56883],[6.04089,35.56829],[6.03942,35.56821],[6.03785,35.56753],[6.03677,35.56692],[6.03622,35.56684],[6.0336,35.56588],[6.03258,35.56569],[6.03224,35.56549],[6.03225,35.56536],[6.03413,35.56573]]]}},{"type":"Feature","properties":{},"geometry":{"type":"Polygon","coordinates":[[[6.05543,35.56968],[6.05445,35.56969],[6.05369,35.56934],[6.05217,35.56921],[6.0519,35.5691],[6.05184,35.56887],[6.05235,35.56873],[6.05317,35.56875],[6.0544,35.56899],[6.05554,35.56949],[6.05543,35.56968]]]}},{"type":"Feature","properties":{},"geometry":{"type":"Polygon","coordinates":[[[6.1628,35.6102],[6.16319,35.61058],[6.16357,35.61077],[6.1638,35.61102],[6.1633,35.61097],[6.16287,35.61072],[6.16261,35.61029],[6.16262,35.61021],[6.1628,35.6102]]]}},{"type":"Feature","properties":{},"geometry":{"type":"Polygon","coordinates":[[[6.16663,35.61173],[6.16678,35.61217],[6.16658,35.61259],[6.16738,35.61332],[6.16747,35.61357],[6.16765,35.61361],[6.16757,35.61368],[6.16729,35.61366],[6.16723,35.61345],[6.16668,35.6131],[6.1665,35.61286],[6.16644,35.61257],[6.16663,35.61213],[6.16663,35.61173]]]}},{"type":"Feature","properties":{},"geometry":{"type":"Polygon","coordinates":[[[6.17204,35.61412],[6.17255,35.61405],[6.17292,35.61412],[6.17306,35.61426],[6.17274,35.61439],[6.17222,35.61436],[6.17197,35.61427],[6.17204,35.61412]]]}},{"type":"Feature","properties":{},"geometry":{"type":"Polygon","coordinates":[[[6.17116,35.61516],[6.17188,35.61511],[6.17223,35.61516],[6.1724,35.61531],[6.17205,35.61543],[6.17134,35.61541],[6.17116,35.61516]]]}},{"type":"Feature","properties":{},"geometry":{"type":"Polygon","coordinates":[[[6.18704,35.61726],[6.18693,35.61715],[6.18694,35.61707],[6.18714,35.61716],[6.18704,35.61726]]]}},{"type":"Feature","properties":{},"geometry":{"type":"Polygon","coordinates":[[[6.12326,35.6186],[6.12165,35.618],[6.11932,35.61765],[6.11917,35.61732],[6.11915,35.61677],[6.11891,35.61652],[6.11839,35.61654],[6.11797,35.61711],[6.1178,35.61718],[6.1172,35.61708],[6.11559,35.61639],[6.11511,35.6161],[6.11483,35.61577],[6.11462,35.61524],[6.11432,35.61495],[6.1129,35.61437],[6.11119,35.61396],[6.11037,35.61363],[6.11005,35.61331],[6.11003,35.61293],[6.10971,35.61237],[6.10969,35.61215],[6.11006,35.61131],[6.11035,35.61112],[6.11126,35.61235],[6.11167,35.61234],[6.11334,35.61188],[6.11438,35.61195],[6.11657,35.6132],[6.11948,35.61402],[6.12143,35.61431],[6.12273,35.61478],[6.12387,35.61507],[6.12432,35.61536],[6.12449,35.61579],[6.12407,35.61635],[6.12384,35.61742],[6.12386,35.61771],[6.12415,35.61818],[6.12542,35.61872],[6.12661,35.61904],[6.12761,35.6195],[6.12908,35.61987],[6.13004,35.62],[6.13075,35.61994],[6.13208,35.6202],[6.13262,35.62047],[6.13315,35.6209],[6.13299,35.62097],[6.13094,35.62078],[6.13035,35.62084],[6.1287,35.62122],[6.1279,35.62115],[6.12746,35.62086],[6.12652,35.62058],[6.12465,35.61972],[6.12348,35.61899],[6.12326,35.6186]]]}},{"type":"Feature","properties":{},"geometry":{"type":"Polygon","coordinates":[[[6.02788,35.58707],[6.02712,35.58701],[6.02697,35.58719],[6.02665,35.58667],[6.02604,35.58659],[6.02355,35.58657],[6.0226,35.58641],[6.02227,35.58614],[6.02182,35.58524],[6.02111,35.5848],[6.02071,35.5847],[6.0193,35.58462],[6.01845,35.58438],[6.01817,35.58443],[6.01486,35.58381],[6.01315,35.58426],[6.0114,35.58516],[6.00908,35.58559],[6.00792,35.58629],[6.00494,35.58487],[6.00337,35.58329],[6.00223,35.58327],[6.00064,35.58363],[5.99904,35.58367],[5.99771,35.58299],[5.99664,35.58091],[5.995,35.57995],[5.99271,35.57893],[5.99111,35.57836],[5.99068,35.57738],[5.99119,35.57706],[5.99278,35.57756],[5.99494,35.57849],[5.9982,35.5787],[6.0002,35.57932],[6.00143,35.57952],[6.00279,35.58022],[6.00635,35.58142],[6.00685,35.58142],[6.00806,35.58089],[6.01205,35.58135],[6.0125,35.58151],[6.01318,35.58192],[6.01398,35.58125],[6.0146,35.58122],[6.01547,35.58148],[6.0159,35.5819],[6.01683,35.58243],[6.01808,35.58347],[6.02154,35.58453],[6.02366,35.58557],[6.02927,35.58684],[6.03045,35.58693],[6.03116,35.58742],[6.02869,35.58735],[6.02788,35.58707]]]}},{"type":"Feature","properties":{},"geometry":{"type":"Polygon","coordinates":[[[6.0375,35.5857],[6.03547,35.58565],[6.03485,35.58541],[6.03381,35.58534],[6.03403,35.58522],[6.03458,35.58514],[6.0361,35.58538],[6.03729,35.58539],[6.03754,35.5855],[6.0375,35.5857]]]}},{"type":"Feature","properties":{},"geometry":{"type":"Polygon","coordinates":[[[5.92044,35.58246],[5.9228,35.58122],[5.92455,35.58071],[5.92805,35.58035],[5.92864,35.58001],[5.92949,35.57984],[5.93004,35.57929],[5.93057,35.57895],[5.93063,35.57872],[5.93062,35.57833],[5.93046,35.57783],[5.92965,35.57609],[5.93017,35.57637],[5.93083,35.57746],[5.93133,35.5789],[5.93136,35.5793],[5.93099,35.58008],[5.93071,35.58055],[5.93053,35.58067],[5.93026,35.58118],[5.93048,35.58148],[5.93038,35.58174],[5.92986,35.58198],[5.92927,35.58245],[5.92754,35.58344],[5.92642,35.58377],[5.92422,35.58422],[5.92161,35.58501],[5.92067,35.5852],[5.91984,35.58554],[5.91918,35.58599],[5.91801,35.58709],[5.91786,35.58762],[5.91811,35.58905],[5.91805,35.59004],[5.91846,35.59167],[5.91838,35.59234],[5.91802,35.59242],[5.91683,35.59143],[5.91632,35.59059],[5.91623,35.58998],[5.9157,35.58877],[5.91602,35.5862],[5.91742,35.58458],[5.91838,35.58369],[5.92044,35.58246]]]}},{"type":"Feature","properties":{},"geometry":{"type":"Polygon","coordinates":[[[5.96007,35.56125],[5.96063,35.5595],[5.96067,35.55845],[5.96059,35.55821],[5.96057,35.55697],[5.96031,35.55579],[5.96036,35.55467],[5.96047,35.55427],[5.9609,35.55346],[5.96121,35.55309],[5.96162,35.55267],[5.96215,35.55262],[5.96241,35.55294],[5.96241,35.55315],[5.96199,35.55487],[5.96187,35.55588],[5.96271,35.55986],[5.96268,35.56108],[5.96253,35.56164],[5.96214,35.56215],[5.96068,35.5636],[5.95949,35.56436],[5.95817,35.5654],[5.95748,35.56586],[5.95621,35.56644],[5.95507,35.56659],[5.95727,35.56412],[5.96007,35.56125]]]}},{"type":"Feature","properties":{},"geometry":{"type":"Polygon","coordinates":[[[6.047,35.54857],[6.04863,35.54832],[6.04953,35.54791],[6.05034,35.5478],[6.0514,35.54737],[6.05257,35.54714],[6.05396,35.54644],[6.0541,35.54656],[6.05367,35.54704],[6.05312,35.5473],[6.05067,35.54794],[6.0497,35.54843],[6.04927,35.5485],[6.049,35.54872],[6.04705,35.54884],[6.0468,35.54877],[6.047,35.54857]]]}},{"type":"Feature","properties":{},"geometry":{"type":"Polygon","coordinates":[[[6.04751,35.54996],[6.04809,35.55014],[6.04837,35.5504],[6.04837,35.55053],[6.04822,35.55054],[6.04752,35.55018],[6.04739,35.55002],[6.04751,35.54996]]]}},{"type":"Feature","properties":{},"geometry":{"type":"Polygon","coordinates":[[[6.04508,35.55043],[6.04538,35.5504],[6.04574,35.54975],[6.04591,35.5496],[6.04597,35.55008],[6.0456,35.55064],[6.04529,35.55082],[6.04497,35.55053],[6.0449,35.55028],[6.04508,35.55043]]]}},{"type":"Feature","properties":{},"geometry":{"type":"Polygon","coordinates":[[[6.02904,35.54345],[6.02961,35.5435],[6.02995,35.54369],[6.03022,35.54418],[6.03082,35.54439],[6.03104,35.54462],[6.03128,35.54528],[6.03154,35.54566],[6.03166,35.54664],[6.03126,35.54715],[6.03106,35.54774],[6.03197,35.54906],[6.03196,35.54947],[6.03216,35.5501],[6.03208,35.55024],[6.03169,35.5503],[6.03147,35.55021],[6.03132,35.54909],[6.03085,35.54835],[6.03058,35.54764],[6.0305,35.54716],[6.03089,35.54629],[6.03076,35.54551],[6.0303,35.54473],[6.02956,35.54442],[6.0289,35.54376],[6.02883,35.54359],[6.02904,35.54345]]]}},{"type":"Feature","properties":{},"geometry":{"type":"Polygon","coordinates":[[[6.02158,35.53614],[6.02248,35.53663],[6.02326,35.53694],[6.02365,35.53744],[6.02378,35.53796],[6.0235,35.53785],[6.02267,35.5371],[6.02188,35.53667],[6.02158,35.53614]]]}},{"type":"Feature","properties":{},"geometry":{"type":"Polygon","coordinates":[[[6.01433,35.54608],[6.01499,35.54625],[6.01621,35.54637],[6.01661,35.54659],[6.01748,35.54742],[6.0176,35.54794],[6.01735,35.54955],[6.01739,35.55051],[6.01744,35.55064],[6.01795,35.55083],[6.01874,35.55074],[6.0186,35.55115],[6.01777,35.55136],[6.01704,35.55102],[6.01692,35.55019],[6.01709,35.54968],[6.01718,35.54847],[6.01711,35.54809],[6.01693,35.54787],[6.01656,35.54776],[6.01568,35.54706],[6.01471,35.54661],[6.01404,35.54611],[6.01433,35.54608]]]}},{"type":"Feature","properties":{},"geometry":{"type":"Polygon","coordinates":[[[6.25258,35.64517],[6.25354,35.64522],[6.25544,35.64592],[6.2576,35.64724],[6.25951,35.64866],[6.25924,35.64877],[6.25801,35.64833],[6.25682,35.64756],[6.25571,35.64711],[6.25527,35.64684],[6.25231,35.64568],[6.25189,35.64544],[6.2515,35.64501],[6.25151,35.64492],[6.25258,35.64517]]]}},{"type":"Feature","properties":{},"geometry":{"type":"Polygon","coordinates":[[[6.27739,35.683],[6.2781,35.68313],[6.27829,35.68339],[6.27829,35.68365],[6.27802,35.6839],[6.27767,35.68402],[6.27718,35.68398],[6.27708,35.68352],[6.27729,35.68307],[6.27739,35.683]]]}},{"type":"Feature","properties":{},"geometry":{"type":"Polygon","coordinates":[[[6.03924,35.61392],[6.03945,35.61435],[6.03962,35.61577],[6.03994,35.61623],[6.04009,35.61685],[6.03983,35.61681],[6.03928,35.61606],[6.03917,35.61511],[6.03897,35.61444],[6.039,35.61413],[6.03914,35.6139],[6.03924,35.61392]]]}},{"type":"Feature","properties":{},"geometry":{"type":"Polygon","coordinates":[[[5.95292,35.57312],[5.95302,35.57283],[5.95296,35.57241],[5.95263,35.57152],[5.95259,35.57105],[5.9534,35.57223],[5.95339,35.5725],[5.95307,35.5733],[5.95292,35.57312]]]}},{"type":"Feature","properties":{},"geometry":{"type":"Polygon","coordinates":[[[6.15299,35.63522],[6.15293,35.63534],[6.15266,35.63543],[6.15213,35.63538],[6.15141,35.63492],[6.15102,35.63484],[6.15036,35.63487],[6.14941,35.63505],[6.149,35.63534],[6.14893,35.63551],[6.14847,35.63548],[6.14799,35.63562],[6.146,35.63507],[6.14464,35.63439],[6.1445,35.63415],[6.14405,35.63379],[6.14378,35.6337],[6.14366,35.63348],[6.14206,35.63189],[6.14062,35.63113],[6.14033,35.63111],[6.14001,35.63074],[6.13778,35.63051],[6.13715,35.63019],[6.13707,35.63003],[6.13657,35.62975],[6.13614,35.62971],[6.13537,35.62936],[6.1345,35.62913],[6.13401,35.62927],[6.1335,35.62898],[6.13338,35.62891],[6.13327,35.62859],[6.13317,35.62796],[6.13228,35.62729],[6.13178,35.6271],[6.13097,35.62699],[6.13058,35.62711],[6.1305,35.62625],[6.12997,35.62583],[6.12988,35.62492],[6.13064,35.62483],[6.1341,35.62674],[6.13774,35.62791],[6.13959,35.62883],[6.1413,35.62893],[6.14305,35.62934],[6.14328,35.62951],[6.14423,35.63076],[6.1449,35.63132],[6.15233,35.63374],[6.15344,35.63395],[6.15429,35.6343],[6.15615,35.63549],[6.15658,35.63614],[6.15299,35.63522]]]}},{"type":"Feature","properties":{},"geometry":{"type":"Polygon","coordinates":[[[6.1494,35.63556],[6.15186,35.63666],[6.15247,35.63711],[6.15348,35.63818],[6.15483,35.63927],[6.15487,35.63939],[6.15562,35.63996],[6.15694,35.64053],[6.15725,35.64089],[6.15688,35.64095],[6.1561,35.64082],[6.15537,35.6405],[6.15403,35.63936],[6.15301,35.63887],[6.15254,35.63845],[6.1521,35.63785],[6.15083,35.63686],[6.15,35.63638],[6.14931,35.63567],[6.1494,35.63556]]]}},{"type":"Feature","properties":{},"geometry":{"type":"Polygon","coordinates":[[[6.19592,35.63482],[6.19474,35.63415],[6.19401,35.63389],[6.19264,35.63375],[6.19215,35.63383],[6.19219,35.63397],[6.19146,35.63364],[6.18989,35.63328],[6.18908,35.6332],[6.1883,35.63286],[6.18616,35.63271],[6.18594,35.63251],[6.18673,35.63232],[6.18783,35.63252],[6.18923,35.63265],[6.18988,35.63283],[6.19261,35.63305],[6.19426,35.63366],[6.19542,35.63445],[6.19608,35.63468],[6.19631,35.63485],[6.1967,35.63547],[6.19592,35.63482]]]}},{"type":"Feature","properties":{},"geometry":{"type":"Polygon","coordinates":[[[6.17889,35.60218],[6.17913,35.6023],[6.17988,35.60237],[6.1818,35.60359],[6.18224,35.60421],[6.18221,35.60454],[6.18156,35.60417],[6.18071,35.6034],[6.17871,35.60232],[6.17889,35.60218]]]}},{"type":"Feature","properties":{},"geometry":{"type":"Polygon","coordinates":[[[6.19649,35.60936],[6.19709,35.60941],[6.1986,35.61006],[6.19875,35.61025],[6.19649,35.60936]]]}},{"type":"Feature","properties":{},"geometry":{"type":"Polygon","coordinates":[[[6.12159,35.56665],[6.1197,35.56625],[6.11853,35.5659],[6.11731,35.56532],[6.11609,35.56502],[6.1157,35.56478],[6.11348,35.5639],[6.11262,35.56371],[6.11021,35.56274],[6.10625,35.561],[6.1024,35.55835],[6.10269,35.55832],[6.10384,35.55898],[6.10503,35.55991],[6.1066,35.56071],[6.10702,35.56108],[6.10975,35.56233],[6.11912,35.56586],[6.12081,35.56628],[6.12159,35.56665]]]}},{"type":"Feature","properties":{},"geometry":{"type":"Polygon","coordinates":[[[6.09653,35.5565],[6.09573,35.55637],[6.09502,35.55606],[6.09531,35.5561],[6.09653,35.5565]]]}},{"type":"Feature","properties":{},"geometry":{"type":"Polygon","coordinates":[[[6.10245,35.55826],[6.10017,35.55776],[6.09985,35.55752],[6.10245,35.55826]]]}},{"type":"Feature","properties":{},"geometry":{"type":"Polygon","coordinates":[[[6.04178,35.56258],[6.04009,35.56263],[6.03934,35.56326],[6.03891,35.56319],[6.03838,35.5629],[6.03766,35.56268],[6.03749,35.56251],[6.03745,35.56219],[6.03763,35.56209],[6.03886,35.5624],[6.03988,35.56207],[6.04055,35.56204],[6.04188,35.56249],[6.04178,35.56258]]]}},{"type":"Feature","properties":{},"geometry":{"type":"Polygon","coordinates":[[[6.03847,35.56328],[6.03738,35.56361],[6.03688,35.56362],[6.03596,35.56352],[6.03467,35.56319],[6.03401,35.56292],[6.03313,35.56234],[6.03204,35.56189],[6.03201,35.56146],[6.03209,35.56134],[6.03224,35.56138],[6.03363,35.56204],[6.03395,35.56228],[6.03509,35.56256],[6.0355,35.56262],[6.0362,35.56237],[6.03643,35.56239],[6.03847,35.56328]]]}},{"type":"Feature","properties":{},"geometry":{"type":"Polygon","coordinates":[[[6.02979,35.56374],[6.02739,35.56339],[6.0258,35.56293],[6.02308,35.56196],[6.02149,35.56169],[6.0213,35.56145],[6.02183,35.5614],[6.02271,35.56149],[6.02568,35.56207],[6.02629,35.56228],[6.02703,35.5628],[6.02773,35.56293],[6.02937,35.56346],[6.02979,35.56374]]]}},{"type":"Feature","properties":{},"geometry":{"type":"Polygon","coordinates":[[[6.05103,35.53682],[6.04963,35.53676],[6.04881,35.53657],[6.04737,35.53585],[6.04906,35.53639],[6.05124,35.53673],[6.05103,35.53682]]]}},{"type":"Feature","properties":{},"geometry":{"type":"Polygon","coordinates":[[[6.05672,35.53813],[6.05567,35.53789],[6.05529,35.53767],[6.05605,35.53782],[6.05672,35.53813]]]}},{"type":"Feature","properties":{},"geometry":{"type":"Polygon","coordinates":[[[6.04658,35.53571],[6.04593,35.53565],[6.04441,35.53516],[6.04217,35.53398],[6.04049,35.53292],[6.04028,35.5327],[6.04372,35.53466],[6.04493,35.53521],[6.04658,35.53571]]]}},{"type":"Feature","properties":{},"geometry":{"type":"Polygon","coordinates":[[[6.04823,35.5352],[6.04573,35.53469],[6.04264,35.53333],[6.04047,35.53165],[6.04281,35.53319],[6.04653,35.53468],[6.04774,35.53488],[6.04803,35.53499],[6.04823,35.5352]]]}},{"type":"Feature","properties":{},"geometry":{"type":"Polygon","coordinates":[[[6.04181,35.53208],[6.04057,35.53119],[6.03843,35.53102],[6.04039,35.53089],[6.04091,35.531],[6.04269,35.53241],[6.04181,35.53208]]]}},{"type":"Feature","properties":{},"geometry":{"type":"Polygon","coordinates":[[[6.03783,35.53268],[6.03563,35.53177],[6.03106,35.53098],[6.02987,35.53045],[6.02828,35.53019],[6.02671,35.52962],[6.02492,35.52865],[6.02771,35.52932],[6.0313,35.53057],[6.03561,35.53152],[6.03846,35.53255],[6.03939,35.53311],[6.03783,35.53268]]]}},{"type":"Feature","properties":{},"geometry":{"type":"Polygon","coordinates":[[[6.01953,35.52685],[6.01511,35.52535],[6.01385,35.52425],[6.01506,35.52458],[6.02016,35.52668],[6.01953,35.52685]]]}},{"type":"Feature","properties":{},"geometry":{"type":"Polygon","coordinates":[[[6.0132,35.52421],[6.00962,35.52277],[6.00806,35.52157],[6.00762,35.52096],[6.01179,35.52343],[6.01309,35.52378],[6.01365,35.52415],[6.0132,35.52421]]]}},{"type":"Feature","properties":{},"geometry":{"type":"Polygon","coordinates":[[[5.99295,35.51418],[5.99147,35.51377],[5.98964,35.51312],[5.9861,35.51219],[5.98569,35.51186],[5.98896,35.51266],[5.9906,35.51329],[5.99276,35.51387],[5.9932,35.5141],[5.99295,35.51418]]]}},{"type":"Feature","properties":{},"geometry":{"type":"Polygon","coordinates":[[[5.98188,35.51016],[5.97969,35.50964],[5.97892,35.50919],[5.97923,35.50915],[5.98018,35.50956],[5.98163,35.50993],[5.98188,35.51016]]]}},{"type":"Feature","properties":{},"geometry":{"type":"Polygon","coordinates":[[[5.97666,35.50824],[5.9742,35.50807],[5.97333,35.50775],[5.97291,35.5074],[5.97377,35.50776],[5.97463,35.50796],[5.97654,35.50804],[5.97689,35.50814],[5.97666,35.50824]]]}},{"type":"Feature","properties":{},"geometry":{"type":"Polygon","coordinates":[[[6.00568,35.54284],[6.00632,35.54273],[6.00698,35.54287],[6.00704,35.54298],[6.0058,35.54296],[6.00568,35.54284]]]}},{"type":"Feature","properties":{},"geometry":{"type":"Polygon","coordinates":[[[5.94019,35.56483],[5.94481,35.56293],[5.94686,35.56163],[5.94758,35.56157],[5.94734,35.56255],[5.94616,35.56341],[5.94428,35.5643],[5.94254,35.56491],[5.94125,35.56523],[5.93842,35.56615],[5.93832,35.56602],[5.94019,35.56483]]]}},{"type":"Feature","properties":{},"geometry":{"type":"Polygon","coordinates":[[[5.94743,35.56301],[5.94772,35.56152],[5.94919,35.56043],[5.95266,35.55935],[5.95489,35.55812],[5.95887,35.55845],[5.95442,35.5614],[5.95124,35.56285],[5.94931,35.56621],[5.94866,35.56696],[5.94819,35.56668],[5.94743,35.56301]]]}},{"type":"Feature","properties":{},"geometry":{"type":"Polygon","coordinates":[[[6.00306,35.54325],[6.0037,35.54326],[6.00391,35.5434],[6.00473,35.54291],[6.00488,35.5427],[6.00521,35.54282],[6.00496,35.54307],[6.004,35.54359],[6.00326,35.54344],[6.00306,35.54325]]]}},{"type":"Feature","properties":{},"geometry":{"type":"Polygon","coordinates":[[[5.96244,35.52805],[5.96334,35.52776],[5.96507,35.52739],[5.9647,35.52763],[5.96306,35.52811],[5.96239,35.52814],[5.96244,35.52805]]]}},{"type":"Feature","properties":{},"geometry":{"type":"Polygon","coordinates":[[[5.96747,35.52703],[5.96796,35.52704],[5.96937,35.52748],[5.97132,35.52777],[5.97318,35.52759],[5.97506,35.52769],[5.97185,35.52803],[5.97025,35.52799],[5.96747,35.52703]]]}},{"type":"Feature","properties":{},"geometry":{"type":"Polygon","coordinates":[[[5.95371,35.52727],[5.95475,35.52781],[5.95574,35.52786],[5.9598,35.52859],[5.95832,35.52873],[5.95389,35.52795],[5.95352,35.52778],[5.95234,35.52618],[5.95202,35.52592],[5.95133,35.5255],[5.94978,35.52496],[5.95043,35.52493],[5.95255,35.52576],[5.95327,35.52643],[5.95371,35.52727]]]}},{"type":"Feature","properties":{},"geometry":{"type":"Polygon","coordinates":[[[5.95061,35.58879],[5.95084,35.58905],[5.95075,35.58951],[5.95123,35.59012],[5.95222,35.59073],[5.95207,35.5908],[5.95153,35.59073],[5.95119,35.59058],[5.95081,35.5902],[5.95037,35.58947],[5.9505,35.58913],[5.95042,35.58886],[5.95064,35.58869],[5.95061,35.58879]]]}},{"type":"Feature","properties":{},"geometry":{"type":"Polygon","coordinates":[[[5.95727,35.58731],[5.95627,35.58802],[5.95609,35.58834],[5.95477,35.58895],[5.95482,35.58878],[5.95574,35.58801],[5.95727,35.58731]]]}},{"type":"Feature","properties":{},"geometry":{"type":"Polygon","coordinates":[[[6.08688,35.60446],[6.08242,35.60291],[6.08157,35.6024],[6.082,35.60222],[6.0852,35.60285],[6.08629,35.6034],[6.08659,35.60374],[6.08688,35.60446]]]}},{"type":"Feature","properties":{},"geometry":{"type":"Polygon","coordinates":[[[6.05012,35.54922],[6.0497,35.54927],[6.04919,35.54902],[6.04951,35.54897],[6.04985,35.54906],[6.05012,35.54922]]]}},{"type":"Feature","properties":{},"geometry":{"type":"Polygon","coordinates":[[[6.05023,35.55038],[6.05002,35.55043],[6.04725,35.54955],[6.04677,35.54956],[6.04629,35.5494],[6.04666,35.549],[6.0476,35.54917],[6.04994,35.54986],[6.05023,35.55038]]]}},{"type":"Feature","properties":{},"geometry":{"type":"Polygon","coordinates":[[[6.08885,35.60709],[6.0883,35.60682],[6.08701,35.60658],[6.08596,35.60601],[6.08508,35.60566],[6.08419,35.60469],[6.08496,35.60479],[6.0879,35.60617],[6.08858,35.60661],[6.08885,35.60709]]]}}]}