{"type":"FeatureCollection","features":[{"type":"Feature","properties":{"Name":"Sans titre - Polygone"},"geometry":{"type":"Polygon","coordinates":[[[6.22965,35.67608],[6.22969,35.67548],[6.23033,35.67456],[6.23064,35.67323],[6.23047,35.67308],[6.23045,35.67279],[6.23035,35.67268],[6.23048,35.67245],[6.23028,35.67178],[6.23016,35.67051],[6.2305,35.67023],[6.23127,35.67025],[6.23159,35.66999],[6.23181,35.66999],[6.23186,35.66976],[6.2323,35.66983],[6.23241,35.67007],[6.23335,35.67039],[6.23341,35.67077],[6.23394,35.67115],[6.23537,35.67152],[6.23647,35.67154],[6.23645,35.672],[6.23544,35.67268],[6.23439,35.67387],[6.23329,35.67392],[6.23238,35.67478],[6.23202,35.67578],[6.23315,35.67626],[6.23265,35.6776],[6.23275,35.67782],[6.23073,35.67761],[6.23074,35.67648],[6.22965,35.67608]]]}},{"type":"Feature","properties":{"Name":"Agricole Olivier"},"geometry":{"type":"Polygon","coordinates":[[[6.1966,35.67098],[6.19646,35.67084],[6.19583,35.67082],[6.1956,35.67071],[6.1955,35.67045],[6.19555,35.67015],[6.19483,35.66945],[6.19534,35.66907],[6.19536,35.66883],[6.19449,35.66797],[6.19441,35.66774],[6.19357,35.66677],[6.1927,35.66635],[6.1924,35.66609],[6.19182,35.66593],[6.19172,35.66582],[6.19182,35.66537],[6.19229,35.66484],[6.19225,35.6644],[6.19211,35.66427],[6.19246,35.66354],[6.19518,35.66379],[6.1956,35.66365],[6.19656,35.6637],[6.1981,35.66412],[6.19912,35.66412],[6.19981,35.66381],[6.20025,35.66349],[6.20077,35.66232],[6.2014,35.66218],[6.20159,35.6623],[6.20164,35.66246],[6.20149,35.66315],[6.20267,35.66438],[6.20294,35.66485],[6.20329,35.66521],[6.20363,35.66532],[6.20427,35.66534],[6.20502,35.66565],[6.20541,35.66595],[6.20598,35.66681],[6.20672,35.66738],[6.20716,35.66744],[6.20754,35.66766],[6.20814,35.66757],[6.20839,35.66763],[6.20877,35.66797],[6.2091,35.6686],[6.20906,35.66877],[6.20875,35.66905],[6.20805,35.66921],[6.20743,35.66951],[6.20671,35.6704],[6.20573,35.67107],[6.20465,35.67106],[6.20409,35.67131],[6.20315,35.67231],[6.20262,35.67333],[6.20149,35.67492],[6.20129,35.67492],[6.20072,35.67458],[6.20037,35.67423],[6.19991,35.67417],[6.19964,35.67424],[6.19944,35.67417],[6.19864,35.67352],[6.19838,35.67279],[6.19812,35.67253],[6.19732,35.6725],[6.19701,35.67161],[6.1964,35.67125],[6.1966,35.67098]]]}},{"type":"Feature","properties":{"Name":"Sans titre - Polygone"},"geometry":{"type":"Polygon","coordinates":[[[6.01768,35.62761],[6.01885,35.6274],[6.01892,35.62777],[6.01876,35.62795],[6.01796,35.62818],[6.01765,35.62796],[6.01768,35.62761]]]}},{"type":"Feature","properties":{"Name":"Sans titre - Polygone"},"geometry":{"type":"Polygon","coordinates":[[[6.01889,35.62582],[6.02017,35.62574],[6.02014,35.62632],[6.01974,35.62693],[6.01889,35.62582]]]}},{"type":"Feature","properties":{"Name":"Sans titre - Polygone"},"geometry":{"type":"Polygon","coordinates":[[[6.02256,35.62662],[6.02422,35.6259],[6.02384,35.62635],[6.02286,35.62671],[6.02256,35.62662]]]}},{"type":"Feature","properties":{"Name":"Sans titre - Polygone"},"geometry":{"type":"Polygon","coordinates":[[[6.03618,35.62047],[6.03624,35.61985],[6.03608,35.61901],[6.03551,35.61871],[6.03531,35.61832],[6.03525,35.61792],[6.03534,35.6177],[6.03562,35.61773],[6.03575,35.61738],[6.03601,35.6184],[6.03633,35.61882],[6.03661,35.61951],[6.0365,35.62002],[6.03618,35.62047]]]}},{"type":"Feature","properties":{"Name":"Sans titre - Polygone"},"geometry":{"type":"Polygon","coordinates":[[[6.03448,35.6141],[6.03472,35.61267],[6.03461,35.61231],[6.0347,35.61219],[6.03569,35.61241],[6.03578,35.61249],[6.03558,35.61276],[6.03514,35.614],[6.03523,35.61445],[6.03552,35.6149],[6.03544,35.61495],[6.03448,35.6141]]]}},{"type":"Feature","properties":{"Name":"vide labourable"},"geometry":{"type":"Polygon","coordinates":[[[5.92205,35.56143],[5.92575,35.56242],[5.9278,35.56394],[5.92806,35.56319],[5.92884,35.5631],[5.92706,35.56225],[5.92674,35.56171],[5.92858,35.56118],[5.92995,35.56092],[5.93264,35.56072],[5.9317,35.5624],[5.9316,35.56287],[5.93095,35.56419],[5.92976,35.56622],[5.92983,35.56678],[5.93113,35.56733],[5.93154,35.56858],[5.9301,35.57123],[5.93098,35.57407],[5.93024,35.5748],[5.9286,35.57598],[5.92485,35.57835],[5.92309,35.57857],[5.92021,35.57914],[5.91754,35.57941],[5.91676,35.57825],[5.91655,35.57652],[5.91471,35.57572],[5.90869,35.57637],[5.90772,35.57391],[5.90475,35.56743],[5.90271,35.5655],[5.89919,35.56425],[5.89898,35.56377],[5.90022,35.56134],[5.90116,35.56047],[5.90269,35.56094],[5.90329,35.56],[5.90315,35.55858],[5.90292,35.55758],[5.90343,35.5562],[5.9039,35.556],[5.90536,35.55604],[5.90782,35.55487],[5.90898,35.55442],[5.91067,35.55612],[5.91231,35.55605],[5.91326,35.55619],[5.91358,35.55712],[5.91394,35.55776],[5.9169,35.56049],[5.91883,35.56145],[5.92048,35.56136],[5.92205,35.56143]]]}},{"type":"Feature","properties":{"Name":"Placemark"},"geometry":{"type":"Polygon","coordinates":[[[6.28172,35.67667],[6.28141,35.67703],[6.28173,35.67828],[6.28151,35.6786],[6.28138,35.67804],[6.28092,35.67761],[6.28082,35.67699],[6.28029,35.67668],[6.27972,35.67677],[6.27912,35.67743],[6.27885,35.67718],[6.2793,35.67652],[6.27922,35.6763],[6.27866,35.67614],[6.27806,35.67619],[6.27743,35.67612],[6.27589,35.67497],[6.27424,35.67564],[6.27415,35.67551],[6.27466,35.67383],[6.27529,35.67286],[6.27538,35.67241],[6.27579,35.67201],[6.27572,35.67192],[6.27498,35.67202],[6.27481,35.67195],[6.27469,35.6717],[6.27473,35.67152],[6.2734,35.6706],[6.27345,35.67051],[6.27265,35.67018],[6.27254,35.66986],[6.27228,35.66967],[6.27222,35.66934],[6.27114,35.66878],[6.27094,35.66826],[6.27028,35.66769],[6.27031,35.66736],[6.27051,35.66722],[6.27065,35.66725],[6.27106,35.66754],[6.27126,35.66794],[6.27136,35.66857],[6.27208,35.6687],[6.27251,35.66915],[6.27294,35.66927],[6.27363,35.6689],[6.27374,35.6679],[6.27357,35.66753],[6.27308,35.66687],[6.27272,35.66661],[6.27216,35.66662],[6.27157,35.66602],[6.27105,35.66606],[6.27007,35.66441],[6.26929,35.66362],[6.26845,35.66318],[6.26796,35.66257],[6.26684,35.66291],[6.26603,35.66279],[6.26515,35.66244],[6.26396,35.6617],[6.26394,35.66061],[6.26351,35.65969],[6.26344,35.65909],[6.2631,35.65868],[6.26239,35.65854],[6.26229,35.65833],[6.2625,35.65809],[6.26286,35.65801],[6.26383,35.6571],[6.26482,35.65595],[6.26524,35.65596],[6.2682,35.65868],[6.27208,35.66172],[6.27349,35.66298],[6.27384,35.66349],[6.27433,35.66392],[6.27453,35.66433],[6.27595,35.6658],[6.27694,35.66755],[6.27734,35.66799],[6.27819,35.66866],[6.27902,35.67007],[6.28024,35.67086],[6.28065,35.67129],[6.2806,35.67181],[6.2814,35.6729],[6.28192,35.67293],[6.28224,35.67319],[6.28307,35.6729],[6.2829,35.67261],[6.28456,35.6727],[6.283,35.67403],[6.28338,35.67454],[6.28235,35.67446],[6.28194,35.67487],[6.28162,35.67556],[6.28166,35.67589],[6.28155,35.67613],[6.28172,35.67667]]]}},{"type":"Feature","properties":{"Name":"Parcours [25:Polygon]"},"geometry":{"type":"Polygon","coordinates":[[[6.16818,35.6324],[6.16738,35.63243],[6.16679,35.63257],[6.16641,35.63247],[6.16641,35.63213],[6.16663,35.63181],[6.16663,35.63149],[6.16633,35.63128],[6.16616,35.63098],[6.16504,35.63066],[6.16484,35.63044],[6.16474,35.63001],[6.16403,35.62965],[6.16437,35.62928],[6.1644,35.62909],[6.16348,35.629],[6.16335,35.62891],[6.16336,35.62867],[6.1635,35.62849],[6.16409,35.62813],[6.16448,35.62832],[6.16448,35.6285],[6.16476,35.62867],[6.16502,35.62867],[6.16504,35.62857],[6.16488,35.62842],[6.16518,35.62818],[6.16505,35.62772],[6.16481,35.62755],[6.1645,35.62745],[6.16386,35.62752],[6.16358,35.62735],[6.16326,35.62741],[6.16295,35.6273],[6.16275,35.62742],[6.16253,35.62784],[6.16235,35.62798],[6.1618,35.62803],[6.16157,35.62789],[6.16137,35.6276],[6.16141,35.62701],[6.16127,35.62692],[6.16077,35.62724],[6.1606,35.62723],[6.16045,35.62693],[6.15891,35.62749],[6.15883,35.62727],[6.15864,35.62759],[6.15838,35.62765],[6.15821,35.62754],[6.15831,35.62742],[6.15834,35.62714],[6.15877,35.62663],[6.15924,35.6263],[6.1593,35.62616],[6.15917,35.62613],[6.15811,35.62678],[6.15782,35.62682],[6.15689,35.62725],[6.15627,35.62729],[6.15624,35.62714],[6.15647,35.62696],[6.15653,35.62678],[6.15636,35.62546],[6.15684,35.62508],[6.15685,35.62475],[6.15672,35.62451],[6.15677,35.6242],[6.15692,35.62402],[6.15727,35.62387],[6.15744,35.62421],[6.15761,35.62415],[6.15766,35.62367],[6.15794,35.62348],[6.15817,35.62308],[6.15799,35.62258],[6.15728,35.62263],[6.15649,35.62247],[6.15628,35.62275],[6.15568,35.62315],[6.15556,35.62298],[6.15511,35.62289],[6.15485,35.62268],[6.15509,35.62228],[6.15491,35.62209],[6.15438,35.62207],[6.15426,35.62195],[6.15426,35.62176],[6.1546,35.62165],[6.15477,35.62187],[6.15533,35.6221],[6.15558,35.62236],[6.15609,35.62223],[6.15619,35.62209],[6.1561,35.62194],[6.15546,35.62172],[6.15499,35.62176],[6.15484,35.6214],[6.15401,35.62146],[6.15315,35.62116],[6.15306,35.62097],[6.15253,35.62102],[6.15246,35.6209],[6.15252,35.62083],[6.15312,35.6204],[6.15295,35.62021],[6.15241,35.6201],[6.15154,35.62021],[6.15066,35.61975],[6.15068,35.62027],[6.15037,35.62045],[6.15005,35.62034],[6.14996,35.6201],[6.1502,35.61994],[6.15052,35.61987],[6.15054,35.61976],[6.15046,35.61974],[6.14971,35.61956],[6.14876,35.61969],[6.14848,35.61983],[6.14811,35.6198],[6.148,35.61964],[6.14825,35.61947],[6.14884,35.61961],[6.1492,35.61956],[6.14947,35.61941],[6.14941,35.61913],[6.14869,35.6187],[6.14875,35.61834],[6.14898,35.61795],[6.14879,35.6178],[6.14882,35.6177],[6.14914,35.61755],[6.14935,35.61756],[6.15005,35.61794],[6.15059,35.61808],[6.15109,35.61846],[6.15148,35.61842],[6.15155,35.61856],[6.15194,35.61853],[6.15192,35.61877],[6.15245,35.61901],[6.15263,35.61889],[6.15245,35.61866],[6.1525,35.61854],[6.15288,35.61862],[6.15316,35.61856],[6.15332,35.61892],[6.15294,35.61905],[6.1527,35.61891],[6.15266,35.61906],[6.15376,35.6196],[6.154,35.61948],[6.15412,35.61963],[6.15487,35.61954],[6.15502,35.61975],[6.15502,35.62001],[6.1552,35.62015],[6.15521,35.62039],[6.15594,35.62034],[6.1564,35.62076],[6.15719,35.62106],[6.15794,35.62114],[6.15827,35.62132],[6.15824,35.62151],[6.15805,35.6217],[6.15806,35.62198],[6.15812,35.62204],[6.15833,35.62197],[6.15839,35.62232],[6.15818,35.6224],[6.15813,35.62263],[6.15844,35.62273],[6.1586,35.62267],[6.15875,35.62219],[6.15891,35.62216],[6.15917,35.62189],[6.15941,35.62194],[6.15959,35.62179],[6.16113,35.62192],[6.16145,35.62217],[6.16235,35.62231],[6.16391,35.62174],[6.16434,35.62175],[6.16493,35.62147],[6.16619,35.62061],[6.16652,35.62058],[6.16653,35.62075],[6.1667,35.62077],[6.16737,35.62028],[6.16786,35.62026],[6.16736,35.62059],[6.16724,35.62079],[6.16726,35.62113],[6.16771,35.62134],[6.16783,35.62117],[6.16779,35.62099],[6.16816,35.62088],[6.16874,35.62015],[6.16924,35.61998],[6.16983,35.61964],[6.17002,35.61942],[6.17002,35.61926],[6.16984,35.61923],[6.16924,35.61948],[6.16837,35.61964],[6.16728,35.6196],[6.16683,35.61945],[6.16635,35.61948],[6.16575,35.6197],[6.1657,35.61975],[6.16582,35.61982],[6.16572,35.62008],[6.1655,35.62009],[6.16509,35.6206],[6.1643,35.62091],[6.1634,35.62091],[6.1634,35.62074],[6.16408,35.61984],[6.16393,35.61962],[6.16348,35.61959],[6.1633,35.61949],[6.1633,35.61919],[6.16292,35.61882],[6.16281,35.6186],[6.16283,35.61838],[6.16305,35.61818],[6.16391,35.61803],[6.16401,35.61784],[6.16401,35.6174],[6.16431,35.61695],[6.16468,35.61697],[6.16538,35.61734],[6.1661,35.61727],[6.16642,35.61734],[6.16661,35.61749],[6.16699,35.61758],[6.16766,35.61814],[6.16793,35.61825],[6.16822,35.61821],[6.16886,35.6179],[6.16907,35.61807],[6.16938,35.61811],[6.16986,35.61796],[6.1702,35.618],[6.17063,35.6179],[6.1702,35.61848],[6.17022,35.61869],[6.16984,35.61897],[6.17029,35.61915],[6.17036,35.61927],[6.17053,35.6191],[6.17051,35.61882],[6.17094,35.61818],[6.17113,35.61805],[6.17156,35.61803],[6.17228,35.61832],[6.17243,35.61852],[6.17224,35.61878],[6.17209,35.61936],[6.17124,35.62031],[6.17112,35.62056],[6.1712,35.62105],[6.17112,35.6216],[6.17183,35.62202],[6.17172,35.62264],[6.1724,35.62279],[6.17265,35.62314],[6.17286,35.62274],[6.17312,35.62262],[6.17355,35.62297],[6.17403,35.623],[6.17428,35.62328],[6.17422,35.62359],[6.17429,35.62363],[6.17465,35.62343],[6.1762,35.62397],[6.17666,35.62448],[6.17751,35.62443],[6.1783,35.62467],[6.17811,35.62476],[6.1774,35.62469],[6.17741,35.62491],[6.17702,35.62515],[6.17686,35.62537],[6.17552,35.62579],[6.17519,35.62619],[6.17498,35.62705],[6.17481,35.62732],[6.17462,35.62755],[6.17373,35.62801],[6.17324,35.62848],[6.17308,35.62879],[6.17265,35.6289],[6.17226,35.62878],[6.17172,35.62927],[6.1711,35.62931],[6.17109,35.62969],[6.17084,35.62957],[6.17067,35.62978],[6.17064,35.63025],[6.1702,35.63086],[6.16983,35.63189],[6.17024,35.63246],[6.17008,35.63256],[6.1701,35.63268],[6.1705,35.63273],[6.17047,35.63296],[6.17061,35.63315],[6.17025,35.63334],[6.16983,35.63298],[6.16991,35.63276],[6.1698,35.63247],[6.16992,35.63229],[6.16987,35.63213],[6.16975,35.63211],[6.16956,35.63227],[6.16903,35.63208],[6.16891,35.63188],[6.16867,35.63179],[6.16851,35.63189],[6.16838,35.63222],[6.16818,35.6324]]]}},{"type":"Feature","properties":{"Name":"Sans titre - Polygone"},"geometry":{"type":"Polygon","coordinates":[[[6.08407,35.57554],[6.08339,35.57591],[6.08273,35.5758],[6.08224,35.57613],[6.08131,35.57597],[6.08106,35.57633],[6.08122,35.57658],[6.08073,35.57698],[6.08041,35.57694],[6.08022,35.57722],[6.08039,35.57732],[6.08006,35.57814],[6.0797,35.5784],[6.07968,35.57939],[6.07956,35.57944],[6.07968,35.58],[6.07991,35.58014],[6.08008,35.58013],[6.08017,35.58029],[6.0801,35.58061],[6.07992,35.5808],[6.07981,35.58083],[6.07942,35.58044],[6.07807,35.58064],[6.07772,35.58081],[6.07714,35.58139],[6.07644,35.58094],[6.07643,35.58062],[6.07674,35.58033],[6.07668,35.58012],[6.07644,35.58001],[6.07582,35.5804],[6.0757,35.58098],[6.07551,35.58117],[6.07528,35.58121],[6.07521,35.58084],[6.07576,35.57945],[6.07665,35.57813],[6.07687,35.57749],[6.07765,35.57767],[6.07792,35.57712],[6.07845,35.57728],[6.07858,35.57682],[6.07894,35.57656],[6.07931,35.57654],[6.07987,35.57557],[6.0803,35.57522],[6.08047,35.57495],[6.08039,35.57451],[6.08078,35.57344],[6.08035,35.57257],[6.07982,35.57387],[6.07932,35.57431],[6.07926,35.57447],[6.07875,35.57417],[6.07856,35.57415],[6.07849,35.57388],[6.07809,35.57401],[6.07773,35.57382],[6.0775,35.57381],[6.07735,35.57366],[6.07731,35.57338],[6.078,35.57331],[6.07815,35.57359],[6.07868,35.57319],[6.07868,35.57304],[6.07961,35.57269],[6.07947,35.57251],[6.07898,35.57243],[6.07888,35.57232],[6.07883,35.57211],[6.07905,35.57172],[6.07889,35.57121],[6.07906,35.57108],[6.07902,35.57008],[6.07816,35.56944],[6.07763,35.56875],[6.07802,35.56894],[6.07848,35.56892],[6.08,35.56872],[6.08041,35.56854],[6.08069,35.56785],[6.08067,35.56749],[6.08059,35.56701],[6.08009,35.56625],[6.07856,35.56507],[6.07804,35.56477],[6.07752,35.56425],[6.07717,35.56385],[6.07719,35.56309],[6.07638,35.56237],[6.07541,35.56228],[6.07463,35.5625],[6.0732,35.56316],[6.0727,35.56466],[6.07239,35.56436],[6.07219,35.56389],[6.07179,35.5637],[6.07119,35.56369],[6.07105,35.56355],[6.07114,35.56323],[6.07034,35.56297],[6.06973,35.56301],[6.06914,35.5632],[6.06851,35.56361],[6.068,35.56379],[6.06752,35.56441],[6.06737,35.56484],[6.06749,35.56507],[6.06735,35.56514],[6.06676,35.565],[6.0665,35.56512],[6.06664,35.56556],[6.06651,35.56564],[6.06611,35.56553],[6.06575,35.56527],[6.06544,35.5655],[6.06531,35.56575],[6.06471,35.56574],[6.06407,35.56585],[6.06276,35.56582],[6.06225,35.56568],[6.06205,35.5655],[6.06208,35.56492],[6.06263,35.56452],[6.06314,35.56471],[6.06399,35.56477],[6.06418,35.56491],[6.06455,35.56458],[6.0643,35.56443],[6.06454,35.56419],[6.06485,35.56432],[6.06497,35.56461],[6.06524,35.56469],[6.06554,35.56429],[6.06596,35.56422],[6.06619,35.56444],[6.06638,35.56447],[6.06734,35.56415],[6.06731,35.56398],[6.06701,35.56374],[6.06649,35.56359],[6.06721,35.56314],[6.06752,35.56247],[6.06748,35.56194],[6.06708,35.56122],[6.06703,35.56095],[6.06767,35.56139],[6.06831,35.56151],[6.06932,35.56206],[6.07034,35.56197],[6.07063,35.56184],[6.07078,35.56189],[6.07065,35.56163],[6.07097,35.56151],[6.07108,35.56165],[6.07181,35.56171],[6.07188,35.56148],[6.07222,35.56143],[6.07298,35.56084],[6.07307,35.56057],[6.07287,35.55946],[6.07236,35.55891],[6.0719,35.55866],[6.07093,35.55869],[6.07088,35.55831],[6.07295,35.55863],[6.07368,35.5585],[6.07417,35.55812],[6.07418,35.55767],[6.07396,35.5573],[6.07508,35.55739],[6.07558,35.55866],[6.07666,35.55864],[6.07599,35.5592],[6.0759,35.55941],[6.07678,35.56048],[6.0783,35.55999],[6.07909,35.56016],[6.07931,35.56195],[6.07914,35.56252],[6.07852,35.56285],[6.07955,35.56384],[6.08094,35.56416],[6.08173,35.56487],[6.08258,35.56229],[6.08362,35.56245],[6.08464,35.56383],[6.08563,35.56465],[6.08685,35.56513],[6.08764,35.56567],[6.08847,35.56599],[6.08824,35.56637],[6.08792,35.56646],[6.0863,35.56616],[6.08664,35.56657],[6.08726,35.56697],[6.08789,35.56715],[6.08914,35.56779],[6.08951,35.5682],[6.08917,35.56858],[6.08881,35.5687],[6.08845,35.56863],[6.08849,35.56898],[6.08813,35.56926],[6.08697,35.56922],[6.08634,35.56901],[6.08508,35.56894],[6.08486,35.56858],[6.08445,35.56844],[6.08391,35.56854],[6.08309,35.56949],[6.08266,35.56954],[6.0825,35.57017],[6.0826,35.5712],[6.08305,35.57136],[6.083,35.57163],[6.08269,35.57177],[6.08232,35.57161],[6.08224,35.5719],[6.08238,35.57209],[6.08237,35.57233],[6.08294,35.57293],[6.08291,35.57303],[6.08249,35.57276],[6.08227,35.57275],[6.08178,35.57356],[6.08171,35.57427],[6.0821,35.57491],[6.08259,35.57505],[6.08333,35.57548],[6.08398,35.57541],[6.08407,35.57554]]]}},{"type":"Feature","properties":{"Name":"Sans titre - Polygone"},"geometry":{"type":"Polygon","coordinates":[[[6.00677,35.55161],[6.00659,35.55129],[6.00699,35.5508],[6.00689,35.55049],[6.00716,35.55008],[6.00704,35.54994],[6.0075,35.54941],[6.00745,35.54931],[6.00715,35.54943],[6.00663,35.54992],[6.00648,35.54984],[6.00676,35.5492],[6.00682,35.5486],[6.00723,35.54809],[6.00741,35.54811],[6.00791,35.54868],[6.00808,35.54855],[6.00812,35.54836],[6.00797,35.54826],[6.00823,35.54819],[6.00794,35.54802],[6.00839,35.54801],[6.00854,35.54775],[6.0085,35.54758],[6.00818,35.54762],[6.00816,35.5475],[6.00839,35.54746],[6.00851,35.54716],[6.0081,35.54726],[6.00826,35.54683],[6.0085,35.54687],[6.00863,35.54679],[6.00818,35.54662],[6.00809,35.54637],[6.00836,35.54602],[6.0086,35.54553],[6.00867,35.54504],[6.00892,35.54466],[6.00907,35.54476],[6.00954,35.54397],[6.00987,35.54387],[6.01209,35.54414],[6.01148,35.54453],[6.0112,35.54488],[6.01111,35.54514],[6.01139,35.54536],[6.01168,35.54623],[6.01197,35.54664],[6.01222,35.54694],[6.01278,35.54725],[6.01246,35.54739],[6.01208,35.54731],[6.01157,35.54822],[6.01137,35.54823],[6.01137,35.54833],[6.01184,35.54857],[6.01214,35.54901],[6.01238,35.54969],[6.01194,35.54984],[6.01172,35.5495],[6.01142,35.54939],[6.01049,35.54928],[6.01037,35.54936],[6.01065,35.54974],[6.01055,35.54983],[6.01046,35.54974],[6.01037,35.5498],[6.0104,35.54986],[6.01009,35.55013],[6.00874,35.55004],[6.00823,35.5501],[6.00802,35.5503],[6.00807,35.55048],[6.00728,35.55105],[6.00716,35.5514],[6.0072,35.55158],[6.00709,35.55166],[6.00677,35.55161]]]}},{"type":"Feature","properties":{"Name":"Sans titre - Polygone"},"geometry":{"type":"Polygon","coordinates":[[[6.0068,35.55493],[6.0063,35.5551],[6.00609,35.5555],[6.00584,35.55554],[6.00579,35.55545],[6.00587,35.55521],[6.00612,35.55507],[6.00638,35.55431],[6.00651,35.55421],[6.00618,35.55363],[6.00624,35.55345],[6.00604,35.5531],[6.00596,35.55362],[6.00562,35.55352],[6.00545,35.55331],[6.00562,35.55327],[6.00566,35.55316],[6.00542,35.55293],[6.00457,35.55272],[6.0043,35.55244],[6.0041,35.55244],[6.00405,35.55224],[6.00386,35.55229],[6.00398,35.55281],[6.00375,35.55279],[6.00349,35.55245],[6.00356,35.55205],[6.00339,35.55196],[6.00345,35.55183],[6.00309,35.55165],[6.00271,35.55179],[6.00269,35.55197],[6.00241,35.55202],[6.00203,35.55227],[6.00179,35.55229],[6.00161,35.55208],[6.00165,35.55182],[6.00196,35.55185],[6.00273,35.55152],[6.00327,35.55152],[6.00341,35.55134],[6.00418,35.55116],[6.00452,35.55093],[6.00463,35.55081],[6.00381,35.55041],[6.0041,35.55036],[6.00438,35.55054],[6.00461,35.55047],[6.0048,35.55062],[6.00507,35.55034],[6.00389,35.55021],[6.00391,35.55013],[6.00377,35.55012],[6.00363,35.54995],[6.00364,35.54982],[6.00335,35.54988],[6.00321,35.5498],[6.00335,35.54974],[6.00332,35.54966],[6.00323,35.54968],[6.00317,35.54949],[6.00302,35.5494],[6.00291,35.54947],[6.00292,35.54934],[6.0041,35.54914],[6.00434,35.54843],[6.00466,35.54826],[6.00534,35.54842],[6.00546,35.54812],[6.00524,35.548],[6.0051,35.54807],[6.0051,35.548],[6.00534,35.54778],[6.00537,35.54754],[6.00558,35.54741],[6.00641,35.54722],[6.00654,35.54688],[6.00729,35.54632],[6.00759,35.54648],[6.00759,35.54662],[6.00714,35.54697],[6.00704,35.54721],[6.00712,35.54759],[6.00706,35.54782],[6.00654,35.5481],[6.00631,35.54876],[6.00644,35.54893],[6.00643,35.54912],[6.00604,35.5496],[6.0061,35.55048],[6.00647,35.55079],[6.00622,35.551],[6.00612,35.55126],[6.00624,35.55161],[6.0066,35.55198],[6.00657,35.55245],[6.00674,35.55268],[6.00677,35.55354],[6.007,35.55409],[6.007,35.55476],[6.0068,35.55493]]]}},{"type":"Feature","properties":{"Name":"Sans titre - Polygone"},"geometry":{"type":"Polygon","coordinates":[[[6.0109,35.53738],[6.0111,35.5377],[6.01185,35.53801],[6.01205,35.53819],[6.01211,35.53834],[6.01181,35.53847],[6.01184,35.53862],[6.01272,35.53898],[6.01293,35.53934],[6.01381,35.53957],[6.01446,35.53997],[6.01481,35.54094],[6.01529,35.54116],[6.01617,35.54129],[6.01625,35.54138],[6.01595,35.54152],[6.01601,35.54167],[6.0162,35.54173],[6.01679,35.54166],[6.01703,35.5421],[6.01678,35.54217],[6.01666,35.542],[6.01625,35.54192],[6.01602,35.5421],[6.01613,35.54241],[6.01589,35.54248],[6.01534,35.54243],[6.0147,35.54215],[6.01418,35.54208],[6.01347,35.54212],[6.01293,35.54231],[6.01277,35.54263],[6.01303,35.54327],[6.01283,35.54355],[6.01298,35.54386],[6.01285,35.54402],[6.01212,35.54409],[6.00949,35.54378],[6.00958,35.54335],[6.00979,35.54297],[6.00916,35.54238],[6.00944,35.54212],[6.00941,35.54195],[6.00846,35.54085],[6.00779,35.53946],[6.00678,35.53881],[6.00503,35.53905],[6.0051,35.5389],[6.00609,35.53833],[6.00627,35.53811],[6.00714,35.53772],[6.00718,35.53733],[6.00743,35.53676],[6.00802,35.53645],[6.00885,35.53637],[6.00916,35.53669],[6.00957,35.53683],[6.01112,35.53635],[6.01152,35.53655],[6.01166,35.53676],[6.0109,35.53738]]]}},{"type":"Feature","properties":{"Name":"Sans titre - Polygone"},"geometry":{"type":"Polygon","coordinates":[[[5.92706,35.54422],[5.92697,35.54481],[5.92677,35.54523],[5.92683,35.54551],[5.92718,35.54555],[5.92735,35.54584],[5.92797,35.54626],[5.92862,35.54644],[5.92963,35.54631],[5.92996,35.54636],[5.93035,35.54649],[5.93051,35.54677],[5.93026,35.54692],[5.9297,35.54691],[5.92866,35.54709],[5.9286,35.5472],[5.92878,35.54769],[5.92833,35.54804],[5.92824,35.54853],[5.92847,35.54889],[5.92855,35.5493],[5.92895,35.54958],[5.92876,35.54966],[5.92848,35.54962],[5.92822,35.54975],[5.92821,35.54996],[5.9284,35.55031],[5.92831,35.5505],[5.928,35.55064],[5.92743,35.55135],[5.92723,35.55129],[5.92705,35.55136],[5.92677,35.55171],[5.92647,35.55185],[5.92619,35.55177],[5.92553,35.55114],[5.92609,35.55085],[5.92636,35.55052],[5.92682,35.55057],[5.92713,35.55046],[5.92631,35.55008],[5.92635,35.54989],[5.92641,35.54976],[5.92671,35.5497],[5.92756,35.54923],[5.92733,35.54905],[5.92689,35.54892],[5.92575,35.54871],[5.92506,35.54881],[5.92497,35.54872],[5.92493,35.54808],[5.92518,35.54777],[5.92557,35.54756],[5.92572,35.54707],[5.92563,35.54659],[5.92493,35.54626],[5.92563,35.54489],[5.9256,35.54414],[5.92581,35.54344],[5.92651,35.54339],[5.92692,35.54357],[5.92714,35.54378],[5.92757,35.54393],[5.92706,35.54422]]]}},{"type":"Feature","properties":{"Name":"Sans titre - Polygone"},"geometry":{"type":"Polygon","coordinates":[[[5.92381,35.55294],[5.92395,35.55286],[5.9241,35.5525],[5.92428,35.55252],[5.92452,35.55277],[5.92473,35.55255],[5.92494,35.55258],[5.92498,35.55268],[5.92474,35.55321],[5.92406,35.55393],[5.92325,35.55384],[5.92355,35.55416],[5.92333,35.55472],[5.92312,35.55483],[5.92304,35.55462],[5.92301,35.55261],[5.92279,35.55168],[5.92276,35.55087],[5.92315,35.55106],[5.9231,35.55022],[5.92351,35.54996],[5.92358,35.55016],[5.92328,35.55057],[5.92321,35.55095],[5.92338,35.55165],[5.9234,35.55204],[5.9233,35.55234],[5.92351,35.55316],[5.92375,35.55317],[5.92381,35.55294]]]}},{"type":"Feature","properties":{"Name":"Sans titre - Polygone"},"geometry":{"type":"Polygon","coordinates":[[[5.94878,35.53446],[5.94786,35.53332],[5.94753,35.53308],[5.94712,35.53312],[5.94699,35.53325],[5.94683,35.53363],[5.94697,35.53414],[5.94651,35.53425],[5.9459,35.53361],[5.94491,35.53317],[5.94486,35.53293],[5.94473,35.53284],[5.94384,35.53262],[5.94235,35.53246],[5.94115,35.53278],[5.94075,35.53309],[5.9406,35.53357],[5.94067,35.53409],[5.94038,35.53432],[5.94004,35.53416],[5.93984,35.53424],[5.94004,35.53468],[5.94004,35.53498],[5.93946,35.53522],[5.93902,35.53483],[5.93889,35.5341],[5.93902,35.534],[5.9393,35.53401],[5.93962,35.53382],[5.9392,35.53368],[5.93919,35.53347],[5.93973,35.53337],[5.9397,35.53328],[5.93909,35.53301],[5.93852,35.53296],[5.93784,35.53227],[5.93987,35.53081],[5.94386,35.53012],[5.94514,35.53023],[5.94674,35.53057],[5.94798,35.53163],[5.95023,35.53458],[5.94974,35.53521],[5.94906,35.5354],[5.94878,35.53446]]]}},{"type":"Feature","properties":{},"geometry":{"type":"Polygon","coordinates":[[[5.96098,35.57995],[5.96173,35.57975],[5.96212,35.57956],[5.96231,35.57928],[5.9623,35.57902],[5.96214,35.57874],[5.96313,35.57821],[5.96333,35.57782],[5.9632,35.57726],[5.96343,35.57731],[5.96356,35.57765],[5.96388,35.57781],[5.96426,35.57788],[5.96439,35.57776],[5.96436,35.57753],[5.96367,35.57654],[5.96338,35.57575],[5.96287,35.57533],[5.9631,35.57532],[5.9642,35.57568],[5.96449,35.57564],[5.96493,35.57538],[5.96505,35.57505],[5.96482,35.57464],[5.96512,35.57388],[5.9656,35.57381],[5.96587,35.57416],[5.96631,35.57411],[5.9672,35.57468],[5.96765,35.57475],[5.96795,35.57466],[5.96941,35.57482],[5.97088,35.57458],[5.97124,35.57429],[5.97263,35.57361],[5.97331,35.5735],[5.97422,35.57353],[5.97472,35.57336],[5.97649,35.57214],[5.97733,35.5717],[5.97791,35.57176],[5.97828,35.57195],[5.97892,35.57299],[5.97905,35.57384],[5.97901,35.57423],[5.97891,35.57453],[5.97852,35.57501],[5.9774,35.57534],[5.97683,35.57535],[5.9771,35.5746],[5.9769,35.57448],[5.97652,35.57444],[5.97335,35.57656],[5.97335,35.57674],[5.97306,35.57709],[5.97287,35.57708],[5.97247,35.57724],[5.97187,35.57764],[5.97152,35.57773],[5.9702,35.57773],[5.96916,35.57827],[5.96823,35.5783],[5.96811,35.57843],[5.96819,35.57864],[5.96726,35.57927],[5.96613,35.57938],[5.96587,35.57966],[5.96571,35.57961],[5.96532,35.57979],[5.96409,35.5797],[5.96296,35.57987],[5.96266,35.58002],[5.96188,35.58017],[5.96113,35.58011],[5.96098,35.57995]]]}}]}