{"type":"FeatureCollection","features":[{"type":"Feature","properties":{"Name":"Sans titre - Polygone [67:Polygon]"},"geometry":{"type":"Polygon","coordinates":[[[6.13307,35.61726],[6.13263,35.61735],[6.13258,35.61729],[6.13256,35.6171],[6.13246,35.61705],[6.13238,35.61709],[6.13227,35.61729],[6.13201,35.61704],[6.13182,35.61703],[6.13179,35.61691],[6.13185,35.61674],[6.13201,35.61665],[6.13203,35.61647],[6.13238,35.61643],[6.13246,35.61665],[6.13259,35.61668],[6.13267,35.61676],[6.13267,35.61698],[6.13277,35.61703],[6.13302,35.61707],[6.13307,35.61726]]]}},{"type":"Feature","properties":{"Name":"Sans titre - Polygone [69:Polygon]"},"geometry":{"type":"Polygon","coordinates":[[[6.13334,35.61496],[6.13291,35.61502],[6.13269,35.61497],[6.13256,35.61487],[6.13253,35.61475],[6.13292,35.61489],[6.13304,35.61483],[6.13296,35.61476],[6.13261,35.61467],[6.13257,35.61459],[6.13285,35.61438],[6.13308,35.61446],[6.13343,35.61477],[6.13355,35.61497],[6.13343,35.61507],[6.13334,35.61496]]]}},{"type":"Feature","properties":{"Name":"Sans titre - Polygone [68:Polygon]"},"geometry":{"type":"Polygon","coordinates":[[[6.13101,35.61437],[6.13036,35.61471],[6.13011,35.61492],[6.13011,35.61497],[6.1302,35.61502],[6.13076,35.61506],[6.13076,35.61496],[6.13083,35.61487],[6.13107,35.61489],[6.13218,35.61536],[6.13298,35.61556],[6.13309,35.61567],[6.13308,35.61581],[6.13332,35.61603],[6.13307,35.61607],[6.13306,35.61611],[6.13335,35.61634],[6.13321,35.61634],[6.13273,35.61608],[6.13229,35.61602],[6.13194,35.61609],[6.13138,35.61596],[6.13092,35.61563],[6.13038,35.61552],[6.13037,35.61537],[6.13021,35.61516],[6.12998,35.61514],[6.12996,35.61521],[6.13003,35.61536],[6.12999,35.6154],[6.12981,35.61527],[6.12991,35.61502],[6.1298,35.61482],[6.12945,35.61479],[6.12936,35.61463],[6.12955,35.61457],[6.12945,35.61435],[6.12956,35.61419],[6.12975,35.61406],[6.13013,35.61398],[6.13038,35.61397],[6.13061,35.61403],[6.13086,35.61419],[6.13101,35.61437]]]}},{"type":"Feature","properties":{"Name":"Carrière"},"geometry":{"type":"Polygon","coordinates":[[[6.30447,35.70727],[6.30389,35.70728],[6.30323,35.70782],[6.30306,35.70783],[6.30302,35.70779],[6.30297,35.70708],[6.30299,35.70686],[6.30311,35.70666],[6.30314,35.70648],[6.30314,35.70588],[6.30307,35.70571],[6.30275,35.70536],[6.30247,35.70516],[6.30234,35.70498],[6.30212,35.70483],[6.30132,35.7047],[6.30102,35.70461],[6.30094,35.70455],[6.30011,35.70452],[6.30014,35.70442],[6.30055,35.70395],[6.30105,35.7035],[6.3011,35.7034],[6.30179,35.70286],[6.30315,35.70246],[6.30359,35.70241],[6.3037,35.70234],[6.30425,35.70231],[6.30452,35.70246],[6.30453,35.70265],[6.30473,35.70278],[6.3049,35.70299],[6.30506,35.70333],[6.30518,35.70438],[6.30507,35.70528],[6.30507,35.70605],[6.30476,35.70657],[6.30447,35.70727]]]}},{"type":"Feature","properties":{"Name":"Carrière"},"geometry":{"type":"Polygon","coordinates":[[[6.2809,35.69362],[6.28047,35.69374],[6.28029,35.69366],[6.28003,35.69377],[6.27974,35.69405],[6.27954,35.69411],[6.27945,35.69406],[6.27942,35.69386],[6.27952,35.69357],[6.27994,35.69309],[6.28028,35.6929],[6.28066,35.69286],[6.28094,35.69298],[6.28101,35.69341],[6.2809,35.69362]]]}},{"type":"Feature","properties":{"Name":"Sans titre - Polygone"},"geometry":{"type":"Polygon","coordinates":[[[6.27,35.69082],[6.27011,35.69082],[6.27029,35.69064],[6.27052,35.69022],[6.27054,35.69004],[6.27068,35.68991],[6.27083,35.69006],[6.27106,35.69047],[6.27123,35.69116],[6.27046,35.69103],[6.27013,35.69094],[6.27,35.69082]]]}},{"type":"Feature","properties":{"Name":"Carrière"},"geometry":{"type":"Polygon","coordinates":[[[6.27728,35.68263],[6.27751,35.68262],[6.2776,35.68274],[6.27802,35.68282],[6.27851,35.68338],[6.27849,35.68349],[6.27818,35.68382],[6.27801,35.68392],[6.27759,35.68399],[6.27708,35.68397],[6.27707,35.68372],[6.27681,35.6835],[6.27687,35.68339],[6.27685,35.6833],[6.27669,35.6833],[6.27672,35.68322],[6.27709,35.68289],[6.2771,35.68282],[6.27697,35.68268],[6.27705,35.68266],[6.2772,35.68276],[6.27728,35.68263]]]}},{"type":"Feature","properties":{"Name":"Gisement"},"geometry":{"type":"Polygon","coordinates":[[[6.25169,35.62055],[6.25367,35.62219],[6.25956,35.62603],[6.25653,35.62819],[6.25361,35.62914],[6.25142,35.6295],[6.24838,35.63046],[6.2472,35.6282],[6.24627,35.6262],[6.24702,35.62458],[6.2497,35.62065],[6.25061,35.62105],[6.25169,35.62055]]]}},{"type":"Feature","properties":{"Name":"ANCIEN CARRIERE"},"geometry":{"type":"Polygon","coordinates":[[[6.10862,35.5521],[6.10859,35.55271],[6.10816,35.55274],[6.10678,35.55207],[6.10637,35.55193],[6.10619,35.55155],[6.10642,35.55109],[6.10677,35.55088],[6.10701,35.55064],[6.10749,35.55082],[6.10868,35.55182],[6.10862,35.5521]]]}},{"type":"Feature","properties":{"Name":"Sans titre - Polygone"},"geometry":{"type":"Polygon","coordinates":[[[6.10311,35.55115],[6.10256,35.55108],[6.10185,35.55084],[6.10138,35.55053],[6.10113,35.55015],[6.1012,35.54987],[6.10203,35.5498],[6.103,35.55004],[6.10389,35.55066],[6.10382,35.55103],[6.10367,35.55112],[6.10311,35.55115]]]}},{"type":"Feature","properties":{"Name":"Sans titre - Polygone"},"geometry":{"type":"Polygon","coordinates":[[[6.12107,35.58854],[6.12125,35.58807],[6.12193,35.58836],[6.12279,35.58838],[6.12331,35.58834],[6.12361,35.5884],[6.1235,35.58879],[6.12331,35.58905],[6.12285,35.5895],[6.12267,35.58961],[6.12234,35.58961],[6.12215,35.58951],[6.12222,35.58906],[6.12188,35.5886],[6.12161,35.58873],[6.1214,35.58873],[6.12107,35.58854]]]}},{"type":"Feature","properties":{"Name":"Sans titre - Polygone"},"geometry":{"type":"Polygon","coordinates":[[[6.11697,35.59031],[6.11659,35.58985],[6.11627,35.58953],[6.11594,35.58939],[6.11596,35.58924],[6.11639,35.58904],[6.11683,35.58915],[6.11721,35.58959],[6.11754,35.58969],[6.11801,35.58995],[6.11754,35.59036],[6.11735,35.59042],[6.11697,35.59031]]]}},{"type":"Feature","properties":{"Name":"GYPSE"},"geometry":{"type":"Polygon","coordinates":[[[6.11369,35.59564],[6.11342,35.59723],[6.11319,35.59769],[6.11357,35.59818],[6.11424,35.59878],[6.11513,35.59904],[6.11513,35.59946],[6.11479,35.59955],[6.11415,35.59929],[6.11368,35.599],[6.11294,35.59895],[6.11207,35.59921],[6.11168,35.59943],[6.11143,35.59947],[6.10974,35.59884],[6.1097,35.59797],[6.10981,35.59748],[6.11012,35.59691],[6.11027,35.59644],[6.11104,35.59585],[6.11212,35.59541],[6.11279,35.59506],[6.11356,35.59433],[6.11397,35.59451],[6.11369,35.59564]]]}}]}