{"type":"FeatureCollection","features":[{"type":"Feature","properties":{"Name":"Mesure de trajet"},"geometry":{"type":"LineString","coordinates":[[5.92382,35.54824],[5.92324,35.55211],[5.92325,35.55298],[5.92314,35.55439],[5.92305,35.5563],[5.92261,35.55823],[5.92249,35.56115],[5.92257,35.56219],[5.92279,35.56312],[5.92158,35.56512],[5.92086,35.56621],[5.92041,35.56664],[5.92017,35.56722],[5.91996,35.56811],[5.9189,35.56917],[5.91629,35.57323],[5.91494,35.57526],[5.91124,35.57892],[5.9076,35.58231],[5.90629,35.5839],[5.90508,35.58571],[5.90444,35.58737],[5.9043,35.58874],[5.90342,35.58979],[5.90248,35.59457],[5.90301,35.59579],[5.90378,35.59664],[5.90417,35.59696],[5.905,35.59791],[5.9069,35.59944],[5.90693,35.6008],[5.90716,35.60325]]}},{"type":"Feature","properties":{"Name":"Mesure de trajet"},"geometry":{"type":"LineString","coordinates":[[6.20673,35.60801],[6.20605,35.60842],[6.20487,35.60877],[6.20446,35.60927],[6.20358,35.60985],[6.20266,35.6104],[6.20129,35.61081],[6.20059,35.61134],[6.19993,35.61168],[6.19895,35.61185],[6.19782,35.61239],[6.19727,35.61252],[6.19636,35.61248],[6.19582,35.61271],[6.19485,35.61276],[6.19333,35.61297],[6.19189,35.61327],[6.19067,35.61379],[6.18958,35.61419],[6.18907,35.61446],[6.18897,35.61467],[6.18898,35.61506],[6.18955,35.61563],[6.19041,35.61623],[6.19027,35.61653],[6.19038,35.61681],[6.1907,35.61725],[6.19144,35.61776],[6.19198,35.61807],[6.19297,35.61953],[6.1927,35.62],[6.19224,35.62064],[6.19215,35.62128],[6.19198,35.62152],[6.19161,35.62165],[6.1908,35.62213],[6.18925,35.62323],[6.18885,35.6234],[6.18854,35.62369],[6.18768,35.62368],[6.1872,35.62357],[6.18633,35.62352],[6.18547,35.62342],[6.18464,35.62339],[6.18324,35.62304],[6.1827,35.6233],[6.18177,35.62392],[6.18039,35.62468],[6.17946,35.62458],[6.17819,35.6245],[6.1779,35.62465],[6.17723,35.62453],[6.17337,35.62435],[6.17178,35.62553],[6.17119,35.62617],[6.16937,35.62652],[6.16725,35.62619]]}},{"type":"Feature","properties":{"Name":"1"},"geometry":{"type":"Point","coordinates":[6.24865,35.62959]}},{"type":"Feature","properties":{"Name":"2"},"geometry":{"type":"Point","coordinates":[6.28276,35.66099]}},{"type":"Feature","properties":{"Name":"Sans titre - 1"},"geometry":{"type":"Point","coordinates":[6.28437,35.65752]}},{"type":"Feature","properties":{"Name":"7"},"geometry":{"type":"Point","coordinates":[6.28136,35.65464]}},{"type":"Feature","properties":{"Name":"2"},"geometry":{"type":"Point","coordinates":[6.28404,35.65687]}},{"type":"Feature","properties":{"Name":"1"},"geometry":{"type":"Point","coordinates":[6.28015,35.65727]}},{"type":"Feature","properties":{"Name":"Sans titre - 1"},"geometry":{"type":"Point","coordinates":[6.28325,35.65725]}},{"type":"Feature","properties":{"Name":"2"},"geometry":{"type":"Point","coordinates":[6.28643,35.66413]}},{"type":"Feature","properties":{"Name":"2"},"geometry":{"type":"Point","coordinates":[6.28342,35.65656]}},{"type":"Feature","properties":{"Name":"1"},"geometry":{"type":"Point","coordinates":[6.28254,35.65626]}},{"type":"Feature","properties":{"Name":"2"},"geometry":{"type":"Point","coordinates":[6.28378,35.66042]}},{"type":"Feature","properties":{"Name":"2"},"geometry":{"type":"Point","coordinates":[6.28556,35.65666]}},{"type":"Feature","properties":{"Name":"1"},"geometry":{"type":"Point","coordinates":[6.28667,35.65993]}},{"type":"Feature","properties":{"Name":"1"},"geometry":{"type":"Point","coordinates":[6.28638,35.66212]}},{"type":"Feature","properties":{"Name":"1"},"geometry":{"type":"Point","coordinates":[6.28814,35.65704]}},{"type":"Feature","properties":{"Name":"1"},"geometry":{"type":"Point","coordinates":[6.25241,35.62684]}},{"type":"Feature","properties":{"Name":"1"},"geometry":{"type":"Point","coordinates":[6.28607,35.66428]}},{"type":"Feature","properties":{"Name":"1"},"geometry":{"type":"Point","coordinates":[6.22767,35.61883]}},{"type":"Feature","properties":{"Name":"2"},"geometry":{"type":"Point","coordinates":[6.26471,35.63991]}},{"type":"Feature","properties":{"Name":"2"},"geometry":{"type":"Point","coordinates":[6.26974,35.64327]}},{"type":"Feature","properties":{"Name":"2"},"geometry":{"type":"Point","coordinates":[6.26049,35.63592]}},{"type":"Feature","properties":{"Name":"1"},"geometry":{"type":"Point","coordinates":[6.26295,35.63536]}},{"type":"Feature","properties":{"Name":"1"},"geometry":{"type":"Point","coordinates":[6.25748,35.63312]}},{"type":"Feature","properties":{"Name":"1"},"geometry":{"type":"Point","coordinates":[6.25936,35.63117]}},{"type":"Feature","properties":{"Name":"1"},"geometry":{"type":"Point","coordinates":[6.24847,35.62446]}},{"type":"Feature","properties":{"Name":"1"},"geometry":{"type":"Point","coordinates":[6.25543,35.62875]}},{"type":"Feature","properties":{"Name":"1"},"geometry":{"type":"Point","coordinates":[6.25273,35.63129]}},{"type":"Feature","properties":{"Name":"1"},"geometry":{"type":"Point","coordinates":[6.2365,35.62336]}},{"type":"Feature","properties":{"Name":"1"},"geometry":{"type":"Point","coordinates":[6.24434,35.6273]}},{"type":"Feature","properties":{"Name":"1"},"geometry":{"type":"Point","coordinates":[6.23428,35.62229]}},{"type":"Feature","properties":{"Name":"GAZ [1:Point]"},"geometry":{"type":"Point","coordinates":[6.20672,35.60762]}},{"type":"Feature","properties":{"Name":"1"},"geometry":{"type":"Point","coordinates":[6.24053,35.6254]}},{"type":"Feature","properties":{"Name":"GAZ [2:Point]"},"geometry":{"type":"Point","coordinates":[6.18456,35.58851]}},{"type":"Feature","properties":{"Name":"1 [1:Point]"},"geometry":{"type":"Point","coordinates":[6.22306,35.6164]}},{"type":"Feature","properties":{"Name":"1 [2:Point]"},"geometry":{"type":"Point","coordinates":[6.2151,35.61322]}},{"type":"Feature","properties":{"Name":"1 [3:Point]"},"geometry":{"type":"Point","coordinates":[6.22107,35.60933]}},{"type":"Feature","properties":{"Name":"1 [4:Point]"},"geometry":{"type":"Point","coordinates":[6.22355,35.61089]}},{"type":"Feature","properties":{"Name":"1 [5:Point]"},"geometry":{"type":"Point","coordinates":[6.21131,35.61167]}},{"type":"Feature","properties":{"Name":"1 [6:Point]"},"geometry":{"type":"Point","coordinates":[6.20738,35.61004]}},{"type":"Feature","properties":{"Name":"1 [7:Point]"},"geometry":{"type":"Point","coordinates":[6.20479,35.60665]}},{"type":"Feature","properties":{"Name":"1 [8:Point]"},"geometry":{"type":"Point","coordinates":[6.20105,35.60177]}},{"type":"Feature","properties":{"Name":"1 [9:Point]"},"geometry":{"type":"Point","coordinates":[6.20511,35.5986]}},{"type":"Feature","properties":{"Name":"1 [10:Point]"},"geometry":{"type":"Point","coordinates":[6.20563,35.59796]}},{"type":"Feature","properties":{"Name":"1 [11:Point]"},"geometry":{"type":"Point","coordinates":[6.19806,35.59795]}},{"type":"Feature","properties":{"Name":"1"},"geometry":{"type":"Point","coordinates":[6.27384,35.64747]}},{"type":"Feature","properties":{"Name":"2"},"geometry":{"type":"Point","coordinates":[6.27305,35.64716]}},{"type":"Feature","properties":{"Name":"3"},"geometry":{"type":"Point","coordinates":[6.27611,35.64971]}},{"type":"Feature","properties":{"Name":"4"},"geometry":{"type":"Point","coordinates":[6.27534,35.64982]}},{"type":"Feature","properties":{"Name":"5"},"geometry":{"type":"Point","coordinates":[6.27778,35.65267]}},{"type":"Feature","properties":{"Name":"6"},"geometry":{"type":"Point","coordinates":[6.27889,35.65236]}},{"type":"Feature","properties":{"Name":"1"},"geometry":{"type":"Point","coordinates":[6.26143,35.62974]}},{"type":"Feature","properties":{"Name":"2"},"geometry":{"type":"Point","coordinates":[6.19227,35.66211]}},{"type":"Feature","properties":{"Name":"2"},"geometry":{"type":"Point","coordinates":[6.26383,35.68508]}},{"type":"Feature","properties":{"Name":"Mesure de trajet [1:LineString]"},"geometry":{"type":"LineString","coordinates":[[6.26516,35.6857],[6.26859,35.68484],[6.27255,35.6826],[6.27488,35.68137],[6.27606,35.68059],[6.27759,35.67979],[6.27885,35.67907],[6.27969,35.67797],[6.28011,35.67734],[6.28057,35.67682],[6.28208,35.67473],[6.28476,35.6712],[6.28581,35.66992],[6.28618,35.66934],[6.2864,35.66413],[6.28636,35.66213],[6.28672,35.65996],[6.2882,35.65708]]}},{"type":"Feature","properties":{"Name":"Mesure de trajet [2:LineString]"},"geometry":{"type":"LineString","coordinates":[[6.26404,35.68561],[6.26651,35.68432],[6.27029,35.68247],[6.27294,35.68122],[6.27605,35.6796],[6.27828,35.67835],[6.27959,35.67614],[6.28224,35.6727],[6.28371,35.67158],[6.28425,35.6708],[6.28484,35.66963],[6.28524,35.66903],[6.28549,35.66687],[6.28594,35.66424],[6.28606,35.66174],[6.2857,35.65674]]}},{"type":"Feature","properties":{"Name":"Mesure de trajet [3:LineString]"},"geometry":{"type":"LineString","coordinates":[[6.26389,35.68536],[6.26588,35.68428],[6.26899,35.68275],[6.27129,35.68171],[6.27794,35.67824],[6.27852,35.67634],[6.282,35.67015],[6.28254,35.66879],[6.2827,35.66707],[6.28333,35.66255],[6.28361,35.66134],[6.28385,35.66049],[6.28331,35.65738],[6.28239,35.65599],[6.28131,35.65469],[6.27888,35.6524],[6.27621,35.64981],[6.27392,35.6475],[6.26895,35.63991],[6.26718,35.63733],[6.26383,35.63188],[6.26221,35.62979],[6.26024,35.62759],[6.25851,35.62547]]}},{"type":"Feature","properties":{"Name":"Mesure de trajet [4:LineString]"},"geometry":{"type":"LineString","coordinates":[[6.26215,35.68472],[6.26397,35.68491],[6.26706,35.68333],[6.27041,35.68182],[6.27231,35.68074],[6.27295,35.68041],[6.27762,35.6782],[6.27805,35.67741],[6.27867,35.67539],[6.28131,35.66634],[6.28252,35.66189],[6.28281,35.661],[6.28018,35.65747],[6.27788,35.65284],[6.27543,35.64995],[6.27304,35.64729],[6.26969,35.64346],[6.26461,35.64008],[6.2574,35.63328],[6.25272,35.63147],[6.24864,35.6297],[6.24431,35.62738],[6.24051,35.62553],[6.23653,35.62352],[6.2342,35.62238],[6.22762,35.61898],[6.22302,35.61647],[6.21501,35.61338],[6.21123,35.61181],[6.20729,35.61021],[6.20484,35.60673],[6.20112,35.60208],[6.19803,35.59807],[6.19376,35.59218],[6.19012,35.5901],[6.18035,35.58424],[6.18382,35.5814],[6.18399,35.58032],[6.18416,35.58007],[6.18431,35.57961],[6.18446,35.57933]]}},{"type":"Feature","properties":{"Name":"Mesure de trajet [5:LineString]"},"geometry":{"type":"LineString","coordinates":[[6.15173,35.58615],[6.15426,35.58565],[6.1567,35.5853],[6.16039,35.58439],[6.16284,35.58387],[6.16572,35.58276],[6.16756,35.58313],[6.16968,35.5838],[6.1733,35.58529],[6.17512,35.58574],[6.18219,35.58779],[6.18428,35.58829],[6.18415,35.58946],[6.18532,35.59109],[6.18634,35.59203],[6.18821,35.59333],[6.19072,35.59474],[6.19307,35.59587],[6.19547,35.59784],[6.19735,35.59957],[6.19877,35.6015],[6.2006,35.60283],[6.2027,35.60455],[6.20455,35.60547],[6.2058,35.60627],[6.20762,35.60911],[6.20994,35.61048],[6.21292,35.61155],[6.21513,35.61105],[6.21723,35.61044],[6.22112,35.61204],[6.22414,35.61415],[6.22979,35.61824],[6.23458,35.62082],[6.23721,35.62209],[6.23915,35.62379],[6.24122,35.62483],[6.24355,35.62587],[6.25006,35.62974],[6.25163,35.63086],[6.25674,35.62974],[6.26092,35.62817]]}},{"type":"Feature","properties":{"Name":"Mesure de trajet [6:LineString]"},"geometry":{"type":"LineString","coordinates":[[6.12076,35.5623],[6.10629,35.55588],[6.09257,35.54972],[6.08532,35.54666]]}},{"type":"Feature","properties":{"Name":"Mesure de trajet [7:LineString]"},"geometry":{"type":"LineString","coordinates":[[6.12321,35.5611],[6.1183,35.55859],[6.11349,35.55625],[6.10005,35.55134],[6.09692,35.55001],[6.09492,35.54933],[6.09025,35.54744]]}},{"type":"Feature","properties":{"Name":"Mesure de trajet [8:LineString]"},"geometry":{"type":"LineString","coordinates":[[6.17404,35.58538],[6.16445,35.58414]]}},{"type":"Feature","properties":{"Name":"Mesure de trajet [9:LineString]"},"geometry":{"type":"LineString","coordinates":[[6.20886,35.60004],[6.2055,35.59788],[6.19648,35.59003],[6.19382,35.58791]]}},{"type":"Feature","properties":{"Name":"Mesure de trajet [10:LineString]"},"geometry":{"type":"LineString","coordinates":[[6.20619,35.60034],[6.20586,35.60001],[6.20415,35.59937],[6.20309,35.59874],[6.20156,35.59708],[6.2002,35.59538],[6.19878,35.59382],[6.19616,35.59075],[6.19362,35.58962],[6.19068,35.58841],[6.1874,35.58584],[6.18644,35.58259]]}},{"type":"Feature","properties":{"Name":"Mesure de trajet [11:LineString]"},"geometry":{"type":"LineString","coordinates":[[6.20738,35.60054],[6.2063,35.59958],[6.20399,35.59764],[6.20286,35.59662],[6.20164,35.5954],[6.20067,35.59449],[6.20014,35.59391],[6.19915,35.59297],[6.19779,35.59179],[6.19672,35.59073],[6.19653,35.59047]]}},{"type":"Feature","properties":{"Name":"Mesure de trajet [12:LineString]"},"geometry":{"type":"LineString","coordinates":[[6.25645,35.62987],[6.25924,35.63107],[6.26319,35.63559],[6.26659,35.63988],[6.26994,35.64339],[6.2729,35.64711]]}},{"type":"Feature","properties":{"Name":"Mesure de trajet [13:LineString]"},"geometry":{"type":"LineString","coordinates":[[6.25845,35.63265],[6.26007,35.63321],[6.26148,35.63459],[6.26473,35.63814],[6.26637,35.64002],[6.26963,35.64329]]}},{"type":"Feature","properties":{"Name":"Mesure de trajet [14:LineString]"},"geometry":{"type":"LineString","coordinates":[[6.26189,35.67947],[6.26444,35.67985],[6.26741,35.68016],[6.26957,35.67928],[6.27094,35.67853],[6.27181,35.67811],[6.27635,35.67559],[6.28018,35.66974],[6.28138,35.66577],[6.28236,35.66225],[6.28261,35.66089],[6.28405,35.65705]]}},{"type":"Feature","properties":{"Name":"Mesure de trajet"},"geometry":{"type":"LineString","coordinates":[[6.0752,35.55972],[6.07576,35.56647],[6.07641,35.57194],[6.07693,35.57818],[6.07717,35.57985],[6.08905,35.60341],[6.09416,35.60788],[6.09535,35.60916],[6.08704,35.61724],[6.08143,35.61728],[6.07761,35.61873]]}},{"type":"Feature","properties":{"Name":"2"},"geometry":{"type":"Point","coordinates":[6.26525,35.68569]}},{"type":"Feature","properties":{"Name":"Sans titre - Polygone"},"geometry":{"type":"Polygon","coordinates":[[[6.26284,35.68632],[6.26222,35.68555],[6.26316,35.68515],[6.26185,35.68495],[6.2619,35.68461],[6.26461,35.68456],[6.2653,35.6841],[6.26614,35.68369],[6.26809,35.68283],[6.26877,35.6824],[6.26978,35.68187],[6.27087,35.68143],[6.27127,35.68117],[6.27646,35.6788],[6.27755,35.67815],[6.2782,35.67641],[6.27982,35.67657],[6.27879,35.67844],[6.27569,35.68006],[6.2717,35.6819],[6.26284,35.68632]]]}}]}