{"type":"FeatureCollection","features":[{"type":"Feature","properties":{"Name":"GISEMENT"},"geometry":{"type":"Point","coordinates":[5.93388,35.63999]}},{"type":"Feature","properties":{"Name":"1"},"geometry":{"type":"Point","coordinates":[6.50539,35.29268]}},{"type":"Feature","properties":{"Name":"2"},"geometry":{"type":"Point","coordinates":[6.3956,35.59376]}},{"type":"Feature","properties":{"Name":"3"},"geometry":{"type":"Point","coordinates":[6.58301,35.3046]}},{"type":"Feature","properties":{"Name":"4"},"geometry":{"type":"Point","coordinates":[6.30284,35.58409]}},{"type":"Feature","properties":{"Name":"5"},"geometry":{"type":"Point","coordinates":[6.2896,35.58449]}},{"type":"Feature","properties":{"Name":"6"},"geometry":{"type":"Point","coordinates":[5.77206,35.73786]}},{"type":"Feature","properties":{"Name":"7"},"geometry":{"type":"Point","coordinates":[6.2924,35.70148]}},{"type":"Feature","properties":{"Name":"8"},"geometry":{"type":"Point","coordinates":[6.56029,35.29]}},{"type":"Feature","properties":{"Name":"9"},"geometry":{"type":"Point","coordinates":[6.5505,35.26957]}},{"type":"Feature","properties":{"Name":"10"},"geometry":{"type":"Point","coordinates":[6.17923,35.08074]}},{"type":"Feature","properties":{"Name":"1 1"},"geometry":{"type":"Point","coordinates":[6.31792,35.67154]}},{"type":"Feature","properties":{"Name":"12"},"geometry":{"type":"Point","coordinates":[6.50539,35.29268]}},{"type":"Feature","properties":{"Name":"13"},"geometry":{"type":"Point","coordinates":[6.30146,35.70379]}},{"type":"Feature","properties":{"Name":"14"},"geometry":{"type":"Point","coordinates":[5.77834,35.72868]}},{"type":"Feature","properties":{"Name":"15"},"geometry":{"type":"Point","coordinates":[5.94705,35.57987]}},{"type":"Feature","properties":{"Name":"16"},"geometry":{"type":"Point","coordinates":[5.47242,35.204]}},{"type":"Feature","properties":{"Name":"17"},"geometry":{"type":"Point","coordinates":[6.33528,35.70997]}},{"type":"Feature","properties":{"Name":"18"},"geometry":{"type":"Point","coordinates":[5.99176,35.43251]}},{"type":"Feature","properties":{"Name":"19"},"geometry":{"type":"Point","coordinates":[5.73999,35.33366]}},{"type":"Feature","properties":{"Name":"20"},"geometry":{"type":"Point","coordinates":[6.14387,35.53466]}},{"type":"Feature","properties":{"Name":"21"},"geometry":{"type":"Point","coordinates":[6.23269,35.54649]}},{"type":"Feature","properties":{"Name":"22"},"geometry":{"type":"Point","coordinates":[6.10814,35.50741]}},{"type":"Feature","properties":{"Name":"23"},"geometry":{"type":"Point","coordinates":[6.11703,35.52641]}},{"type":"Feature","properties":{"Name":"24"},"geometry":{"type":"Point","coordinates":[5.84866,35.43728]}},{"type":"Feature","properties":{"Name":"25"},"geometry":{"type":"Point","coordinates":[6.2108,35.55075]}},{"type":"Feature","properties":{"Name":"26"},"geometry":{"type":"Point","coordinates":[5.95747,35.40278]}},{"type":"Feature","properties":{"Name":"27"},"geometry":{"type":"Point","coordinates":[5.96224,35.41167]}},{"type":"Feature","properties":{"Name":"28"},"geometry":{"type":"Point","coordinates":[5.94969,35.41394]}},{"type":"Feature","properties":{"Name":"29"},"geometry":{"type":"Point","coordinates":[5.97825,35.42566]}},{"type":"Feature","properties":{"Name":"30"},"geometry":{"type":"Point","coordinates":[6.13204,35.56748]}},{"type":"Feature","properties":{"Name":"31"},"geometry":{"type":"Point","coordinates":[6.05816,35.4755]}},{"type":"Feature","properties":{"Name":"32"},"geometry":{"type":"Point","coordinates":[6.06374,35.46658]}},{"type":"Feature","properties":{"Name":"33"},"geometry":{"type":"Point","coordinates":[6.13945,35.25331]}},{"type":"Feature","properties":{"Name":"34"},"geometry":{"type":"Point","coordinates":[6.65269,35.66643]}},{"type":"Feature","properties":{"Name":"35"},"geometry":{"type":"Point","coordinates":[6.6893,35.64759]}},{"type":"Feature","properties":{"Name":"36"},"geometry":{"type":"Point","coordinates":[5.45055,35.71863]}},{"type":"Feature","properties":{"Name":"37"},"geometry":{"type":"Point","coordinates":[6.45273,35.2727]}},{"type":"Feature","properties":{"Name":"38"},"geometry":{"type":"Point","coordinates":[6.45273,35.34307]}},{"type":"Feature","properties":{"Name":"39"},"geometry":{"type":"Point","coordinates":[6.48064,35.33528]}},{"type":"Feature","properties":{"Name":"40"},"geometry":{"type":"Point","coordinates":[5.18653,35.12736]}},{"type":"Feature","properties":{"Name":"41"},"geometry":{"type":"Point","coordinates":[5.92505,35.6364]}},{"type":"Feature","properties":{"Name":"42"},"geometry":{"type":"Point","coordinates":[5.93955,35.63962]}},{"type":"Feature","properties":{"Name":"43"},"geometry":{"type":"Point","coordinates":[5.62677,35.69821]}},{"type":"Feature","properties":{"Name":"44"},"geometry":{"type":"Point","coordinates":[5.6188,35.54145]}},{"type":"Feature","properties":{"Name":"45"},"geometry":{"type":"Point","coordinates":[6.21446,35.08331]}},{"type":"Feature","properties":{"Name":"46"},"geometry":{"type":"Point","coordinates":[6.43646,35.37856]}},{"type":"Feature","properties":{"Name":"47"},"geometry":{"type":"Point","coordinates":[6.23163,35.50409]}},{"type":"Feature","properties":{"Name":"48"},"geometry":{"type":"Point","coordinates":[6.25912,35.4974]}},{"type":"Feature","properties":{"Name":"49"},"geometry":{"type":"Point","coordinates":[6.21973,35.78637]}},{"type":"Feature","properties":{"Name":"50"},"geometry":{"type":"Point","coordinates":[6.55755,35.76473]}},{"type":"Feature","properties":{"Name":"51"},"geometry":{"type":"Point","coordinates":[6.55202,35.3011]}},{"type":"Feature","properties":{"Name":"52"},"geometry":{"type":"Point","coordinates":[5.88723,35.38862]}},{"type":"Feature","properties":{"Name":"53"},"geometry":{"type":"Point","coordinates":[5.83613,35.34289]}},{"type":"Feature","properties":{"Name":"54"},"geometry":{"type":"Point","coordinates":[6.24194,35.09674]}},{"type":"Feature","properties":{"Name":"55"},"geometry":{"type":"Point","coordinates":[6.39458,35.76704]}},{"type":"Feature","properties":{"Name":"56a"},"geometry":{"type":"Point","coordinates":[6.26997,35.68977]}},{"type":"Feature","properties":{"Name":"56b"},"geometry":{"type":"Point","coordinates":[6.30776,35.6954]}},{"type":"Feature","properties":{"Name":"56c"},"geometry":{"type":"Point","coordinates":[6.31813,35.69689]}},{"type":"Feature","properties":{"Name":"57"},"geometry":{"type":"Point","coordinates":[6.44248,35.81661]}},{"type":"Feature","properties":{"Name":"58"},"geometry":{"type":"Point","coordinates":[6.51777,35.48266]}},{"type":"Feature","properties":{"Name":"59"},"geometry":{"type":"Point","coordinates":[6.25199,35.63253]}},{"type":"Feature","properties":{"Name":"60"},"geometry":{"type":"Point","coordinates":[6.42604,35.52617]}},{"type":"Feature","properties":{"Name":"61"},"geometry":{"type":"Point","coordinates":[6.18087,35.06806]}},{"type":"Feature","properties":{"Name":"62"},"geometry":{"type":"Point","coordinates":[6.31864,35.22723]}},{"type":"Feature","properties":{"Name":"63"},"geometry":{"type":"Point","coordinates":[6.24455,35.17615]}},{"type":"Feature","properties":{"Name":"64"},"geometry":{"type":"Point","coordinates":[6.39493,35.52173]}},{"type":"Feature","properties":{"Name":"65"},"geometry":{"type":"Point","coordinates":[6.27519,35.53666]}},{"type":"Feature","properties":{"Name":"66"},"geometry":{"type":"Point","coordinates":[5.61454,35.36476]}},{"type":"Feature","properties":{"Name":"67"},"geometry":{"type":"Point","coordinates":[6.29286,35.50794]}},{"type":"Feature","properties":{"Name":"68"},"geometry":{"type":"Point","coordinates":[6.33034,35.50613]}},{"type":"Feature","properties":{"Name":"69"},"geometry":{"type":"Point","coordinates":[5.73539,35.35723]}},{"type":"Feature","properties":{"Name":"70"},"geometry":{"type":"Point","coordinates":[5.63052,35.68008]}},{"type":"Feature","properties":{"Name":"71"},"geometry":{"type":"Point","coordinates":[5.26875,35.22662]}},{"type":"Feature","properties":{"Name":"72"},"geometry":{"type":"Point","coordinates":[6.22531,35.23004]}},{"type":"Feature","properties":{"Name":"73"},"geometry":{"type":"Point","coordinates":[6.15494,35.76439]}},{"type":"Feature","properties":{"Name":"74"},"geometry":{"type":"Point","coordinates":[6.2385,35.501]}},{"type":"Feature","properties":{"Name":"75"},"geometry":{"type":"Point","coordinates":[6.16653,35.07863]}},{"type":"Feature","properties":{"Name":"76"},"geometry":{"type":"Point","coordinates":[6.32606,35.2262]}},{"type":"Feature","properties":{"Name":"77"},"geometry":{"type":"Point","coordinates":[5.54005,35.37153]}},{"type":"Feature","properties":{"Name":"78"},"geometry":{"type":"Point","coordinates":[6.31841,35.22627]}},{"type":"Feature","properties":{"Name":"79 i"},"geometry":{"type":"Point","coordinates":[6.69207,35.64903]}},{"type":"Feature","properties":{"Name":"80"},"geometry":{"type":"Point","coordinates":[6.73696,35.65492]}},{"type":"Feature","properties":{"Name":"81"},"geometry":{"type":"Point","coordinates":[6.42146,35.40451]}},{"type":"Feature","properties":{"Name":"82"},"geometry":{"type":"Point","coordinates":[5.18844,35.12453]}},{"type":"Feature","properties":{"Name":"83"},"geometry":{"type":"Point","coordinates":[5.79941,35.44635]}},{"type":"Feature","properties":{"Name":"84"},"geometry":{"type":"Point","coordinates":[6.22394,35.80388]}},{"type":"Feature","properties":{"Name":"85"},"geometry":{"type":"Point","coordinates":[6.16689,35.72119]}},{"type":"Feature","properties":{"Name":"86"},"geometry":{"type":"Point","coordinates":[6.1271,35.66448]}},{"type":"Feature","properties":{"Name":"87"},"geometry":{"type":"Point","coordinates":[6.30853,35.69429]}},{"type":"Feature","properties":{"Name":"ZONE HUMIDE GISEMENT GYPSE"},"geometry":{"type":"Point","coordinates":[6.27784,35.68365]}},{"type":"Feature","properties":{"Name":"GROTTE"},"geometry":{"type":"Point","coordinates":[6.04114,35.56852]}},{"type":"Feature","properties":{"Name":"MINE"},"geometry":{"type":"Point","coordinates":[5.9447,35.59953]}},{"type":"Feature","properties":{"Name":"GROTTE"},"geometry":{"type":"Point","coordinates":[5.93052,35.57728]}},{"type":"Feature","properties":{"Name":"MINE"},"geometry":{"type":"Point","coordinates":[6.2507,35.64452]}},{"type":"Feature","properties":{"Name":"BASSIN"},"geometry":{"type":"Point","coordinates":[6.25161,35.64832]}},{"type":"Feature","properties":{"Name":"SOURCE"},"geometry":{"type":"Point","coordinates":[6.24661,35.65198]}},{"type":"Feature","properties":{"Name":"MINE"},"geometry":{"type":"Point","coordinates":[6.25128,35.64478]}},{"type":"Feature","properties":{"Name":"MINE"},"geometry":{"type":"Point","coordinates":[6.25241,35.64623]}},{"type":"Feature","properties":{"Name":"MINE"},"geometry":{"type":"Point","coordinates":[6.25498,35.64697]}},{"type":"Feature","properties":{"Name":"Chaabet El Hamra"},"geometry":{"type":"Point","coordinates":[5.5414,35.7828]}},{"type":"Feature","properties":{"Name":"Merouana"},"geometry":{"type":"Point","coordinates":[5.9341,35.6054]}},{"type":"Feature","properties":{"Name":"Afoural"},"geometry":{"type":"Point","coordinates":[5.7514,35.7692]}},{"type":"Feature","properties":{"Name":"Chouf Ameur"},"geometry":{"type":"Point","coordinates":[5.7333,35.7]}},{"type":"Feature","properties":{"Name":"Chellala"},"geometry":{"type":"Point","coordinates":[6.1315,35.61737]}},{"type":"Feature","properties":{"Name":"Tenoun Kenin"},"geometry":{"type":"Point","coordinates":[6.2604,35.5465]}},{"type":"Feature","properties":{"Name":"Djebel Takharbi"},"geometry":{"type":"Point","coordinates":[6.2333,35.6333]}},{"type":"Feature","properties":{"Name":"Djendeli"},"geometry":{"type":"Point","coordinates":[6.5222,35.6667]}},{"type":"Feature","properties":{"Name":"Taghit"},"geometry":{"type":"Point","coordinates":[6.1492,35.2081]}},{"type":"Feature","properties":{"Name":"Djebel Ichmoul"},"geometry":{"type":"Point","coordinates":[6.5028,35.2902]}},{"type":"Feature","properties":{"Name":"Djebel Mogref"},"geometry":{"type":"Point","coordinates":[6.4162,35.6045]}},{"type":"Feature","properties":{"Name":"Forer"},"geometry":{"type":"Point","coordinates":[6.3833,35.6167]}},{"type":"Feature","properties":{"Name":"Hadjar"},"geometry":{"type":"Point","coordinates":[6.2611,35.6523]}},{"type":"Feature","properties":{"Name":"Mekouch"},"geometry":{"type":"Point","coordinates":[6.3889,35.6159]}},{"type":"Feature","properties":{"Name":"DZA-01302"},"geometry":{"type":"Point","coordinates":[6.5488,35.3248]}},{"type":"Feature","properties":{"Name":"El Heria"},"geometry":{"type":"Point","coordinates":[6.5664,35.3076]}},{"type":"Feature","properties":{"Name":"DZA-01304"},"geometry":{"type":"Point","coordinates":[6.4375,35.2919]}},{"type":"Feature","properties":{"Name":"DZA-01305"},"geometry":{"type":"Point","coordinates":[6.4896,35.3123]}},{"type":"Feature","properties":{"Name":"DZA-01306"},"geometry":{"type":"Point","coordinates":[6.53,35.3001]}},{"type":"Feature","properties":{"Name":"DZA-01307"},"geometry":{"type":"Point","coordinates":[6.5555,35.2821]}},{"type":"Feature","properties":{"Name":"EVII1"},"geometry":{"type":"Point","coordinates":[6.4688,35.3162]}},{"type":"Feature","properties":{"Name":"DZA-01309"},"geometry":{"type":"Point","coordinates":[6.3835,35.3433]}},{"type":"Feature","properties":{"Name":"DZA-01310"},"geometry":{"type":"Point","coordinates":[6.3415,35.3225]}},{"type":"Feature","properties":{"Name":"DZA-01311"},"geometry":{"type":"Point","coordinates":[6.3353,35.3107]}},{"type":"Feature","properties":{"Name":"DZA-01312"},"geometry":{"type":"Point","coordinates":[6.3686,35.2856]}},{"type":"Feature","properties":{"Name":"DZA-01313"},"geometry":{"type":"Point","coordinates":[6.2485,35.2437]}},{"type":"Feature","properties":{"Name":"DZA-01314"},"geometry":{"type":"Point","coordinates":[6.165,35.2268]}},{"type":"Feature","properties":{"Name":"DZA-01315"},"geometry":{"type":"Point","coordinates":[6.1192,35.2119]}},{"type":"Feature","properties":{"Name":"DZA-01316"},"geometry":{"type":"Point","coordinates":[6.1016,35.1613]}},{"type":"Feature","properties":{"Name":"DZA-01317"},"geometry":{"type":"Point","coordinates":[6.1317,35.2021]}},{"type":"Feature","properties":{"Name":"DZA-01318"},"geometry":{"type":"Point","coordinates":[6.127,35.2288]}},{"type":"Feature","properties":{"Name":"EVII3"},"geometry":{"type":"Point","coordinates":[6.1792,35.208]}},{"type":"Feature","properties":{"Name":"DZA-01324"},"geometry":{"type":"Point","coordinates":[5.1343,35.1176]}},{"type":"Feature","properties":{"Name":"DZA-01325"},"geometry":{"type":"Point","coordinates":[5.1969,35.119]}},{"type":"Feature","properties":{"Name":"DZA-01326"},"geometry":{"type":"Point","coordinates":[5.1489,35.1009]}},{"type":"Feature","properties":{"Name":"DZA-01327"},"geometry":{"type":"Point","coordinates":[5.4188,35.5479]}},{"type":"Feature","properties":{"Name":"DZA-01328"},"geometry":{"type":"Point","coordinates":[5.527,35.6277]}},{"type":"Feature","properties":{"Name":"DZA-01397"},"geometry":{"type":"Point","coordinates":[5.4312,35.7259]}},{"type":"Feature","properties":{"Name":"DZA-01398"},"geometry":{"type":"Point","coordinates":[5.4324,35.7147]}},{"type":"Feature","properties":{"Name":"DZA-01400"},"geometry":{"type":"Point","coordinates":[5.4866,35.7511]}},{"type":"Feature","properties":{"Name":"DZA-01402"},"geometry":{"type":"Point","coordinates":[5.581,35.7711]}},{"type":"Feature","properties":{"Name":"DZA-01403"},"geometry":{"type":"Point","coordinates":[5.5992,35.7593]}},{"type":"Feature","properties":{"Name":"DZA-01406"},"geometry":{"type":"Point","coordinates":[5.5496,35.7764]}},{"type":"Feature","properties":{"Name":"EIII5"},"geometry":{"type":"Point","coordinates":[5.6552,35.7239]}},{"type":"Feature","properties":{"Name":"DZA-01409"},"geometry":{"type":"Point","coordinates":[5.6946,35.7328]}},{"type":"Feature","properties":{"Name":"DZA-01410"},"geometry":{"type":"Point","coordinates":[5.691,35.7505]}},{"type":"Feature","properties":{"Name":"DZA-01411"},"geometry":{"type":"Point","coordinates":[5.7052,35.7481]}},{"type":"Feature","properties":{"Name":"DZA-01413"},"geometry":{"type":"Point","coordinates":[5.7341,35.7528]}},{"type":"Feature","properties":{"Name":"DZA-01415"},"geometry":{"type":"Point","coordinates":[5.7412,35.8319]}},{"type":"Feature","properties":{"Name":"DZA-01416"},"geometry":{"type":"Point","coordinates":[5.73,35.8212]}},{"type":"Feature","properties":{"Name":"DZA-01417"},"geometry":{"type":"Point","coordinates":[5.7483,35.7935]}},{"type":"Feature","properties":{"Name":"DZA-01419"},"geometry":{"type":"Point","coordinates":[5.7859,35.8218]}},{"type":"Feature","properties":{"Name":"DZA-01420"},"geometry":{"type":"Point","coordinates":[5.8172,35.8142]}},{"type":"Feature","properties":{"Name":"DZA-01421"},"geometry":{"type":"Point","coordinates":[5.7895,35.7693]}},{"type":"Feature","properties":{"Name":"DZA-01422"},"geometry":{"type":"Point","coordinates":[5.8237,35.7876]}},{"type":"Feature","properties":{"Name":"DZA-01423"},"geometry":{"type":"Point","coordinates":[5.8502,35.7859]}},{"type":"Feature","properties":{"Name":"DZA-01424"},"geometry":{"type":"Point","coordinates":[5.8343,35.7658]}},{"type":"Feature","properties":{"Name":"DZA-01425"},"geometry":{"type":"Point","coordinates":[5.8272,35.7469]}},{"type":"Feature","properties":{"Name":"DZA-01426"},"geometry":{"type":"Point","coordinates":[5.8485,35.7446]}},{"type":"Feature","properties":{"Name":"DZA-01427"},"geometry":{"type":"Point","coordinates":[5.9273,35.7564]}},{"type":"Feature","properties":{"Name":"DZA-01428"},"geometry":{"type":"Point","coordinates":[6.0057,35.6791]}},{"type":"Feature","properties":{"Name":"EIV2"},"geometry":{"type":"Point","coordinates":[5.9084,35.6204]}},{"type":"Feature","properties":{"Name":"DZA-01430"},"geometry":{"type":"Point","coordinates":[5.9084,35.5862]}},{"type":"Feature","properties":{"Name":"DZA-01431"},"geometry":{"type":"Point","coordinates":[5.8895,35.5555]}},{"type":"Feature","properties":{"Name":"DZA-01432"},"geometry":{"type":"Point","coordinates":[5.932,35.5567]}},{"type":"Feature","properties":{"Name":"DZA-01433"},"geometry":{"type":"Point","coordinates":[5.9172,35.5484]}},{"type":"Feature","properties":{"Name":"DZA-01434"},"geometry":{"type":"Point","coordinates":[5.9697,35.5815]}},{"type":"Feature","properties":{"Name":"DZA-01435"},"geometry":{"type":"Point","coordinates":[5.9774,35.6127]}},{"type":"Feature","properties":{"Name":"DZA-01436"},"geometry":{"type":"Point","coordinates":[5.9874,35.6275]}},{"type":"Feature","properties":{"Name":"DZA-01437"},"geometry":{"type":"Point","coordinates":[6.004,35.608]}},{"type":"Feature","properties":{"Name":"DZA-01438"},"geometry":{"type":"Point","coordinates":[5.9721,35.5532]}},{"type":"Feature","properties":{"Name":"DZA-01439"},"geometry":{"type":"Point","coordinates":[5.9355,35.506]}},{"type":"Feature","properties":{"Name":"DZA-01440"},"geometry":{"type":"Point","coordinates":[5.9839,35.5284]}},{"type":"Feature","properties":{"Name":"DZA-01441"},"geometry":{"type":"Point","coordinates":[6.0193,35.5178]}},{"type":"Feature","properties":{"Name":"DZA-01442"},"geometry":{"type":"Point","coordinates":[6.0205,35.5308]}},{"type":"Feature","properties":{"Name":"DZA-01443"},"geometry":{"type":"Point","coordinates":[6.0195,35.5556]}},{"type":"Feature","properties":{"Name":"DZA-01444"},"geometry":{"type":"Point","coordinates":[6.0484,35.5927]}},{"type":"Feature","properties":{"Name":"DZA-01445"},"geometry":{"type":"Point","coordinates":[6.0732,35.5467]}},{"type":"Feature","properties":{"Name":"DZA-01446"},"geometry":{"type":"Point","coordinates":[6.1045,35.5656]}},{"type":"Feature","properties":{"Name":"DZA-01447"},"geometry":{"type":"Point","coordinates":[6.0492,35.5639]}},{"type":"Feature","properties":{"Name":"DZA-01448"},"geometry":{"type":"Point","coordinates":[6.0997,35.6001]}},{"type":"Feature","properties":{"Name":"DZA-01449"},"geometry":{"type":"Point","coordinates":[6.1386,35.5947]}},{"type":"Feature","properties":{"Name":"DZA-01450"},"geometry":{"type":"Point","coordinates":[6.0921,35.6405]}},{"type":"Feature","properties":{"Name":"DZA-01451"},"geometry":{"type":"Point","coordinates":[6.0543,35.6343]}},{"type":"Feature","properties":{"Name":"DZA-01452"},"geometry":{"type":"Point","coordinates":[6.0375,35.6467]}},{"type":"Feature","properties":{"Name":"DZA-01453"},"geometry":{"type":"Point","coordinates":[6.0859,35.6581]}},{"type":"Feature","properties":{"Name":"DZA-01454"},"geometry":{"type":"Point","coordinates":[6.1858,35.6537]}},{"type":"Feature","properties":{"Name":"DZA-01455"},"geometry":{"type":"Point","coordinates":[6.1778,35.6148]}},{"type":"Feature","properties":{"Name":"DZA-01456"},"geometry":{"type":"Point","coordinates":[6.2196,35.6224]}},{"type":"Feature","properties":{"Name":"DZA-01457"},"geometry":{"type":"Point","coordinates":[6.2469,35.5715]}},{"type":"Feature","properties":{"Name":"DZA-01458"},"geometry":{"type":"Point","coordinates":[6.2836,35.5901]}},{"type":"Feature","properties":{"Name":"DZA-01459"},"geometry":{"type":"Point","coordinates":[6.2367,35.5457]}},{"type":"Feature","properties":{"Name":"DZA-01460"},"geometry":{"type":"Point","coordinates":[6.3189,35.5391]}},{"type":"Feature","properties":{"Name":"DZA-01461"},"geometry":{"type":"Point","coordinates":[6.2955,35.5639]}},{"type":"Feature","properties":{"Name":"DZA-01462"},"geometry":{"type":"Point","coordinates":[6.3104,35.6115]}},{"type":"Feature","properties":{"Name":"DZA-01463"},"geometry":{"type":"Point","coordinates":[6.333,35.5893]}},{"type":"Feature","properties":{"Name":"DZA-01464"},"geometry":{"type":"Point","coordinates":[6.3446,35.6479]}},{"type":"Feature","properties":{"Name":"DZA-01465"},"geometry":{"type":"Point","coordinates":[6.3483,35.6028]}},{"type":"Feature","properties":{"Name":"DZA-01466"},"geometry":{"type":"Point","coordinates":[6.283,35.6803]}},{"type":"Feature","properties":{"Name":"DZA-01467"},"geometry":{"type":"Point","coordinates":[6.3041,35.7003]}},{"type":"Feature","properties":{"Name":"DZA-01468"},"geometry":{"type":"Point","coordinates":[6.363,35.7003]}},{"type":"Feature","properties":{"Name":"DZA-01469"},"geometry":{"type":"Point","coordinates":[6.443,35.6989]}},{"type":"Feature","properties":{"Name":"DZA-01470"},"geometry":{"type":"Point","coordinates":[6.4908,35.7244]}},{"type":"Feature","properties":{"Name":"DZA-01471"},"geometry":{"type":"Point","coordinates":[6.5105,35.632]}},{"type":"Feature","properties":{"Name":"EIV5-Djendeli"},"geometry":{"type":"Point","coordinates":[6.5549,35.6731]}},{"type":"Feature","properties":{"Name":"DZA-01473"},"geometry":{"type":"Point","coordinates":[6.6252,35.6843]}},{"type":"Feature","properties":{"Name":"DZA-01474"},"geometry":{"type":"Point","coordinates":[6.6176,35.6698]}},{"type":"Feature","properties":{"Name":"DZA-01475"},"geometry":{"type":"Point","coordinates":[6.6601,35.6687]}},{"type":"Feature","properties":{"Name":"DZA-01476"},"geometry":{"type":"Point","coordinates":[6.7129,35.6582]}},{"type":"Feature","properties":{"Name":"DZA-01479"},"geometry":{"type":"Point","coordinates":[6.6216,35.7682]}},{"type":"Feature","properties":{"Name":"DZA-01483"},"geometry":{"type":"Point","coordinates":[6.6092,35.7889]}},{"type":"Feature","properties":{"Name":"DZA-01484"},"geometry":{"type":"Point","coordinates":[6.5823,35.7616]}},{"type":"Feature","properties":{"Name":"DZA-01485"},"geometry":{"type":"Point","coordinates":[6.5834,35.7791]}},{"type":"Feature","properties":{"Name":"DZA-01493"},"geometry":{"type":"Point","coordinates":[6.5261,35.7737]}},{"type":"Feature","properties":{"Name":"EIV3"},"geometry":{"type":"Point","coordinates":[6.4613,35.8047]}},{"type":"Feature","properties":{"Name":"DZA-01499"},"geometry":{"type":"Point","coordinates":[6.5439,35.7632]}},{"type":"Feature","properties":{"Name":"DZA-01500"},"geometry":{"type":"Point","coordinates":[6.5592,35.7585]}},{"type":"Feature","properties":{"Name":"DZA-01888"},"geometry":{"type":"Point","coordinates":[6.0774,35.4742]}},{"type":"Feature","properties":{"Name":"DZA-01889"},"geometry":{"type":"Point","coordinates":[6.5952,35.5223]}},{"type":"Feature","properties":{"Name":"Mouder El Guissoumer"},"geometry":{"type":"Point","coordinates":[6.142,35.2975]}},{"type":"Feature","properties":{"Name":"DZA-02121"},"geometry":{"type":"Point","coordinates":[6.0773,35.2396]}},{"type":"Feature","properties":{"Name":"Mektar"},"geometry":{"type":"Point","coordinates":[6.255,35.1896]}},{"type":"Feature","properties":{"Name":"Oued Tasserguelt"},"geometry":{"type":"Point","coordinates":[6.4942,35.289]}},{"type":"Feature","properties":{"Name":"MINE"},"geometry":{"type":"Point","coordinates":[6.25524,35.64559]}},{"type":"Feature","properties":{"Name":"MINE"},"geometry":{"type":"Point","coordinates":[6.25581,35.64575]}},{"type":"Feature","properties":{"Name":"MINE"},"geometry":{"type":"Point","coordinates":[6.25677,35.64623]}},{"type":"Feature","properties":{"Name":"MINE"},"geometry":{"type":"Point","coordinates":[6.25752,35.64635]}},{"type":"Feature","properties":{"Name":"MINE"},"geometry":{"type":"Point","coordinates":[6.2608,35.64914]}},{"type":"Feature","properties":{"Name":"GYPSE"},"geometry":{"type":"Point","coordinates":[6.11293,35.59554]}},{"type":"Feature","properties":{"Name":"PROJET HOPITAL"},"geometry":{"type":"Point","coordinates":[6.27127,35.63945]}},{"type":"Feature","properties":{"Name":"MINE"},"geometry":{"type":"Point","coordinates":[6.25344,35.65322]}},{"type":"Feature","properties":{"Name":"GOUFFRE"},"geometry":{"type":"Point","coordinates":[6.00541,35.58512]}},{"type":"Feature","properties":{"Name":"GISEMENT"},"geometry":{"type":"Point","coordinates":[5.9263,35.64006]}},{"type":"Feature","properties":{"Name":"GROTTE"},"geometry":{"type":"Point","coordinates":[6.13406,35.58668]}}]}