{"type":"FeatureCollection","features":[{"type":"Feature","properties":{"Name":"PINEDE","OCCUPATION":"PINEDE","ETAT":"MOYEN","OBSERVATIO":"ENRISINEMENT","INTERVENTI":"AUCUNE"},"geometry":{"type":"Polygon","coordinates":[[[6.26923,35.65775],[6.26819,35.65771],[6.26747,35.65723],[6.26697,35.65711],[6.26495,35.65566],[6.26463,35.65482],[6.26422,35.65424],[6.26305,35.65281],[6.26275,35.65262],[6.26273,35.65234],[6.26285,35.65216],[6.26335,35.65191],[6.26422,35.65197],[6.26527,35.65257],[6.26651,35.6535],[6.26808,35.65431],[6.26904,35.65437],[6.27057,35.65515],[6.27184,35.65615],[6.27231,35.65685],[6.27144,35.65766],[6.26975,35.65761],[6.26923,35.65775]]]}},{"type":"Feature","properties":{"Name":"Pinede","OCCUPATION":"PINEDE","ETAT":"MOYEN","OBSERVATIO":"INCENDIE PARTIELLE","INTERVENTI":"TRAVAUX SYLVYCOLE"},"geometry":{"type":"Polygon","coordinates":[[[6.11773,35.57446],[6.11645,35.57421],[6.11605,35.57392],[6.11454,35.57329],[6.11366,35.57275],[6.11216,35.57214],[6.11033,35.57073],[6.10803,35.56968],[6.1063,35.5687],[6.10458,35.56718],[6.10416,35.56658],[6.10388,35.56593],[6.10372,35.56579],[6.10408,35.56536],[6.10409,35.56505],[6.10471,35.56462],[6.10478,35.56414],[6.10537,35.56358],[6.10572,35.56287],[6.10612,35.56257],[6.1065,35.56249],[6.10826,35.56276],[6.1087,35.5631],[6.10936,35.56331],[6.11027,35.5641],[6.11246,35.56526],[6.11364,35.56566],[6.11677,35.56573],[6.11754,35.56589],[6.11766,35.56578],[6.11781,35.56537],[6.11795,35.56529],[6.11831,35.56563],[6.11952,35.56608],[6.12175,35.56671],[6.12131,35.56722],[6.12108,35.56731],[6.12045,35.56723],[6.11993,35.56693],[6.11928,35.56705],[6.1186,35.56689],[6.11781,35.56695],[6.11773,35.56726],[6.11779,35.56751],[6.11723,35.568],[6.11705,35.56807],[6.11675,35.56789],[6.11648,35.56794],[6.11681,35.56806],[6.11664,35.56827],[6.11666,35.56856],[6.11673,35.56873],[6.11692,35.56883],[6.11713,35.56884],[6.11885,35.56819],[6.1195,35.56817],[6.12076,35.56781],[6.12123,35.56753],[6.12162,35.56708],[6.1219,35.56692],[6.1226,35.56687],[6.12324,35.567],[6.12363,35.56721],[6.12381,35.5675],[6.12374,35.56795],[6.12382,35.56823],[6.1235,35.56846],[6.12306,35.56842],[6.12256,35.56866],[6.12237,35.5691],[6.12091,35.56972],[6.12041,35.5707],[6.12001,35.57054],[6.11983,35.57012],[6.12004,35.56973],[6.12003,35.56953],[6.12049,35.56922],[6.12009,35.56903],[6.11936,35.56928],[6.11905,35.57112],[6.1191,35.57171],[6.11893,35.57208],[6.11889,35.57275],[6.11871,35.57306],[6.11824,35.57338],[6.11807,35.57361],[6.11827,35.57434],[6.11773,35.57446]],[[6.11317,35.56821],[6.11242,35.56872],[6.11247,35.56884],[6.11308,35.56872],[6.11305,35.56854],[6.11342,35.56871],[6.11413,35.56866],[6.11422,35.56845],[6.11385,35.56812],[6.1136,35.56808],[6.11317,35.56821]],[[6.11249,35.56821],[6.11269,35.56786],[6.11245,35.56768],[6.1121,35.56778],[6.11203,35.56763],[6.11179,35.56767],[6.11175,35.56783],[6.11193,35.56812],[6.11207,35.56818],[6.11249,35.56821]],[[6.11045,35.56665],[6.11094,35.56688],[6.1111,35.56684],[6.11116,35.56666],[6.111,35.5665],[6.11094,35.56657],[6.11076,35.56654],[6.11067,35.56648],[6.11076,35.5665],[6.11078,35.56642],[6.11057,35.56639],[6.11045,35.56665]]]}},{"type":"Feature","properties":{"Name":"pin","OCCUPATION":"PINEDE","ETAT":"BON","OBSERVATIO":"ENRISINEMENT","INTERVENTI":"TRAVAUX SYLVYCOLE CEDRE"},"geometry":{"type":"Polygon","coordinates":[[[6.09625,35.5941],[6.09635,35.59431],[6.09576,35.59454],[6.09564,35.59433],[6.09525,35.59403],[6.0953,35.59392],[6.09565,35.59387],[6.09561,35.59369],[6.09539,35.59356],[6.0957,35.59357],[6.09601,35.59394],[6.09618,35.5938],[6.09629,35.5939],[6.09625,35.5941]]]}},{"type":"Feature","properties":{"Name":"pin","OCCUPATION":"PINEDE","ETAT":"BON","OBSERVATIO":"ENRISINEMENT","INTERVENTI":"TRAVAUX SYLVYCOLE CEDRE"},"geometry":{"type":"Polygon","coordinates":[[[6.08866,35.59077],[6.08839,35.59084],[6.08845,35.59119],[6.08826,35.59113],[6.08813,35.59088],[6.08761,35.5908],[6.08764,35.59066],[6.08792,35.5906],[6.08813,35.59037],[6.08831,35.59048],[6.08861,35.5905],[6.08866,35.59077]]]}},{"type":"Feature","properties":{"Name":"Pinède tikhoubai","OCCUPATION":"PINEDE","ETAT":"BON","OBSERVATIO":"QUELQUE PIEDS SCOLYTE","INTERVENTI":"AUCUNE"},"geometry":{"type":"Polygon","coordinates":[[[5.9979,35.53535],[5.99611,35.53662],[5.99466,35.53703],[5.99407,35.53733],[5.99412,35.53809],[5.99363,35.53859],[5.99303,35.53882],[5.99249,35.53864],[5.99251,35.53841],[5.99299,35.53766],[5.99307,35.53673],[5.99274,35.53653],[5.99306,35.53617],[5.99313,35.53586],[5.99251,35.53586],[5.9918,35.53613],[5.99169,35.53606],[5.99167,35.53577],[5.99099,35.53592],[5.99148,35.53531],[5.99149,35.53512],[5.99127,35.53485],[5.99132,35.53473],[5.99203,35.53449],[5.99201,35.53414],[5.9918,35.53359],[5.99253,35.53333],[5.99283,35.53308],[5.99296,35.53281],[5.993,35.53249],[5.9924,35.53213],[5.99231,35.53184],[5.99244,35.53138],[5.9936,35.53062],[5.99409,35.53009],[5.99439,35.5299],[5.99479,35.53002],[5.99489,35.53017],[5.9951,35.53016],[5.99527,35.53004],[5.99531,35.52985],[5.99574,35.52954],[5.99613,35.52936],[5.99659,35.52936],[5.9966,35.52957],[5.99705,35.52985],[5.99711,35.53056],[5.99666,35.53192],[5.99615,35.53253],[5.99562,35.53289],[5.99457,35.5332],[5.99431,35.5334],[5.99327,35.53374],[5.99244,35.53382],[5.99218,35.53406],[5.99227,35.53443],[5.99247,35.53474],[5.99249,35.53515],[5.99296,35.53515],[5.99386,35.53491],[5.99386,35.53503],[5.99376,35.53509],[5.99438,35.53502],[5.99476,35.5351],[5.99502,35.53521],[5.99512,35.53544],[5.99546,35.53532],[5.99582,35.53552],[5.99622,35.53551],[5.99705,35.53513],[5.99769,35.5351],[5.99784,35.53517],[5.9979,35.53535]],[[5.99585,35.53249],[5.99594,35.53241],[5.99584,35.5322],[5.99524,35.53217],[5.99468,35.53228],[5.99437,35.53211],[5.9942,35.53212],[5.99411,35.53224],[5.99364,35.53228],[5.99364,35.53237],[5.99392,35.53246],[5.99527,35.53241],[5.99585,35.53249]],[[5.9955,35.5308],[5.99545,35.53101],[5.99575,35.53133],[5.99597,35.53149],[5.99613,35.53144],[5.99618,35.53127],[5.99649,35.53103],[5.99636,35.53083],[5.99653,35.53062],[5.99658,35.53025],[5.99637,35.53017],[5.99608,35.53082],[5.9955,35.5308]]]}},{"type":"Feature","properties":{"Name":"Pin","OCCUPATION":"PINEDE","ETAT":"BON","OBSERVATIO":"ENRISINEMENT, PATURAGE, BRACONAGE","INTERVENTI":"AUCUNE"},"geometry":{"type":"Polygon","coordinates":[[[6.18384,35.62308],[6.18286,35.62325],[6.1821,35.62383],[6.18138,35.62419],[6.18039,35.62444],[6.17644,35.62404],[6.17625,35.62392],[6.17635,35.62374],[6.17698,35.62332],[6.17941,35.62311],[6.18097,35.62235],[6.18216,35.62264],[6.18367,35.6221],[6.18442,35.62235],[6.18434,35.62267],[6.18416,35.62287],[6.18384,35.62308]]]}},{"type":"Feature","properties":{"Name":"Pinède","OCCUPATION":"PINEDE","ETAT":"MOYEN","OBSERVATIO":"PATURAGE","INTERVENTI":"AUCUNE"},"geometry":{"type":"Polygon","coordinates":[[[6.00977,35.5262],[6.00986,35.5265],[6.00978,35.5267],[6.00968,35.5267],[6.00885,35.52585],[6.00819,35.52545],[6.00793,35.52541],[6.00766,35.52511],[6.00743,35.52447],[6.00679,35.52405],[6.00631,35.52346],[6.00617,35.52311],[6.00592,35.52303],[6.00576,35.52252],[6.00515,35.52167],[6.00505,35.5212],[6.00513,35.52102],[6.00505,35.52095],[6.00486,35.52101],[6.00483,35.52053],[6.00502,35.52032],[6.00607,35.52143],[6.00841,35.52303],[6.00858,35.52358],[6.00974,35.52532],[6.00977,35.5262]]]}},{"type":"Feature","properties":{"Name":"Pinède","OCCUPATION":"PINEDE","ETAT":"MOYEN","OBSERVATIO":"PATURAGE","INTERVENTI":"AUCUNE"},"geometry":{"type":"Polygon","coordinates":[[[6.02112,35.52255],[6.02138,35.52383],[6.02131,35.52415],[6.02089,35.52427],[6.02012,35.52381],[6.01911,35.52363],[6.01678,35.52285],[6.01461,35.52168],[6.01299,35.52121],[6.01252,35.52092],[6.01251,35.52109],[6.01221,35.52087],[6.01224,35.52014],[6.01117,35.51997],[6.01067,35.52],[6.01027,35.51982],[6.00894,35.51951],[6.00824,35.51915],[6.00786,35.51882],[6.00783,35.51863],[6.00735,35.51835],[6.00736,35.51812],[6.00662,35.51795],[6.00652,35.51784],[6.00707,35.51768],[6.00755,35.51774],[6.00813,35.51811],[6.00837,35.51837],[6.00964,35.51855],[6.01186,35.51832],[6.01333,35.51856],[6.01515,35.51943],[6.01648,35.5198],[6.01669,35.51997],[6.01618,35.5201],[6.01635,35.52044],[6.01697,35.52036],[6.01686,35.52007],[6.01798,35.52037],[6.01843,35.52062],[6.01917,35.52133],[6.01931,35.52176],[6.01922,35.5218],[6.01916,35.52211],[6.02007,35.52205],[6.02112,35.52255]],[[6.01776,35.5213],[6.01834,35.52133],[6.01797,35.52093],[6.0178,35.52094],[6.01778,35.5211],[6.0175,35.52107],[6.01776,35.5213]]]}},{"type":"Feature","properties":{"Name":"Pinede","OCCUPATION":"PINEDE","ETAT":"BON","OBSERVATIO":"PATURAGE","INTERVENTI":"AUCUNE"},"geometry":{"type":"Polygon","coordinates":[[[6.07816,35.57333],[6.07764,35.57327],[6.07744,35.5731],[6.07742,35.57318],[6.07674,35.57306],[6.07624,35.57263],[6.07602,35.57167],[6.07543,35.57113],[6.07504,35.57099],[6.07414,35.57116],[6.07359,35.57109],[6.07314,35.57075],[6.07299,35.57038],[6.07296,35.57001],[6.07316,35.56954],[6.07314,35.56869],[6.07336,35.56819],[6.07334,35.56801],[6.07309,35.56772],[6.07279,35.56767],[6.07279,35.56736],[6.07302,35.56705],[6.07382,35.5665],[6.07397,35.56617],[6.07398,35.56605],[6.07391,35.56605],[6.07486,35.5656],[6.07533,35.56618],[6.07577,35.5664],[6.07603,35.5664],[6.07631,35.56631],[6.07729,35.56564],[6.07759,35.56522],[6.07759,35.56505],[6.07731,35.56491],[6.07533,35.56504],[6.0747,35.56492],[6.07464,35.56472],[6.07512,35.56439],[6.07604,35.56435],[6.07703,35.56416],[6.07738,35.56418],[6.07807,35.56501],[6.07877,35.56531],[6.07915,35.56566],[6.07892,35.56587],[6.07794,35.56612],[6.07733,35.56651],[6.07685,35.56702],[6.07671,35.56745],[6.07676,35.56781],[6.07754,35.56838],[6.07773,35.56879],[6.07763,35.56875],[6.07768,35.56888],[6.07844,35.5699],[6.0789,35.57025],[6.07891,35.57039],[6.07873,35.57058],[6.07838,35.57082],[6.07766,35.57016],[6.07654,35.57027],[6.07613,35.57018],[6.07547,35.56975],[6.07507,35.56933],[6.07489,35.56961],[6.07489,35.57001],[6.075,35.57021],[6.07629,35.57043],[6.07817,35.57152],[6.07873,35.57173],[6.07859,35.57187],[6.07827,35.57192],[6.07814,35.57216],[6.07837,35.57241],[6.07895,35.57252],[6.07895,35.57263],[6.07879,35.57295],[6.07816,35.57333]]]}},{"type":"Feature","properties":{"Name":"Pinede","OCCUPATION":"PINEDE","ETAT":"MOYEN","OBSERVATIO":"PATURAGE","INTERVENTI":"TRAVAUX SYLVYCOLE"},"geometry":{"type":"Polygon","coordinates":[[[6.10363,35.5653],[6.1035,35.56568],[6.10375,35.56598],[6.10383,35.56618],[6.10373,35.56621],[6.10267,35.5653],[6.10213,35.56528],[6.10193,35.56509],[6.10154,35.56435],[6.10042,35.56324],[6.09918,35.56355],[6.09795,35.56368],[6.0978,35.56359],[6.09776,35.56309],[6.09737,35.56295],[6.09729,35.56314],[6.09548,35.56315],[6.09287,35.56266],[6.08929,35.56172],[6.0887,35.56149],[6.08818,35.56157],[6.08709,35.56152],[6.08757,35.56104],[6.08863,35.5608],[6.08975,35.56029],[6.08986,35.56038],[6.08987,35.56061],[6.09002,35.56064],[6.09051,35.5604],[6.0907,35.56046],[6.09078,35.56075],[6.09068,35.56091],[6.09086,35.56089],[6.091,35.56068],[6.09138,35.56061],[6.09149,35.56039],[6.09196,35.56032],[6.09182,35.56017],[6.09142,35.56023],[6.09084,35.56013],[6.09174,35.55959],[6.09137,35.55938],[6.09114,35.55941],[6.0908,35.55966],[6.09058,35.55966],[6.09043,35.55954],[6.09064,35.55926],[6.09056,35.55915],[6.08964,35.55921],[6.0892,35.55897],[6.08917,35.55877],[6.08966,35.55871],[6.08974,35.55851],[6.08899,35.55807],[6.08867,35.55699],[6.08816,35.55647],[6.08768,35.5557],[6.0872,35.55556],[6.0872,35.55538],[6.08694,35.55493],[6.0859,35.55376],[6.08596,35.55367],[6.0863,35.55381],[6.08623,35.55366],[6.08513,35.55294],[6.0837,35.55182],[6.08324,35.55135],[6.08264,35.55045],[6.08358,35.55068],[6.0893,35.55377],[6.09043,35.55449],[6.09176,35.55506],[6.09552,35.55623],[6.09764,35.55657],[6.09959,35.55733],[6.10064,35.55787],[6.1026,35.55841],[6.10296,35.55859],[6.1034,35.55892],[6.10269,35.55993],[6.10289,35.5614],[6.10263,35.56118],[6.10242,35.56114],[6.10243,35.56137],[6.10262,35.56155],[6.1029,35.56147],[6.1031,35.56234],[6.10394,35.56327],[6.10427,35.56379],[6.10428,35.56443],[6.10363,35.5653]]]}},{"type":"Feature","properties":{"Name":"Pinede","OCCUPATION":"PINEDE","ETAT":"MOYEN","OBSERVATIO":"PATURAGE","INTERVENTI":"AUCUNE"},"geometry":{"type":"Polygon","coordinates":[[[6.11906,35.5873],[6.11768,35.58773],[6.11771,35.58781],[6.1176,35.58788],[6.11729,35.58786],[6.11714,35.58768],[6.1171,35.5876],[6.11744,35.58741],[6.11745,35.58731],[6.11717,35.58706],[6.11672,35.58637],[6.11724,35.5862],[6.11719,35.58596],[6.11736,35.58564],[6.11707,35.58518],[6.11616,35.58455],[6.11561,35.584],[6.11636,35.58357],[6.11643,35.58286],[6.11632,35.58232],[6.11644,35.58213],[6.11723,35.58244],[6.11804,35.58323],[6.1183,35.58388],[6.11808,35.58436],[6.11828,35.58498],[6.1183,35.58538],[6.11927,35.58624],[6.11946,35.58688],[6.11943,35.58733],[6.11936,35.58737],[6.11923,35.58727],[6.11906,35.5873]]]}},{"type":"Feature","properties":{"Name":"Pinede","OCCUPATION":"PINEDE","ETAT":"MOYEN","OBSERVATIO":"PATURAGE","INTERVENTI":"AUCUNE"},"geometry":{"type":"Polygon","coordinates":[[[6.11791,35.58944],[6.11751,35.58943],[6.11692,35.589],[6.11666,35.58891],[6.11727,35.58872],[6.11777,35.58845],[6.11787,35.58851],[6.11746,35.5887],[6.11772,35.58903],[6.11815,35.58912],[6.11809,35.58935],[6.11791,35.58944]]]}},{"type":"Feature","properties":{"Name":"Pinède","OCCUPATION":"PINEDE","ETAT":"BON","OBSERVATIO":"ENRISINEMENT, PATURAGE, BRACONAGE","INTERVENTI":"AUCUNE"},"geometry":{"type":"Polygon","coordinates":[[[6.14137,35.60635],[6.14076,35.60671],[6.13982,35.60617],[6.13888,35.60625],[6.13763,35.60592],[6.13711,35.60568],[6.13665,35.60491],[6.13549,35.60444],[6.1346,35.60424],[6.13412,35.60428],[6.13376,35.60445],[6.13292,35.60419],[6.13288,35.60404],[6.13268,35.60414],[6.13156,35.60401],[6.13138,35.60361],[6.13073,35.60337],[6.13003,35.60295],[6.12943,35.60273],[6.12874,35.60272],[6.12942,35.60191],[6.12983,35.60164],[6.131,35.6014],[6.13131,35.60108],[6.13099,35.60088],[6.13138,35.60074],[6.13126,35.60027],[6.13155,35.60042],[6.13224,35.60105],[6.13274,35.60129],[6.13332,35.60131],[6.13374,35.60113],[6.13447,35.60169],[6.13492,35.60175],[6.13606,35.60168],[6.13651,35.60183],[6.13671,35.60214],[6.13679,35.60259],[6.1372,35.6028],[6.13746,35.60335],[6.13797,35.60374],[6.13815,35.60429],[6.13867,35.6044],[6.14037,35.60425],[6.14091,35.60413],[6.14104,35.60421],[6.14193,35.60478],[6.14223,35.60538],[6.14224,35.6057],[6.1421,35.60613],[6.14137,35.60635]],[[6.13364,35.60406],[6.13377,35.60421],[6.13443,35.60402],[6.13436,35.60386],[6.13399,35.60392],[6.13387,35.60409],[6.13364,35.60406]]]}},{"type":"Feature","properties":{"Name":"Pinède","OCCUPATION":"PINEDE","ETAT":"BON","OBSERVATIO":"ENRISINEMENT, PATURAGE, BRACONAGE","INTERVENTI":"AUCUNE"},"geometry":{"type":"Polygon","coordinates":[[[6.14548,35.61081],[6.14487,35.61105],[6.14373,35.61096],[6.1427,35.61034],[6.14225,35.6102],[6.14145,35.61021],[6.14083,35.60987],[6.14021,35.61],[6.13982,35.60986],[6.13882,35.60981],[6.13814,35.60934],[6.13795,35.6091],[6.13756,35.60895],[6.13686,35.6089],[6.13605,35.60864],[6.13522,35.60871],[6.13428,35.60857],[6.1338,35.60819],[6.13298,35.60808],[6.13247,35.60775],[6.13237,35.60657],[6.13264,35.60629],[6.13354,35.60627],[6.1346,35.60677],[6.13531,35.607],[6.13565,35.60729],[6.13581,35.60773],[6.13549,35.60815],[6.13571,35.60831],[6.13803,35.60838],[6.13838,35.60852],[6.13879,35.60893],[6.13989,35.60888],[6.14042,35.60906],[6.14137,35.60919],[6.14303,35.60978],[6.14387,35.61025],[6.14524,35.61051],[6.14552,35.61067],[6.14548,35.61081]]]}},{"type":"Feature","properties":{"Name":"Pinède","OCCUPATION":"PINEDE","ETAT":"BON","OBSERVATIO":"ENRISINEMENT, PATURAGE, BRACONAGE","INTERVENTI":"AUCUNE"},"geometry":{"type":"Polygon","coordinates":[[[6.15001,35.61124],[6.14947,35.61135],[6.14926,35.61113],[6.14851,35.61],[6.14822,35.61],[6.14784,35.61039],[6.14753,35.61046],[6.14723,35.6103],[6.14699,35.60958],[6.14647,35.60969],[6.14624,35.60957],[6.14624,35.60863],[6.14644,35.60796],[6.14646,35.60757],[6.14792,35.60731],[6.1484,35.60734],[6.14868,35.60701],[6.14882,35.60723],[6.14881,35.608],[6.14904,35.60833],[6.14939,35.60835],[6.14977,35.60891],[6.15011,35.60902],[6.15066,35.60888],[6.15099,35.60926],[6.15141,35.60928],[6.15194,35.60982],[6.15261,35.6101],[6.15283,35.61014],[6.15367,35.60994],[6.15378,35.61006],[6.15356,35.6104],[6.15302,35.61066],[6.15232,35.61051],[6.15131,35.6108],[6.1508,35.61061],[6.15021,35.6099],[6.15,35.60989],[6.14996,35.61019],[6.15007,35.61042],[6.15013,35.61099],[6.15001,35.61124]]]}},{"type":"Feature","properties":{"Name":"Pinède","OCCUPATION":"PINEDE","ETAT":"DEGRADEE","OBSERVATIO":"PATURAGE, INCENDIES, PARCOURS SPORTIF","INTERVENTI":"TRAVAUX SYLVYCOLE, FORET RECREATIVE, TRAVAUX DRS"},"geometry":{"type":"Polygon","coordinates":[[[6.22048,35.63021],[6.21973,35.63001],[6.21831,35.63018],[6.21784,35.62985],[6.21746,35.62984],[6.21657,35.62939],[6.21591,35.62879],[6.21805,35.6282],[6.22017,35.62864],[6.22074,35.62858],[6.22082,35.62824],[6.22052,35.62785],[6.22026,35.62715],[6.21732,35.62561],[6.21604,35.62552],[6.21515,35.62597],[6.21531,35.62658],[6.2152,35.62732],[6.21324,35.62885],[6.21303,35.62925],[6.21218,35.62996],[6.21174,35.62991],[6.21122,35.62936],[6.21052,35.62903],[6.20954,35.62901],[6.20903,35.62886],[6.20836,35.62832],[6.20819,35.62854],[6.20778,35.6284],[6.20749,35.62878],[6.20652,35.62845],[6.20603,35.62762],[6.20585,35.6271],[6.20582,35.62645],[6.2055,35.62579],[6.20597,35.62491],[6.20602,35.62445],[6.20644,35.62425],[6.20729,35.6235],[6.20777,35.62368],[6.20808,35.62368],[6.20813,35.62345],[6.20785,35.62307],[6.20705,35.62257],[6.20591,35.6221],[6.20456,35.62074],[6.20202,35.62042],[6.20056,35.62036],[6.20042,35.62077],[6.20065,35.6216],[6.2007,35.62214],[6.19985,35.62249],[6.19821,35.62245],[6.19787,35.62282],[6.1977,35.62387],[6.19733,35.62433],[6.19662,35.62459],[6.19561,35.62438],[6.1941,35.62442],[6.19283,35.62465],[6.19216,35.62436],[6.19241,35.62331],[6.19314,35.62299],[6.19378,35.62289],[6.19381,35.62244],[6.19319,35.62221],[6.19225,35.62233],[6.19088,35.62293],[6.19047,35.62302],[6.18935,35.62302],[6.18878,35.62333],[6.18867,35.6235],[6.18782,35.62345],[6.18687,35.62367],[6.18517,35.62341],[6.18504,35.62311],[6.18505,35.62267],[6.18525,35.62243],[6.18584,35.62204],[6.18584,35.62168],[6.18548,35.62136],[6.18551,35.62087],[6.18607,35.61994],[6.18594,35.61945],[6.18597,35.618],[6.18613,35.61758],[6.18674,35.61685],[6.18681,35.61654],[6.1868,35.61634],[6.18664,35.61611],[6.18571,35.61547],[6.18538,35.61508],[6.18505,35.6144],[6.18462,35.6141],[6.18457,35.61376],[6.18475,35.6129],[6.1849,35.61265],[6.18557,35.61228],[6.18584,35.61193],[6.18513,35.61141],[6.18497,35.6108],[6.18503,35.61023],[6.18624,35.60907],[6.18845,35.60882],[6.18927,35.608],[6.18932,35.60792],[6.18846,35.60747],[6.18772,35.60669],[6.1878,35.60653],[6.1881,35.60636],[6.18842,35.60448],[6.18886,35.60382],[6.18985,35.60323],[6.19013,35.60268],[6.18983,35.60219],[6.18973,35.60159],[6.18981,35.60109],[6.19038,35.60071],[6.19081,35.60056],[6.19097,35.60034],[6.19093,35.6002],[6.19051,35.59992],[6.19075,35.59969],[6.19111,35.59959],[6.19169,35.59888],[6.19293,35.59857],[6.19358,35.59817],[6.19406,35.59768],[6.19387,35.59729],[6.19334,35.59718],[6.19301,35.59679],[6.19136,35.59598],[6.19079,35.59588],[6.19065,35.59548],[6.18982,35.59515],[6.18861,35.5952],[6.18782,35.59662],[6.18767,35.59712],[6.18703,35.59819],[6.18682,35.5981],[6.1867,35.59742],[6.18674,35.5973],[6.18695,35.59738],[6.18712,35.59721],[6.18714,35.59694],[6.18704,35.59682],[6.18689,35.59675],[6.18671,35.59712],[6.18655,35.59712],[6.18586,35.59674],[6.18298,35.5947],[6.18275,35.59504],[6.18251,35.59504],[6.18187,35.59532],[6.18171,35.5952],[6.18141,35.59441],[6.18197,35.59398],[6.18092,35.59324],[6.17407,35.58949],[6.17363,35.58935],[6.17349,35.58978],[6.17352,35.59101],[6.17307,35.59184],[6.17334,35.59286],[6.17304,35.59325],[6.17211,35.59398],[6.17147,35.59409],[6.17113,35.59395],[6.17101,35.59378],[6.17196,35.59353],[6.17248,35.5931],[6.17273,35.5925],[6.17251,35.5907],[6.17229,35.58977],[6.17213,35.58939],[6.17157,35.58919],[6.17125,35.58925],[6.17079,35.58984],[6.17081,35.5907],[6.17073,35.59093],[6.169,35.59088],[6.16873,35.59108],[6.16908,35.59167],[6.17024,35.59218],[6.17081,35.59255],[6.17081,35.59321],[6.16788,35.59204],[6.16802,35.59199],[6.16805,35.59179],[6.16761,35.59162],[6.16748,35.59175],[6.16748,35.59196],[6.1678,35.59205],[6.16731,35.59239],[6.1653,35.59112],[6.16474,35.59104],[6.1635,35.59138],[6.16288,35.59184],[6.16275,35.59158],[6.16272,35.59107],[6.16257,35.59096],[6.16097,35.59047],[6.15967,35.59071],[6.15932,35.59093],[6.15894,35.59129],[6.15832,35.59305],[6.15781,35.59313],[6.15732,35.59312],[6.15568,35.59255],[6.15343,35.59194],[6.15204,35.5918],[6.15116,35.59222],[6.14951,35.59127],[6.1489,35.58991],[6.14742,35.58978],[6.14403,35.59026],[6.15093,35.59319],[6.15162,35.59307],[6.15281,35.59307],[6.15404,35.59378],[6.15621,35.5946],[6.15689,35.59529],[6.15684,35.59556],[6.15743,35.59697],[6.159,35.59821],[6.15974,35.59925],[6.15994,35.60175],[6.15942,35.60246],[6.15804,35.60245],[6.15634,35.60188],[6.15514,35.6016],[6.15462,35.60159],[6.15373,35.60083],[6.15135,35.59965],[6.15069,35.59994],[6.14995,35.59982],[6.14944,35.59943],[6.14903,35.59818],[6.14916,35.59752],[6.14917,35.5968],[6.14871,35.5954],[6.14302,35.59205],[6.14253,35.5913],[6.14212,35.59139],[6.1407,35.59206],[6.14036,35.59238],[6.13976,35.59259],[6.13949,35.59279],[6.13922,35.59282],[6.13814,35.59365],[6.13758,35.59349],[6.13597,35.59235],[6.13498,35.59214],[6.13327,35.59273],[6.13223,35.59342],[6.1316,35.59372],[6.13072,35.59361],[6.13011,35.59342],[6.12987,35.59305],[6.1302,35.59247],[6.13011,35.59187],[6.12923,35.59209],[6.12875,35.59209],[6.12856,35.59113],[6.12822,35.59067],[6.12748,35.59079],[6.12697,35.59072],[6.12428,35.59107],[6.1236,35.59105],[6.12285,35.59054],[6.12232,35.59004],[6.12186,35.58999],[6.12138,35.59012],[6.12094,35.59052],[6.11974,35.59101],[6.1181,35.59127],[6.11798,35.59112],[6.11829,35.59082],[6.11898,35.59046],[6.11962,35.59036],[6.12086,35.58957],[6.12119,35.58968],[6.12156,35.58935],[6.12182,35.58937],[6.1219,35.58953],[6.12221,35.58961],[6.12298,35.58959],[6.12323,35.5895],[6.12329,35.58904],[6.12345,35.58892],[6.12446,35.58899],[6.12477,35.58863],[6.12501,35.58849],[6.12522,35.58839],[6.12555,35.58841],[6.12557,35.58789],[6.12578,35.58781],[6.12623,35.5878],[6.12646,35.58762],[6.12712,35.5875],[6.12873,35.58751],[6.12886,35.58736],[6.12928,35.58726],[6.12947,35.58735],[6.13006,35.58736],[6.13096,35.58721],[6.13205,35.58565],[6.13225,35.58492],[6.1327,35.58459],[6.13369,35.5842],[6.13493,35.58433],[6.13506,35.58455],[6.13582,35.58497],[6.13598,35.58524],[6.13593,35.58625],[6.13608,35.58673],[6.13635,35.587],[6.13657,35.58698],[6.13698,35.58713],[6.13726,35.58716],[6.13736,35.58704],[6.13766,35.58703],[6.13786,35.58726],[6.13801,35.58826],[6.13814,35.58837],[6.13832,35.58833],[6.13842,35.58816],[6.13856,35.58823],[6.13881,35.58768],[6.13903,35.58751],[6.13911,35.58709],[6.13951,35.58694],[6.14003,35.58701],[6.14102,35.5867],[6.14191,35.58687],[6.14291,35.58675],[6.14316,35.58717],[6.14343,35.58713],[6.14349,35.5869],[6.14516,35.58698],[6.14558,35.58664],[6.1461,35.58653],[6.14637,35.58655],[6.1465,35.58671],[6.14647,35.58708],[6.14616,35.58761],[6.14611,35.58786],[6.14601,35.5879],[6.14604,35.58809],[6.14633,35.58829],[6.14724,35.58803],[6.14801,35.58793],[6.14845,35.58765],[6.14956,35.58733],[6.15072,35.58675],[6.15139,35.58623],[6.15246,35.58606],[6.15329,35.58606],[6.15421,35.58584],[6.15374,35.58605],[6.15371,35.58629],[6.15348,35.58658],[6.15349,35.5868],[6.15333,35.58699],[6.15356,35.5871],[6.15368,35.58702],[6.15365,35.58679],[6.15456,35.58655],[6.15492,35.58634],[6.15525,35.58575],[6.15461,35.58569],[6.15632,35.58559],[6.15713,35.58543],[6.15864,35.58539],[6.16273,35.58564],[6.16361,35.58574],[6.16395,35.58595],[6.16433,35.58467],[6.16486,35.58383],[6.16525,35.58363],[6.16566,35.58325],[6.16626,35.58302],[6.16662,35.58294],[6.16742,35.58313],[6.16733,35.58294],[6.16744,35.58294],[6.16824,35.58305],[6.16971,35.5837],[6.16972,35.58387],[6.16994,35.58387],[6.17043,35.5841],[6.17055,35.58403],[6.1714,35.58425],[6.17216,35.58467],[6.17275,35.58488],[6.17284,35.58493],[6.17277,35.58509],[6.17326,35.58535],[6.17391,35.58558],[6.17604,35.58597],[6.17707,35.5865],[6.17809,35.58665],[6.17956,35.58705],[6.18149,35.58732],[6.18148,35.58745],[6.18241,35.58778],[6.18226,35.58755],[6.18243,35.58732],[6.18364,35.58743],[6.18489,35.58809],[6.18462,35.5888],[6.18511,35.58912],[6.18549,35.58911],[6.18582,35.58877],[6.18614,35.5886],[6.18796,35.58927],[6.18808,35.58973],[6.18944,35.58992],[6.18967,35.59009],[6.19083,35.59052],[6.19309,35.5909],[6.19425,35.59026],[6.19546,35.59024],[6.19633,35.59044],[6.19665,35.59016],[6.19752,35.59008],[6.19928,35.5905],[6.19941,35.59082],[6.19921,35.59124],[6.19925,35.59164],[6.20008,35.5916],[6.20076,35.59178],[6.20152,35.59215],[6.20243,35.59312],[6.20246,35.59344],[6.20461,35.59384],[6.20498,35.59374],[6.2049,35.59352],[6.20559,35.5935],[6.20628,35.59368],[6.20606,35.59386],[6.20609,35.59406],[6.20638,35.59426],[6.20766,35.59447],[6.20811,35.59497],[6.20838,35.59509],[6.20931,35.59502],[6.20944,35.59517],[6.20909,35.59549],[6.20913,35.59562],[6.21027,35.5956],[6.21089,35.59515],[6.21106,35.59533],[6.21123,35.59657],[6.21153,35.59661],[6.21223,35.59715],[6.21241,35.59759],[6.21163,35.5983],[6.21093,35.5991],[6.20991,35.59937],[6.20932,35.59938],[6.20869,35.60017],[6.20845,35.60027],[6.20616,35.60026],[6.20559,35.60052],[6.20523,35.60088],[6.20507,35.60092],[6.20408,35.60085],[6.2042,35.60087],[6.20362,35.60117],[6.20335,35.6012],[6.20285,35.60102],[6.20262,35.60113],[6.20195,35.6022],[6.20055,35.60321],[6.20006,35.6034],[6.19965,35.60327],[6.19916,35.60351],[6.19626,35.60538],[6.19642,35.60557],[6.19677,35.60547],[6.1972,35.60572],[6.19742,35.60568],[6.19798,35.60506],[6.19909,35.60457],[6.19935,35.60451],[6.19978,35.60471],[6.20126,35.60461],[6.2015,35.60451],[6.20194,35.60411],[6.20232,35.60338],[6.20313,35.60311],[6.20333,35.60317],[6.20394,35.60375],[6.20427,35.60364],[6.20746,35.60537],[6.20782,35.60642],[6.20724,35.60769],[6.20694,35.60803],[6.20698,35.60827],[6.20791,35.60945],[6.21126,35.61108],[6.21286,35.6114],[6.21346,35.61142],[6.21449,35.61119],[6.21505,35.61089],[6.21588,35.61079],[6.2171,35.6104],[6.21875,35.61117],[6.22012,35.61158],[6.22171,35.61225],[6.22158,35.61296],[6.22146,35.613],[6.22133,35.61331],[6.22153,35.61348],[6.22287,35.61309],[6.22367,35.61379],[6.22354,35.61404],[6.2233,35.61415],[6.22266,35.61409],[6.2228,35.6146],[6.22211,35.61495],[6.2221,35.61516],[6.2227,35.61535],[6.22352,35.61465],[6.22375,35.61461],[6.22441,35.61465],[6.2248,35.61488],[6.22511,35.61526],[6.22534,35.61564],[6.22525,35.61582],[6.22501,35.61595],[6.22435,35.61585],[6.2241,35.61594],[6.22398,35.6163],[6.22358,35.61651],[6.22358,35.61696],[6.22414,35.61735],[6.22445,35.61785],[6.22426,35.61816],[6.22404,35.6183],[6.22396,35.61858],[6.22403,35.61874],[6.22492,35.61888],[6.22536,35.61912],[6.22575,35.61958],[6.22574,35.6199],[6.22533,35.62026],[6.22497,35.62035],[6.22402,35.61994],[6.22355,35.61985],[6.22333,35.61962],[6.22261,35.61927],[6.22182,35.62001],[6.22154,35.62054],[6.21962,35.62166],[6.2192,35.62201],[6.21847,35.62232],[6.21757,35.62249],[6.21716,35.62248],[6.2167,35.62231],[6.21669,35.62211],[6.21685,35.62188],[6.21853,35.62089],[6.21883,35.62063],[6.21904,35.62026],[6.21881,35.62011],[6.21848,35.62006],[6.21841,35.61987],[6.21827,35.6198],[6.2176,35.6197],[6.21723,35.61953],[6.21711,35.61873],[6.21699,35.61855],[6.21684,35.61851],[6.21658,35.61861],[6.21601,35.61934],[6.21578,35.62047],[6.21583,35.62102],[6.21552,35.62147],[6.21376,35.62091],[6.21213,35.6202],[6.21116,35.61951],[6.2111,35.61874],[6.21305,35.61812],[6.21374,35.61759],[6.21358,35.61733],[6.21326,35.61713],[6.21306,35.61686],[6.21279,35.61674],[6.21267,35.61649],[6.21178,35.61598],[6.21103,35.61571],[6.2105,35.61556],[6.20986,35.61557],[6.20893,35.61578],[6.20816,35.61611],[6.20776,35.61749],[6.20733,35.61709],[6.2071,35.61672],[6.20707,35.6163],[6.20682,35.61602],[6.20467,35.6168],[6.20372,35.61697],[6.20347,35.61683],[6.20403,35.61594],[6.20533,35.61525],[6.20562,35.61496],[6.20542,35.61449],[6.20505,35.61442],[6.20452,35.61452],[6.20299,35.61524],[6.20282,35.61512],[6.20281,35.61469],[6.20255,35.61476],[6.20137,35.61566],[6.20127,35.61565],[6.20085,35.61495],[6.20099,35.61455],[6.20084,35.6143],[6.20061,35.61427],[6.19998,35.61462],[6.19798,35.61477],[6.1969,35.61527],[6.19512,35.61471],[6.19454,35.61434],[6.19367,35.61396],[6.19246,35.61424],[6.19193,35.61425],[6.19152,35.61458],[6.19221,35.615],[6.19593,35.61588],[6.197,35.61581],[6.19817,35.61587],[6.20016,35.61627],[6.20148,35.61697],[6.20308,35.61734],[6.20591,35.61892],[6.20747,35.61939],[6.20878,35.61952],[6.21039,35.61997],[6.21193,35.62115],[6.21452,35.62216],[6.21638,35.62268],[6.21917,35.62329],[6.2204,35.62299],[6.22141,35.6222],[6.22368,35.6221],[6.22416,35.6222],[6.22453,35.6225],[6.22429,35.62309],[6.22393,35.62341],[6.22381,35.62379],[6.22321,35.62407],[6.22271,35.62393],[6.22232,35.62395],[6.22211,35.62408],[6.22178,35.6246],[6.22007,35.62543],[6.21874,35.62539],[6.21864,35.62563],[6.21872,35.62588],[6.21919,35.62632],[6.22054,35.62652],[6.22103,35.62674],[6.22268,35.62685],[6.22335,35.62713],[6.22364,35.62808],[6.22367,35.62967],[6.22276,35.62972],[6.22222,35.62964],[6.22048,35.63021]],[[6.19499,35.62073],[6.19475,35.62085],[6.19456,35.62137],[6.19527,35.62121],[6.19538,35.62081],[6.19499,35.62073]],[[6.21793,35.61259],[6.21801,35.6129],[6.2183,35.61287],[6.21819,35.61262],[6.21793,35.61259]],[[6.18795,35.61324],[6.18833,35.61325],[6.1884,35.61296],[6.18829,35.61286],[6.18794,35.61297],[6.18803,35.6131],[6.18795,35.61324]],[[6.19017,35.6125],[6.19076,35.61243],[6.19088,35.61215],[6.19068,35.61182],[6.19047,35.61186],[6.19013,35.6124],[6.19017,35.6125]],[[6.21726,35.61156],[6.21714,35.6117],[6.21721,35.61174],[6.21739,35.61157],[6.2176,35.61156],[6.21786,35.61122],[6.21749,35.61101],[6.21704,35.61139],[6.21726,35.61156]],[[6.19269,35.61205],[6.19336,35.61174],[6.19346,35.61139],[6.19388,35.61124],[6.1941,35.61093],[6.19406,35.6108],[6.19353,35.61074],[6.19311,35.61123],[6.19224,35.61157],[6.1919,35.61183],[6.19209,35.61196],[6.19269,35.61205]],[[6.19483,35.6109],[6.1951,35.61075],[6.195,35.61047],[6.19487,35.61037],[6.19445,35.61049],[6.19465,35.61087],[6.19483,35.6109]],[[6.1929,35.61074],[6.19328,35.61032],[6.1939,35.60998],[6.19389,35.60983],[6.19299,35.60984],[6.19247,35.61027],[6.1923,35.61052],[6.1924,35.61104],[6.1921,35.61148],[6.19275,35.61125],[6.1929,35.61074]],[[6.20705,35.60947],[6.20731,35.60942],[6.20753,35.60916],[6.20732,35.60894],[6.20693,35.6088],[6.2067,35.60902],[6.20705,35.60947]],[[6.19404,35.60761],[6.19397,35.60789],[6.19399,35.60802],[6.19408,35.60802],[6.19437,35.60776],[6.19449,35.60753],[6.19447,35.60727],[6.19429,35.60723],[6.19404,35.60761]],[[6.19527,35.60642],[6.1951,35.60655],[6.1951,35.60683],[6.19674,35.60625],[6.19637,35.60603],[6.19589,35.6064],[6.19527,35.60642]],[[6.19609,35.59133],[6.19594,35.59143],[6.196,35.59159],[6.1964,35.59163],[6.19652,35.59152],[6.19654,35.59143],[6.19641,35.59133],[6.19609,35.59133]],[[6.17034,35.58961],[6.1703,35.58937],[6.1702,35.58929],[6.16995,35.58938],[6.17009,35.58961],[6.17034,35.58961]],[[6.16772,35.59026],[6.16791,35.58993],[6.16784,35.58979],[6.16734,35.58987],[6.16739,35.59008],[6.16772,35.59026]],[[6.15086,35.59091],[6.15119,35.5904],[6.15072,35.59052],[6.15061,35.59076],[6.15086,35.59091]],[[6.15785,35.59142],[6.15809,35.59127],[6.15806,35.59101],[6.15796,35.59096],[6.15763,35.59118],[6.15771,35.59137],[6.15785,35.59142]],[[6.13825,35.59141],[6.13821,35.59118],[6.13811,35.59118],[6.13787,35.59133],[6.13774,35.59157],[6.13789,35.59147],[6.13802,35.59159],[6.13825,35.59141]],[[6.13607,35.59181],[6.13579,35.5915],[6.13576,35.59163],[6.13558,35.59174],[6.13591,35.592],[6.13607,35.59181]],[[6.15109,35.58871],[6.15142,35.58877],[6.15132,35.58859],[6.15115,35.58854],[6.15123,35.58833],[6.15143,35.58845],[6.15156,35.58869],[6.15174,35.58858],[6.15171,35.58833],[6.15146,35.5882],[6.15172,35.58806],[6.15162,35.58792],[6.15147,35.58789],[6.15076,35.5885],[6.15069,35.58866],[6.15078,35.5887],[6.15101,35.58858],[6.15109,35.58871]],[[6.16384,35.58757],[6.16407,35.58757],[6.16414,35.58745],[6.16396,35.58714],[6.16373,35.58724],[6.16384,35.58757]],[[6.14546,35.58841],[6.14544,35.5883],[6.14574,35.58823],[6.14599,35.58796],[6.14569,35.58777],[6.14554,35.58753],[6.14525,35.58759],[6.14533,35.58774],[6.14522,35.58793],[6.1454,35.58806],[6.14522,35.58832],[6.14523,35.58853],[6.14546,35.58841]],[[6.14444,35.58756],[6.14461,35.58747],[6.14456,35.58726],[6.1442,35.5873],[6.14438,35.58745],[6.144,35.58757],[6.14402,35.58718],[6.14382,35.58706],[6.14362,35.58713],[6.14357,35.58735],[6.1438,35.58737],[6.14386,35.58749],[6.14358,35.58812],[6.14375,35.58819],[6.14419,35.58776],[6.14447,35.58774],[6.14444,35.58756]],[[6.14029,35.58726],[6.14031,35.58703],[6.14025,35.58695],[6.14014,35.58715],[6.14029,35.58726]],[[6.13241,35.58888],[6.13228,35.58867],[6.13203,35.58876],[6.13225,35.58879],[6.13221,35.58887],[6.13231,35.58896],[6.13241,35.58888]],[[6.13166,35.58774],[6.13201,35.58786],[6.13227,35.58757],[6.13215,35.58742],[6.13179,35.58729],[6.13171,35.58739],[6.13181,35.58753],[6.13166,35.58774]],[[6.16657,35.58621],[6.1667,35.58611],[6.16662,35.58587],[6.16648,35.58583],[6.16629,35.58617],[6.16657,35.58621]],[[6.16661,35.58476],[6.16644,35.58499],[6.16659,35.58524],[6.16685,35.585],[6.16683,35.58483],[6.16676,35.5848],[6.16668,35.58491],[6.1667,35.58477],[6.16661,35.58476]],[[6.16586,35.58369],[6.16622,35.58381],[6.1664,35.58375],[6.16625,35.58328],[6.16684,35.58333],[6.16696,35.58325],[6.16621,35.58305],[6.16608,35.58334],[6.16622,35.58341],[6.16618,35.58352],[6.16586,35.58369]],[[6.19862,35.60501],[6.198,35.60507],[6.19786,35.60528],[6.19788,35.60551],[6.19833,35.60537],[6.19918,35.60485],[6.19909,35.60477],[6.19862,35.60501]],[[6.22061,35.6142],[6.22019,35.61406],[6.22025,35.61423],[6.21999,35.61447],[6.22035,35.61462],[6.22066,35.61432],[6.22061,35.6142]]]}},{"type":"Feature","properties":{"Name":"Pin","OCCUPATION":"PINEDE, CYPRES","ETAT":"DEGRADEE","OBSERVATIO":"RESEAU ELECTRIQUE, PATURAGE, BRACONAGE","INTERVENTI":"TRAVAUX SYLVICOLE"},"geometry":{"type":"Polygon","coordinates":[[[6.27679,35.69087],[6.27596,35.69233],[6.27537,35.69231],[6.27509,35.69203],[6.27509,35.69169],[6.2748,35.69142],[6.27366,35.69127],[6.27297,35.6907],[6.27283,35.69081],[6.27275,35.69108],[6.27229,35.69125],[6.272,35.69148],[6.27128,35.69116],[6.27121,35.6907],[6.27093,35.69013],[6.27068,35.68991],[6.27027,35.69065],[6.27002,35.6908],[6.269,35.69008],[6.26809,35.68923],[6.26775,35.68873],[6.26687,35.68799],[6.26654,35.68755],[6.26641,35.68713],[6.26612,35.68679],[6.2658,35.68578],[6.26533,35.68487],[6.26488,35.68481],[6.26263,35.6817],[6.26245,35.68071],[6.262,35.67965],[6.26204,35.67838],[6.26186,35.67773],[6.2615,35.67815],[6.26129,35.67824],[6.26104,35.67823],[6.26049,35.67794],[6.25994,35.67807],[6.2597,35.67782],[6.2596,35.67669],[6.25933,35.67638],[6.25854,35.67621],[6.25809,35.67575],[6.25805,35.67502],[6.25691,35.67493],[6.25588,35.67421],[6.25556,35.67383],[6.25566,35.67347],[6.2561,35.67301],[6.25609,35.67267],[6.25578,35.67222],[6.25531,35.67203],[6.25371,35.67236],[6.25283,35.67209],[6.2521,35.67201],[6.25203,35.67079],[6.25215,35.67034],[6.25226,35.67008],[6.25329,35.66911],[6.25271,35.66864],[6.25119,35.66785],[6.24956,35.66665],[6.2484,35.66476],[6.24848,35.66453],[6.24879,35.66452],[6.24945,35.66407],[6.24875,35.66315],[6.24706,35.6626],[6.24693,35.66239],[6.24697,35.66209],[6.24742,35.66132],[6.24879,35.66115],[6.24916,35.66099],[6.25221,35.66072],[6.25293,35.66015],[6.25245,35.65835],[6.25266,35.65825],[6.25374,35.65885],[6.2566,35.65897],[6.25797,35.65971],[6.25899,35.66084],[6.26067,35.66149],[6.26204,35.66178],[6.2624,35.66159],[6.26175,35.65907],[6.26204,35.65871],[6.26237,35.65851],[6.2631,35.65868],[6.26343,35.65912],[6.2635,35.65965],[6.26389,35.6606],[6.26395,35.66169],[6.26514,35.66244],[6.26606,35.66281],[6.26684,35.66291],[6.26795,35.66258],[6.26845,35.66318],[6.26932,35.66366],[6.27022,35.66461],[6.27102,35.66606],[6.27153,35.66602],[6.27218,35.66662],[6.27272,35.66661],[6.27308,35.66687],[6.27357,35.66753],[6.27373,35.66789],[6.27363,35.66889],[6.27294,35.66927],[6.27249,35.66913],[6.27208,35.6687],[6.2714,35.66855],[6.27106,35.66754],[6.27068,35.66725],[6.27049,35.66721],[6.27031,35.66736],[6.27028,35.66769],[6.27094,35.66826],[6.27111,35.66876],[6.27219,35.66934],[6.27228,35.66967],[6.27253,35.66986],[6.27263,35.67022],[6.27345,35.67051],[6.27341,35.67062],[6.27468,35.67151],[6.27485,35.67199],[6.27518,35.67203],[6.2757,35.67192],[6.27578,35.67202],[6.27538,35.67241],[6.27528,35.67287],[6.27465,35.67383],[6.27415,35.67549],[6.27424,35.67564],[6.27589,35.67497],[6.27743,35.67612],[6.27873,35.67617],[6.27924,35.67635],[6.27929,35.67651],[6.27881,35.67715],[6.27911,35.67743],[6.27973,35.67677],[6.28024,35.67672],[6.28082,35.67699],[6.28087,35.67764],[6.28137,35.67805],[6.28151,35.6786],[6.28174,35.67831],[6.28141,35.67705],[6.28153,35.6768],[6.28172,35.67667],[6.28157,35.6761],[6.28166,35.67589],[6.28166,35.67548],[6.28194,35.67488],[6.28241,35.67447],[6.28338,35.67454],[6.28302,35.67402],[6.28339,35.6737],[6.28474,35.67294],[6.28541,35.67269],[6.28573,35.67207],[6.28631,35.67232],[6.28672,35.67396],[6.28719,35.67478],[6.28701,35.67524],[6.28804,35.67624],[6.2886,35.67663],[6.28874,35.67721],[6.28917,35.67783],[6.28993,35.67854],[6.29077,35.67894],[6.29163,35.67906],[6.29206,35.67892],[6.29236,35.67922],[6.29179,35.67963],[6.29156,35.67993],[6.29147,35.68037],[6.29251,35.68166],[6.29361,35.68153],[6.29458,35.68126],[6.29554,35.68166],[6.29697,35.6816],[6.29764,35.68171],[6.2977,35.68182],[6.29685,35.68216],[6.2963,35.68253],[6.29502,35.68385],[6.29437,35.68479],[6.29346,35.68527],[6.29255,35.68544],[6.29129,35.68524],[6.29112,35.68537],[6.28738,35.68475],[6.28495,35.68491],[6.28434,35.68513],[6.28406,35.68557],[6.28392,35.6875],[6.28171,35.68844],[6.28113,35.6891],[6.28078,35.68918],[6.28074,35.6903],[6.2806,35.69054],[6.27929,35.69117],[6.27865,35.69024],[6.27673,35.68824],[6.27576,35.68752],[6.2754,35.68755],[6.27478,35.68779],[6.27434,35.68836],[6.27443,35.6886],[6.27556,35.68903],[6.27631,35.6891],[6.27648,35.6894],[6.27637,35.69017],[6.27664,35.69037],[6.27679,35.69087]],[[6.27489,35.68703],[6.27449,35.68733],[6.27462,35.6875],[6.27486,35.68755],[6.27511,35.68746],[6.27522,35.68725],[6.27489,35.68703]],[[6.26928,35.68497],[6.26906,35.68522],[6.26913,35.68548],[6.26943,35.68541],[6.26958,35.68518],[6.26954,35.68505],[6.26928,35.68497]],[[6.27167,35.6841],[6.2714,35.68429],[6.27146,35.6846],[6.2718,35.68435],[6.2718,35.6842],[6.27167,35.6841]],[[6.27708,35.68397],[6.27801,35.68392],[6.27849,35.68349],[6.27851,35.68338],[6.27796,35.68279],[6.2776,35.68274],[6.27749,35.68262],[6.27728,35.68263],[6.2772,35.68276],[6.27699,35.68267],[6.27709,35.68289],[6.27669,35.6833],[6.27685,35.6833],[6.27681,35.6835],[6.27707,35.68372],[6.27708,35.68397]],[[6.28402,35.68316],[6.28423,35.68312],[6.2844,35.68262],[6.28538,35.68306],[6.28529,35.68289],[6.28484,35.68275],[6.28476,35.68259],[6.28491,35.68232],[6.28551,35.68187],[6.28538,35.68174],[6.28528,35.68178],[6.28498,35.68165],[6.28469,35.68137],[6.28447,35.6814],[6.28425,35.68103],[6.2835,35.68092],[6.28318,35.68133],[6.28325,35.68163],[6.28341,35.68182],[6.28339,35.68217],[6.28297,35.68191],[6.28267,35.68186],[6.28247,35.68151],[6.28242,35.68231],[6.28248,35.68246],[6.28272,35.68248],[6.28274,35.68255],[6.28238,35.6828],[6.28332,35.68281],[6.28402,35.68316]],[[6.28673,35.68067],[6.28734,35.68088],[6.2879,35.68065],[6.288,35.68034],[6.28764,35.68013],[6.287,35.68031],[6.2868,35.68047],[6.28673,35.68067]],[[6.27663,35.6805],[6.27671,35.68042],[6.27668,35.68024],[6.27646,35.67988],[6.27602,35.68014],[6.27609,35.68025],[6.27663,35.6805]],[[6.27079,35.68193],[6.27099,35.68164],[6.27086,35.68146],[6.27056,35.68164],[6.27079,35.68193]],[[6.27017,35.68193],[6.26988,35.68171],[6.2697,35.68176],[6.26969,35.68225],[6.27,35.68253],[6.27016,35.68244],[6.27017,35.68193]],[[6.26678,35.67607],[6.26651,35.67623],[6.26683,35.67645],[6.2671,35.67652],[6.26726,35.67622],[6.267,35.67601],[6.26694,35.67568],[6.26746,35.67573],[6.26774,35.67565],[6.26711,35.67534],[6.26673,35.6753],[6.26662,35.67542],[6.26677,35.67574],[6.26678,35.67607]],[[6.25808,35.67346],[6.25809,35.67335],[6.25749,35.6728],[6.25707,35.67283],[6.25716,35.673],[6.25808,35.67346]],[[6.26499,35.67257],[6.26501,35.67276],[6.26521,35.67292],[6.26605,35.67266],[6.26526,35.67249],[6.26499,35.67257]],[[6.26522,35.66805],[6.26518,35.66816],[6.26564,35.66854],[6.26561,35.66894],[6.26583,35.66896],[6.26591,35.66889],[6.2658,35.66873],[6.26584,35.66845],[6.26566,35.66837],[6.26561,35.66791],[6.2654,35.66784],[6.26549,35.66776],[6.26559,35.66787],[6.26571,35.66782],[6.26562,35.66759],[6.26529,35.66768],[6.26458,35.66718],[6.2645,35.66704],[6.26436,35.66706],[6.26431,35.66713],[6.26455,35.66731],[6.26479,35.66781],[6.26501,35.668],[6.26528,35.66788],[6.26546,35.66805],[6.26522,35.66805]],[[6.26275,35.66579],[6.26328,35.66614],[6.26352,35.66612],[6.26343,35.6655],[6.26321,35.66529],[6.26326,35.66508],[6.26315,35.66508],[6.26309,35.66534],[6.26302,35.66518],[6.26285,35.66525],[6.26244,35.66515],[6.26242,35.66536],[6.26263,35.66546],[6.26275,35.66579]],[[6.25857,35.66391],[6.25872,35.66437],[6.25918,35.66462],[6.2591,35.66431],[6.2587,35.66393],[6.25857,35.66391]],[[6.25756,35.66245],[6.25794,35.66275],[6.2584,35.66283],[6.25796,35.6624],[6.25756,35.66245]]]}},{"type":"Feature","properties":{"Name":"Reboisement Pinede","OCCUPATION":"PINEDE","ETAT":"MOYEN","OBSERVATIO":"PATURAGE, AIRE DE DETENTE","INTERVENTI":"TRAVAUX SYLVYCOLE"},"geometry":{"type":"Polygon","coordinates":[[[6.12073,35.562],[6.12011,35.56229],[6.12086,35.5627],[6.11953,35.56357],[6.1193,35.56401],[6.12151,35.565],[6.12188,35.56532],[6.12185,35.56618],[6.12093,35.56653],[6.1206,35.56526],[6.11992,35.56508],[6.11875,35.56457],[6.11806,35.56443],[6.11763,35.56337],[6.11575,35.56205],[6.11479,35.56155],[6.11388,35.56133],[6.11296,35.56083],[6.11187,35.56101],[6.11282,35.56137],[6.11286,35.56181],[6.11076,35.5627],[6.10882,35.562],[6.10687,35.56102],[6.10274,35.55841],[6.1008,35.55792],[6.0992,35.55713],[6.09798,35.55667],[6.09787,35.55616],[6.09927,35.55658],[6.10005,35.55659],[6.10023,35.55636],[6.10001,35.55615],[6.09818,35.55547],[6.09748,35.55534],[6.09526,35.55435],[6.0921,35.55368],[6.09056,35.55243],[6.08873,35.5518],[6.08778,35.55177],[6.08718,35.55195],[6.08592,35.5516],[6.08533,35.55125],[6.08323,35.55085],[6.08247,35.55041],[6.08215,35.54964],[6.08241,35.54935],[6.08436,35.54872],[6.08659,35.54755],[6.08734,35.5476],[6.0874,35.5477],[6.08922,35.54856],[6.09172,35.54956],[6.09185,35.54952],[6.09132,35.54918],[6.09146,35.54911],[6.08975,35.54792],[6.09058,35.54778],[6.09222,35.54829],[6.09638,35.54896],[6.09775,35.54935],[6.10254,35.55106],[6.10593,35.55182],[6.10703,35.55247],[6.10777,35.55264],[6.10888,35.55309],[6.10995,35.55318],[6.11033,35.55331],[6.11229,35.55419],[6.11293,35.55478],[6.11354,35.55495],[6.11607,35.55611],[6.1173,35.55633],[6.11855,35.55637],[6.11988,35.55717],[6.12013,35.55777],[6.12057,35.55786],[6.12118,35.55842],[6.12447,35.55985],[6.1245,35.56017],[6.12435,35.56034],[6.12336,35.56087],[6.12265,35.56106],[6.12128,35.56126],[6.12039,35.56095],[6.12087,35.56171],[6.12073,35.562]],[[6.11674,35.56159],[6.11703,35.56175],[6.11698,35.56197],[6.11723,35.56199],[6.11753,35.56159],[6.11725,35.56132],[6.1172,35.56148],[6.11699,35.56118],[6.11674,35.56159]],[[6.10346,35.55543],[6.10327,35.55551],[6.10331,35.55571],[6.10312,35.55596],[6.10304,35.55628],[6.1034,35.55642],[6.10371,35.55636],[6.10375,35.55611],[6.10399,35.55582],[6.1039,35.55576],[6.10391,35.55558],[6.10403,35.55544],[6.10369,35.55528],[6.10352,35.55528],[6.10346,35.55543]]]}},{"type":"Feature","properties":{"Name":"Pin","OCCUPATION":"PINEDE","ETAT":"BON","OBSERVATIO":"PATURAGE, BRACONAGE","INTERVENTI":"AUCUNE"},"geometry":{"type":"Polygon","coordinates":[[[6.23962,35.6433],[6.23762,35.64316],[6.23639,35.64317],[6.2353,35.64293],[6.2339,35.64284],[6.23322,35.64302],[6.23124,35.64257],[6.23027,35.64253],[6.22874,35.64268],[6.22834,35.64251],[6.22808,35.64217],[6.22723,35.64166],[6.22635,35.64213],[6.22553,35.64231],[6.22517,35.64214],[6.22453,35.64123],[6.22391,35.64095],[6.22374,35.64072],[6.22284,35.64058],[6.22228,35.64027],[6.22318,35.63861],[6.2238,35.63809],[6.22393,35.63774],[6.22439,35.63715],[6.22554,35.63616],[6.22549,35.63589],[6.22523,35.63574],[6.22497,35.6354],[6.2243,35.63506],[6.22411,35.63448],[6.22448,35.63415],[6.22803,35.63517],[6.22896,35.63485],[6.23079,35.63692],[6.23145,35.63738],[6.23498,35.63885],[6.23602,35.63907],[6.23737,35.63958],[6.23906,35.64094],[6.24037,35.64235],[6.23962,35.6433]]]}},{"type":"Feature","properties":{"Name":"Pinède10 hectare","OCCUPATION":"PINEDE","ETAT":"BON","OBSERVATIO":"ENRISINEMENT","INTERVENTI":"TRAVAUX SYLVYCOLE CEDRE"},"geometry":{"type":"Polygon","coordinates":[[[6.08966,35.58578],[6.08913,35.58561],[6.08877,35.58573],[6.08857,35.5857],[6.08804,35.58529],[6.08743,35.58514],[6.08686,35.58465],[6.08601,35.58425],[6.08595,35.58417],[6.08604,35.58376],[6.08713,35.58377],[6.0878,35.58352],[6.08881,35.5836],[6.08953,35.58319],[6.09091,35.58303],[6.09124,35.58303],[6.09162,35.58324],[6.09183,35.58395],[6.09225,35.58398],[6.09217,35.5844],[6.09189,35.58468],[6.0916,35.58474],[6.09131,35.58512],[6.09087,35.58535],[6.09074,35.5857],[6.09001,35.58568],[6.08966,35.58578]]]}},{"type":"Feature","properties":{"Name":"Pinède","OCCUPATION":"PINEDE","ETAT":"BON","OBSERVATIO":"ENRISINEMENT, INCENDIE","INTERVENTI":"AUCUNE"},"geometry":{"type":"Polygon","coordinates":[[[6.23936,35.63659],[6.23846,35.63686],[6.2381,35.63681],[6.23724,35.63619],[6.23662,35.63539],[6.23617,35.63507],[6.23586,35.63504],[6.23519,35.63536],[6.23479,35.63528],[6.2346,35.63478],[6.23457,35.63419],[6.23437,35.63384],[6.23405,35.63251],[6.2337,35.63188],[6.23357,35.63021],[6.23349,35.62994],[6.2332,35.62965],[6.23325,35.62928],[6.23356,35.62919],[6.23472,35.63008],[6.23576,35.63072],[6.23587,35.63091],[6.2359,35.63148],[6.23655,35.632],[6.237,35.63251],[6.23703,35.63262],[6.23682,35.63296],[6.23678,35.63335],[6.23714,35.63441],[6.23789,35.63516],[6.23864,35.63549],[6.23898,35.63532],[6.23927,35.6342],[6.23921,35.63335],[6.23962,35.63291],[6.24026,35.63279],[6.24076,35.63306],[6.241,35.63382],[6.24096,35.6345],[6.24123,35.63523],[6.24105,35.63545],[6.23948,35.63558],[6.23961,35.63633],[6.23936,35.63659]],[[6.23439,35.63071],[6.23484,35.63088],[6.23478,35.6305],[6.23463,35.63054],[6.23457,35.63043],[6.23442,35.63052],[6.23448,35.63067],[6.23439,35.63071]]]}},{"type":"Feature","properties":{"Name":"Pin reboisement oued el ma","OCCUPATION":"PINEDE","ETAT":"MOYEN","OBSERVATIO":"PATURAGE","INTERVENTI":"AUCUNE"},"geometry":{"type":"Polygon","coordinates":[[[6.01249,35.62688],[6.00986,35.62687],[6.00719,35.62662],[6.00635,35.62649],[6.00626,35.62634],[6.00569,35.62613],[6.00397,35.62602],[6.00387,35.62593],[6.00568,35.62554],[6.00664,35.62549],[6.00771,35.62559],[6.0083,35.62597],[6.00867,35.62609],[6.00971,35.62593],[6.01036,35.62606],[6.01055,35.62597],[6.01078,35.62555],[6.01199,35.62545],[6.0132,35.62567],[6.01382,35.62627],[6.01383,35.62639],[6.01361,35.62658],[6.01249,35.62688]]]}},{"type":"Feature","properties":{"Name":"Pin","OCCUPATION":"PINEDE","ETAT":"BON","OBSERVATIO":"ENRISINEMENT","INTERVENTI":"TRAVAUX SYLVYCOLE CEDRE"},"geometry":{"type":"Polygon","coordinates":[[[6.08803,35.59176],[6.08837,35.59191],[6.08872,35.59232],[6.08876,35.59249],[6.08846,35.59255],[6.08785,35.59227],[6.08713,35.59215],[6.08703,35.59193],[6.08754,35.59178],[6.08803,35.59176]]]}},{"type":"Feature","properties":{"Name":"Pin","OCCUPATION":"PINEDE","ETAT":"BON","OBSERVATIO":"ENRISINEMENT","INTERVENTI":"TRAVAUX SYLVYCOLE CEDRE"},"geometry":{"type":"Polygon","coordinates":[[[6.09232,35.58957],[6.09153,35.58972],[6.09186,35.58933],[6.09193,35.58894],[6.09181,35.58855],[6.09138,35.5882],[6.09138,35.588],[6.09173,35.58792],[6.09218,35.58798],[6.09322,35.58914],[6.09324,35.58943],[6.09305,35.58964],[6.09232,35.58957]]]}},{"type":"Feature","properties":{"Name":"Reboisement","OCCUPATION":"PINEDE","ETAT":"MOYEN","OBSERVATIO":"PARASITE, EROSION","INTERVENTI":"AUCUNE"},"geometry":{"type":"Polygon","coordinates":[[[6.06773,35.53994],[6.06908,35.54092],[6.0702,35.54152],[6.07078,35.54226],[6.07143,35.54287],[6.07183,35.54348],[6.07006,35.5423],[6.06885,35.54128],[6.06805,35.54084],[6.06728,35.54026],[6.06734,35.54013],[6.06773,35.53994]]]}},{"type":"Feature","properties":{"Name":"Pinède","OCCUPATION":"PINEDE"},"geometry":{"type":"Polygon","coordinates":[[[6.07816,35.56944],[6.07886,35.56999],[6.0789,35.57025],[6.07844,35.5699],[6.07781,35.569],[6.07816,35.56944]]]}},{"type":"Feature","properties":{"Name":"Pinède","OCCUPATION":"PINEDE"},"geometry":{"type":"Polygon","coordinates":[[[6.07897,35.57257],[6.07907,35.57273],[6.07879,35.57295],[6.0789,35.57278],[6.07897,35.57257]]]}},{"type":"Feature","properties":{"Name":"Pinède","OCCUPATION":"PINEDE"},"geometry":{"type":"Polygon","coordinates":[[[6.07771,35.57328],[6.07763,35.5733],[6.07754,35.57323],[6.07762,35.57323],[6.07771,35.57328]]]}},{"type":"Feature","properties":{"Name":"Pinède","OCCUPATION":"PINEDE"},"geometry":{"type":"Polygon","coordinates":[[[6.07816,35.56944],[6.07886,35.56999],[6.0789,35.57025],[6.07844,35.5699],[6.07781,35.569],[6.07816,35.56944]]]}}]}