{"type":"FeatureCollection","features":[{"type":"Feature","properties":{"Name":"Kirassion 02"},"geometry":{"type":"LineString","coordinates":[[6.15262,35.59052],[6.15258,35.59005],[6.1523,35.58952],[6.15143,35.58721],[6.15104,35.5864]]}},{"type":"Feature","properties":{"Name":"Boukazez"},"geometry":{"type":"LineString","coordinates":[[6.00386,35.52028],[6.00414,35.52076],[6.00447,35.52197],[6.00506,35.52285],[6.00535,35.52408],[6.00648,35.52626],[6.00688,35.52705],[6.00704,35.5275],[6.00753,35.52782],[6.00815,35.52866],[6.0087,35.5293],[6.00946,35.53043],[6.00959,35.53088],[6.01005,35.53136],[6.01106,35.53181],[6.01319,35.53125],[6.01384,35.53145],[6.01538,35.53145]]}},{"type":"Feature","properties":{"Name":"Route CW 77"},"geometry":{"type":"MultiLineString","coordinates":[[[6.00039,35.52369],[6.00211,35.5226],[6.00289,35.52151],[6.0038,35.52067],[6.0039,35.51986],[6.00393,35.51889],[6.00376,35.51812],[6.00367,35.5174],[6.0039,35.51671],[6.00453,35.51561],[6.00498,35.5142],[6.00513,35.51185],[6.00547,35.51037],[6.00493,35.50691],[6.00534,35.50576],[6.0058,35.50573],[6.00783,35.50586],[6.01131,35.50643],[6.01368,35.50664],[6.01569,35.50741],[6.0173,35.50828],[6.01817,35.50846],[6.01933,35.50853],[6.02081,35.5092],[6.02163,35.5095],[6.03514,35.51023],[6.03898,35.51135],[6.04238,35.51124],[6.05042,35.51302],[6.06407,35.51661],[6.07064,35.51883],[6.07297,35.52008],[6.0757,35.52094],[6.07882,35.52213],[6.08074,35.52264]],[[5.90612,35.6044],[5.90643,35.60416]],[[5.90612,35.6044],[5.9052,35.60565]],[[5.90857,35.6063],[5.90827,35.60588],[5.90776,35.60551],[5.90739,35.60543],[5.90621,35.60456],[5.90612,35.6044]],[[5.90857,35.6063],[5.90815,35.60659],[5.9076,35.60648],[5.90695,35.60722]],[[5.9108,35.60813],[5.91011,35.60761],[5.90939,35.6068],[5.90857,35.6063]],[[5.91539,35.60856],[5.91441,35.60838],[5.91372,35.60836],[5.91124,35.60802],[5.9108,35.60813]],[[5.91539,35.60856],[5.9156,35.60828],[5.91539,35.60744],[5.91492,35.60703],[5.91254,35.60578],[5.91231,35.60542],[5.91207,35.6041],[5.9117,35.60354],[5.91112,35.6036],[5.91037,35.60398],[5.90818,35.60428],[5.90701,35.60429],[5.90643,35.60416]],[[5.9184,35.61244],[5.91751,35.61176],[5.91718,35.6116],[5.91649,35.61176],[5.91574,35.6118],[5.9155,35.6122]],[[5.9184,35.61244],[5.91893,35.6115],[5.918,35.61036],[5.91763,35.60984],[5.91579,35.60967],[5.91507,35.60954],[5.91519,35.60882],[5.91539,35.60856]],[[5.91519,35.62025],[5.91493,35.61984],[5.91473,35.61937],[5.91449,35.61909],[5.91445,35.6186],[5.91462,35.61812],[5.91441,35.61723],[5.91458,35.61672],[5.91494,35.61643],[5.91494,35.61564],[5.91476,35.61523],[5.9146,35.61464],[5.91465,35.61411],[5.91437,35.61334],[5.91371,35.61185],[5.91341,35.61085],[5.91271,35.61027],[5.91178,35.60933],[5.91095,35.60844],[5.9108,35.60813]],[[5.91519,35.62025],[5.9158,35.61963],[5.91743,35.61876],[5.92017,35.61843],[5.92127,35.61747],[5.92206,35.61606],[5.92265,35.61445],[5.92283,35.61366],[5.92247,35.61167],[5.92165,35.61141],[5.92097,35.61151],[5.91956,35.61263],[5.91902,35.61293],[5.91873,35.6128],[5.9184,35.61244]],[[5.91397,35.63106],[5.91386,35.63103],[5.91464,35.6294],[5.91642,35.62623],[5.91607,35.6238],[5.9157,35.62205],[5.91513,35.62184],[5.9153,35.62128],[5.91519,35.62025]]]}},{"type":"Feature","properties":{"Name":"Route national N86"},"geometry":{"type":"LineString","coordinates":[[6.1927,35.68973],[6.19961,35.68669],[6.20009,35.68656],[6.20045,35.68653],[6.20772,35.68693],[6.21646,35.68642],[6.22971,35.68552],[6.23567,35.6854],[6.24246,35.68541],[6.2427,35.68538],[6.24295,35.68525],[6.24329,35.68475],[6.24366,35.6839],[6.24387,35.68278],[6.24399,35.68266],[6.2442,35.68255],[6.2445,35.68252],[6.24511,35.68254],[6.24574,35.68235],[6.24602,35.68234],[6.24721,35.68259],[6.24844,35.68249],[6.25016,35.6825],[6.25113,35.68244],[6.25138,35.68236],[6.25156,35.68223],[6.25188,35.68183],[6.25197,35.68113],[6.2522,35.68082],[6.25227,35.68043],[6.25236,35.68028],[6.2527,35.68026],[6.25335,35.68042],[6.25358,35.6804],[6.2539,35.68015],[6.25406,35.67981],[6.25422,35.67969],[6.25491,35.67969],[6.25533,35.67945],[6.25553,35.6794],[6.25606,35.67941],[6.25705,35.67954],[6.25756,35.67952],[6.26021,35.67807],[6.26045,35.67801],[6.26096,35.67829],[6.26123,35.67832],[6.26137,35.67829],[6.26153,35.6782],[6.26197,35.67769],[6.26221,35.67756],[6.26257,35.67747],[6.2629,35.67752],[6.2641,35.67795],[6.26475,35.67846],[6.26607,35.67921],[6.26667,35.67981],[6.26734,35.68017],[6.26778,35.68024],[6.26963,35.68019],[6.27023,35.68004],[6.271,35.67975],[6.27265,35.6788],[6.27285,35.67861],[6.27332,35.67775],[6.27396,35.67722],[6.27921,35.67574],[6.28092,35.67491],[6.28527,35.67261],[6.28543,35.67244],[6.28578,35.67144],[6.2859,35.67129],[6.28608,35.67124],[6.28634,35.67127],[6.28722,35.67157],[6.28823,35.67171],[6.28853,35.67181],[6.28926,35.67228],[6.28965,35.67247],[6.28999,35.67259],[6.29139,35.67264],[6.29196,35.67277],[6.2931,35.67314],[6.29334,35.67315],[6.29358,35.67307],[6.29368,35.67294],[6.29368,35.67272],[6.29351,35.67233],[6.29308,35.67171],[6.29304,35.67139],[6.29316,35.6698],[6.29327,35.66922],[6.29349,35.66894],[6.30206,35.6619],[6.30389,35.66053]]}},{"type":"Feature","properties":{"Name":"piste labaaoune vers m'rkha"},"geometry":{"type":"LineString","coordinates":[[5.92371,35.60503],[5.92357,35.60491],[5.9235,35.60477],[5.9234,35.60405],[5.92308,35.60308],[5.92284,35.60258],[5.92276,35.60221],[5.92275,35.60171],[5.92265,35.60145],[5.92255,35.60133],[5.92161,35.60143],[5.92077,35.60159],[5.92055,35.60167],[5.92,35.60204],[5.91981,35.60208],[5.91955,35.60206],[5.91935,35.60198],[5.9191,35.60182],[5.91904,35.60166],[5.9197,35.60108],[5.92031,35.60042],[5.92135,35.59953],[5.92209,35.59859],[5.92277,35.59788],[5.92309,35.5977],[5.92388,35.59748],[5.92435,35.59725],[5.92446,35.5966],[5.92463,35.59625],[5.92454,35.5958],[5.92463,35.59515],[5.92491,35.59479],[5.92485,35.59385],[5.92516,35.59334],[5.92532,35.5933],[5.92599,35.59328],[5.92674,35.59298],[5.92752,35.59277],[5.92792,35.59278],[5.92838,35.59271],[5.92957,35.59296],[5.93011,35.59291],[5.93064,35.59292],[5.93102,35.59282],[5.93125,35.59281],[5.93169,35.59261],[5.93221,35.59221],[5.93307,35.59194],[5.93329,35.59166],[5.93371,35.5918],[5.93464,35.5915],[5.93505,35.59115],[5.93621,35.59051],[5.93702,35.58983],[5.9385,35.58919],[5.93882,35.58896],[5.93896,35.5887],[5.93901,35.58837],[5.93899,35.58811],[5.93881,35.58778],[5.93879,35.58755],[5.93878,35.58745],[5.939,35.58689],[5.93891,35.58568],[5.93891,35.58562],[5.93897,35.58559],[5.93957,35.5858],[5.9403,35.58588],[5.94072,35.58612],[5.941,35.58636],[5.94129,35.5865],[5.94211,35.5866],[5.94343,35.5863],[5.94424,35.58573],[5.9448,35.58562],[5.94503,35.58533],[5.94527,35.58481],[5.94532,35.58513]]}},{"type":"Feature","properties":{"Name":"piste Djerma"},"geometry":{"type":"LineString","coordinates":[[6.27742,35.65277],[6.27742,35.65313],[6.27754,35.65358],[6.27764,35.6544],[6.2781,35.65516],[6.27835,35.65532],[6.27881,35.65526],[6.27994,35.65473],[6.28118,35.65486],[6.28176,35.65485],[6.28189,35.65508],[6.28135,35.65607],[6.28125,35.65647],[6.28165,35.65693],[6.28198,35.65755],[6.28331,35.65914],[6.28352,35.65947],[6.28392,35.6604],[6.28366,35.66098],[6.28359,35.66149],[6.2833,35.66217],[6.28336,35.66243],[6.28388,35.66285],[6.28378,35.66324],[6.28352,35.66355],[6.28306,35.66431],[6.28316,35.6647],[6.28281,35.66646],[6.28297,35.66698],[6.28336,35.66775],[6.28382,35.66832],[6.28503,35.66915],[6.28621,35.66966],[6.28747,35.66992],[6.28823,35.67019],[6.28872,35.67025],[6.28984,35.67141],[6.29002,35.67179],[6.28934,35.67232]]}},{"type":"Feature","properties":{"Name":"piste maison foresière ouled manaa vers manaa lagdima"},"geometry":{"type":"LineString","coordinates":[[6.03826,35.62628],[6.0389,35.62501],[6.03941,35.6243],[6.03967,35.62411],[6.04083,35.62392],[6.04284,35.62281],[6.04342,35.62271],[6.044,35.62244],[6.04466,35.62238],[6.04546,35.62265],[6.04598,35.62254],[6.04681,35.62215],[6.04702,35.622],[6.04737,35.62193],[6.04793,35.62144],[6.0483,35.62087],[6.04998,35.62014],[6.05131,35.61976],[6.05159,35.61942],[6.05251,35.61903],[6.05353,35.61848],[6.05365,35.61834],[6.05471,35.61829],[6.05619,35.61837],[6.05736,35.6179],[6.05802,35.61769],[6.05893,35.61723],[6.05991,35.61681],[6.06114,35.61679],[6.06231,35.61698],[6.06264,35.61685],[6.06266,35.61675]]}},{"type":"Feature","properties":{"Name":"Col Djerma"},"geometry":{"type":"LineString","coordinates":[[6.27319,35.67817],[6.27337,35.67852],[6.27351,35.67868],[6.27383,35.67885],[6.27405,35.67902],[6.27418,35.67932],[6.27426,35.67988],[6.2739,35.68061],[6.27373,35.68077],[6.27303,35.68113],[6.27283,35.68128],[6.27263,35.68131],[6.27225,35.6816],[6.27159,35.68185],[6.2705,35.68131],[6.26906,35.68047],[6.26898,35.68032]]}},{"type":"Feature","properties":{"Name":"Piste RN 86 (06) tagargourt"},"geometry":{"type":"LineString","coordinates":[[6.26903,35.68046],[6.26938,35.68146],[6.26964,35.68193],[6.26977,35.68273],[6.26923,35.68308],[6.2691,35.68298],[6.26882,35.68302],[6.26851,35.68263],[6.26813,35.68113],[6.26811,35.68051],[6.26806,35.68026]]}},{"type":"Feature","properties":{"Name":"Piste RN 86 (03)"},"geometry":{"type":"LineString","coordinates":[[6.27131,35.67957],[6.27133,35.67893],[6.27129,35.67866],[6.27122,35.67834],[6.27099,35.6779],[6.27084,35.67739],[6.27066,35.67638],[6.27053,35.67594],[6.27041,35.67574],[6.27044,35.67545],[6.27041,35.67537],[6.26919,35.67399],[6.26808,35.67243],[6.26776,35.67211],[6.26758,35.672]]}},{"type":"Feature","properties":{"Name":"Piste RN 86 (02)"},"geometry":{"type":"LineString","coordinates":[[6.27302,35.67829],[6.27233,35.67707],[6.27204,35.67646],[6.27177,35.67571],[6.27132,35.67491],[6.27096,35.67445],[6.27048,35.67403],[6.26969,35.67317],[6.26906,35.67213],[6.26875,35.67203],[6.2683,35.67205],[6.26755,35.67198],[6.26737,35.67204],[6.26709,35.67199],[6.26659,35.67199],[6.26606,35.6719],[6.2658,35.67202]]}},{"type":"Feature","properties":{"Name":"Boumerzoug (Praticable)"},"geometry":{"type":"LineString","coordinates":[[6.12441,35.56807],[6.12353,35.56795],[6.1226,35.56793],[6.12351,35.56733],[6.12205,35.56728],[6.12101,35.56754],[6.12156,35.56691],[6.12025,35.56756],[6.11889,35.56717],[6.11735,35.56659],[6.11387,35.56572],[6.11198,35.56515],[6.11004,35.56477],[6.10827,35.5642],[6.10747,35.5646],[6.10636,35.56458],[6.10576,35.56422],[6.10562,35.56374],[6.10511,35.5639],[6.10416,35.56354],[6.10309,35.56171],[6.10296,35.56119],[6.10231,35.56116],[6.10041,35.55973],[6.09912,35.56005],[6.09855,35.56039]]}},{"type":"Feature","properties":{},"geometry":{"type":"LineString","coordinates":[[6.08996,35.56019],[6.09189,35.56018],[6.09283,35.5604],[6.09336,35.56043],[6.09456,35.55975],[6.09568,35.56013],[6.09855,35.56039],[6.09903,35.56072],[6.10026,35.56092],[6.10081,35.56139],[6.10023,35.56297],[6.10077,35.56339],[6.10145,35.56447],[6.10215,35.56445],[6.10332,35.56461],[6.10392,35.56507],[6.10476,35.56553],[6.1056,35.56617],[6.10598,35.56693],[6.10607,35.56769],[6.10691,35.56829],[6.1074,35.56899],[6.10822,35.56967]]}},{"type":"Feature","properties":{"Name":"RW05"},"geometry":{"type":"LineString","coordinates":[[6.00737,35.63889],[6.00751,35.63876],[6.00755,35.63858],[6.0076,35.63708],[6.00789,35.63659],[6.00872,35.63602],[6.00882,35.63591],[6.00892,35.63528],[6.00909,35.63514],[6.00941,35.635],[6.00981,35.63493],[6.01036,35.63451],[6.01147,35.63392],[6.01154,35.63375],[6.01155,35.63338],[6.01139,35.63212],[6.01154,35.63177],[6.01146,35.63121],[6.01151,35.63111],[6.01174,35.63106],[6.01207,35.63121],[6.01266,35.63119],[6.01282,35.63124],[6.01316,35.63151],[6.01332,35.6318],[6.01346,35.63194],[6.01362,35.63199],[6.01374,35.63196],[6.01389,35.63183],[6.0142,35.63132],[6.01444,35.63108],[6.0147,35.6309],[6.01496,35.6308],[6.01584,35.63063],[6.01602,35.63053],[6.01612,35.63035],[6.01633,35.62947],[6.01629,35.62838],[6.01623,35.62822],[6.0158,35.6276],[6.01581,35.62744],[6.01612,35.6273],[6.01651,35.62734],[6.01737,35.62788],[6.0178,35.62806],[6.01809,35.6281],[6.01886,35.62788],[6.01955,35.62719],[6.0201,35.62635],[6.02016,35.62615],[6.02012,35.62578],[6.0202,35.62538],[6.02017,35.62503],[6.02022,35.62478],[6.02055,35.62461],[6.02104,35.62426],[6.02129,35.62429],[6.02156,35.62485],[6.02202,35.62519],[6.02227,35.62524],[6.02255,35.62523],[6.02283,35.62515],[6.02304,35.62499],[6.02374,35.62379],[6.02416,35.62334],[6.0249,35.623],[6.02499,35.62291],[6.02502,35.62277],[6.02493,35.62242],[6.02498,35.62232],[6.0251,35.62224],[6.02537,35.62218],[6.02587,35.62185],[6.02604,35.62162],[6.02633,35.6209],[6.02644,35.62015],[6.02655,35.62006],[6.02677,35.62005],[6.02709,35.62015],[6.02739,35.62036],[6.02763,35.62043],[6.02805,35.62047],[6.02918,35.6204],[6.02984,35.62026],[6.03102,35.6199],[6.03131,35.61974],[6.0315,35.61973],[6.03183,35.61984],[6.03193,35.6199],[6.03203,35.62006],[6.03224,35.62021],[6.03247,35.62025],[6.03277,35.62022],[6.0335,35.62004],[6.03369,35.61993],[6.03379,35.61981],[6.0339,35.61876],[6.03349,35.61826],[6.03328,35.61778],[6.03316,35.61698],[6.03229,35.61632],[6.03184,35.61609],[6.03146,35.61579],[6.03137,35.6157],[6.03117,35.61527],[6.03105,35.61518],[6.03052,35.61499],[6.03046,35.61492],[6.03048,35.6145],[6.03035,35.61434],[6.02995,35.61404],[6.02972,35.61376],[6.02971,35.61363],[6.02993,35.61351],[6.03045,35.61354],[6.03079,35.61348],[6.03174,35.61274],[6.03207,35.61232],[6.03204,35.61167],[6.03217,35.61136],[6.03217,35.61124],[6.03171,35.61041],[6.03182,35.61024],[6.03203,35.61015],[6.03223,35.61],[6.03243,35.60975],[6.03269,35.60924],[6.03273,35.60908],[6.03256,35.60877],[6.03141,35.60778],[6.03135,35.60767],[6.03135,35.60756],[6.03173,35.6073],[6.03244,35.60699],[6.03265,35.60686],[6.03279,35.60654],[6.03277,35.60606],[6.03255,35.60572],[6.03232,35.60504],[6.03231,35.6046],[6.03222,35.60436],[6.0319,35.60396],[6.03109,35.60332],[6.03084,35.60273],[6.03071,35.60257],[6.02992,35.60222],[6.02982,35.6021],[6.02972,35.60179],[6.02978,35.60164],[6.02989,35.60154],[6.03012,35.60145],[6.03192,35.60117],[6.03212,35.60111],[6.03238,35.60091],[6.03326,35.59988],[6.03338,35.59967],[6.03352,35.59897],[6.03379,35.59841],[6.03402,35.59811],[6.03416,35.59811],[6.0343,35.59823],[6.03438,35.59841],[6.03438,35.59881],[6.03445,35.59899],[6.03461,35.59921],[6.03479,35.59982],[6.03509,35.60037],[6.03513,35.60069],[6.03523,35.60084],[6.03539,35.60091],[6.03601,35.60072],[6.0363,35.60043],[6.03663,35.60028],[6.03679,35.6001],[6.03689,35.5998],[6.03702,35.59975],[6.03742,35.59987],[6.03769,35.59985],[6.03799,35.59938],[6.0381,35.59934],[6.03857,35.59941],[6.03891,35.59921],[6.03919,35.59912],[6.0394,35.59895],[6.03966,35.5985],[6.04052,35.59742],[6.04073,35.59729],[6.04093,35.59724],[6.04115,35.59746],[6.04121,35.59806],[6.04119,35.59864],[6.04126,35.59886],[6.04144,35.59913],[6.04169,35.59927],[6.04213,35.59937],[6.04244,35.59919],[6.04306,35.59905],[6.04349,35.59929],[6.04374,35.59927],[6.04461,35.59859],[6.04477,35.5986],[6.04492,35.59869],[6.04531,35.59919],[6.04555,35.59929],[6.04593,35.59936],[6.046,35.59944],[6.046,35.59955],[6.04591,35.59968],[6.04567,35.59979],[6.04524,35.59987],[6.045,35.59998],[6.0449,35.60009],[6.04479,35.60032],[6.04458,35.60058],[6.04466,35.60072],[6.04485,35.60082],[6.04493,35.60101],[6.04489,35.6014],[6.04451,35.6017],[6.04436,35.60201],[6.04417,35.6021],[6.04393,35.60211],[6.04344,35.60197],[6.04323,35.60197],[6.04295,35.60221],[6.04275,35.60257],[6.04254,35.60281],[6.04211,35.60294],[6.04177,35.60326],[6.04172,35.60341],[6.04176,35.60354],[6.04204,35.60386],[6.04235,35.60403],[6.04352,35.60424],[6.0438,35.60438],[6.04395,35.60449],[6.04412,35.60485],[6.04451,35.60503],[6.04467,35.6055],[6.04479,35.60558],[6.04494,35.6056],[6.04541,35.60547],[6.04579,35.60543],[6.04591,35.60533],[6.04617,35.60466],[6.04632,35.6045],[6.04772,35.60388],[6.04778,35.6038],[6.04839,35.60377],[6.04896,35.60355],[6.05066,35.60349],[6.05096,35.60317],[6.05122,35.6031],[6.05204,35.60303],[6.05238,35.60314],[6.05311,35.60356],[6.0538,35.60375],[6.05455,35.60407],[6.05519,35.60477],[6.05525,35.6049],[6.05515,35.60529],[6.05517,35.60551],[6.05483,35.60612],[6.05477,35.6066],[6.0548,35.60682],[6.05492,35.60697],[6.05646,35.60702],[6.05678,35.60692],[6.05795,35.60626],[6.05803,35.60616],[6.05801,35.60605],[6.05745,35.60541],[6.05719,35.60498],[6.05718,35.60485],[6.05722,35.60459],[6.0573,35.60441],[6.05735,35.60401],[6.05746,35.60378],[6.0575,35.60326],[6.05768,35.6027],[6.05791,35.60239],[6.05798,35.60178],[6.0581,35.60127],[6.05819,35.60106],[6.05834,35.60087],[6.05861,35.60072],[6.0587,35.60057],[6.05864,35.60034],[6.05855,35.60021],[6.05823,35.60001],[6.05753,35.59932],[6.0571,35.59901],[6.05707,35.59856],[6.05695,35.59827],[6.05711,35.5978],[6.05691,35.59747],[6.05696,35.5973],[6.05735,35.5963],[6.05754,35.5961],[6.05831,35.5956],[6.05915,35.59491],[6.05954,35.59465],[6.06014,35.59411],[6.06068,35.59287],[6.06073,35.59266],[6.06067,35.59244],[6.06045,35.59193],[6.06047,35.59183],[6.06103,35.59112],[6.0616,35.59005],[6.06218,35.58968],[6.06269,35.58952],[6.06285,35.58954],[6.06358,35.5899],[6.06372,35.59007],[6.06382,35.59031],[6.06387,35.59062],[6.06399,35.59085],[6.06433,35.59122],[6.06486,35.59166],[6.06516,35.59176],[6.06562,35.59177],[6.06644,35.59164],[6.06725,35.59135],[6.0674,35.59146],[6.06739,35.59196],[6.06753,35.59215],[6.06793,35.59246],[6.0681,35.5925],[6.06934,35.59248],[6.06941,35.59263],[6.06913,35.593],[6.06908,35.5934],[6.06876,35.59385],[6.06869,35.59425],[6.06956,35.59459],[6.07004,35.59468],[6.07035,35.59488],[6.07057,35.5951],[6.07107,35.59581],[6.07166,35.5964],[6.07171,35.59656],[6.07168,35.59675],[6.07173,35.59691],[6.07198,35.59719],[6.07246,35.59752],[6.07271,35.59781],[6.07352,35.59837],[6.07377,35.59878],[6.07393,35.5989],[6.07452,35.59915],[6.07467,35.59927],[6.07546,35.5994],[6.07579,35.59951],[6.07633,35.5998],[6.07666,35.59989],[6.07691,35.59995],[6.07766,35.59993],[6.07892,35.60015],[6.07989,35.60032],[6.08039,35.60054],[6.08056,35.60056],[6.08151,35.60049],[6.08249,35.60049],[6.08273,35.60046],[6.0831,35.60033],[6.08329,35.60036],[6.08378,35.60073],[6.08394,35.60073],[6.08443,35.60054],[6.08465,35.60051],[6.08518,35.60065],[6.08553,35.60068],[6.08617,35.60058],[6.08653,35.60058],[6.08684,35.60061],[6.08745,35.60076],[6.08802,35.60098],[6.08913,35.601],[6.08997,35.6008],[6.09037,35.60055],[6.09057,35.6005],[6.09082,35.6005],[6.09129,35.6006],[6.09185,35.60078],[6.09263,35.60084],[6.09342,35.60104],[6.09378,35.60148],[6.094,35.60162],[6.09467,35.60176],[6.09523,35.60167],[6.09541,35.60174],[6.09563,35.60192],[6.09572,35.60206],[6.09557,35.60243],[6.09561,35.60263],[6.09588,35.60307],[6.09615,35.60331],[6.0968,35.60346],[6.09698,35.6034],[6.09778,35.60273],[6.09798,35.60231],[6.0982,35.60203],[6.09848,35.60182],[6.10041,35.60141],[6.10072,35.60139],[6.10109,35.60141],[6.10136,35.6015],[6.1017,35.60195],[6.10179,35.60226],[6.10168,35.60283],[6.10173,35.60289],[6.10188,35.6029],[6.10284,35.60259],[6.1033,35.60222],[6.10375,35.60156],[6.10402,35.60134],[6.10431,35.60121],[6.10455,35.60118],[6.10489,35.60122],[6.1055,35.6016],[6.10612,35.60177],[6.10628,35.60193],[6.10649,35.60227],[6.10664,35.60241],[6.10691,35.60255],[6.10782,35.60271],[6.1088,35.6027],[6.10943,35.60261],[6.11035,35.60233],[6.11063,35.60229],[6.11236,35.60241],[6.1129,35.60252],[6.11342,35.60254],[6.11364,35.60245],[6.11374,35.60236],[6.11375,35.60219],[6.11349,35.60174],[6.11332,35.60161],[6.11262,35.60139],[6.11197,35.60109],[6.11151,35.60093],[6.11115,35.6006],[6.11107,35.6004],[6.11112,35.59979],[6.11103,35.59949],[6.11085,35.59936],[6.11058,35.59932],[6.10998,35.59941],[6.10979,35.59937],[6.10958,35.59929],[6.10871,35.59869],[6.10846,35.59859],[6.10789,35.59851],[6.10776,35.59843],[6.10752,35.59809],[6.10698,35.59771],[6.10696,35.59757],[6.10704,35.59745],[6.10727,35.59735],[6.10784,35.59733],[6.10834,35.59711],[6.10916,35.59715],[6.10936,35.59712],[6.10952,35.59705],[6.10978,35.59646],[6.11043,35.59594],[6.1106,35.59569],[6.1111,35.59536],[6.11112,35.59516],[6.11122,35.59497],[6.11136,35.59484],[6.11169,35.59493],[6.11205,35.59495],[6.11259,35.59486],[6.11292,35.59459],[6.11331,35.5939],[6.11347,35.59373],[6.11382,35.59351],[6.11391,35.59339],[6.11424,35.59322],[6.11438,35.5932],[6.11495,35.59338],[6.11522,35.59324],[6.11598,35.59237],[6.11657,35.59133],[6.11696,35.59088],[6.11868,35.58979],[6.11945,35.58917],[6.1196,35.58809],[6.11963,35.58713],[6.12002,35.58639],[6.1201,35.58614],[6.12025,35.58593],[6.12054,35.58567],[6.12246,35.58446],[6.1288,35.58022],[6.13041,35.5792],[6.13213,35.57832]]}},{"type":"Feature","properties":{"Name":"RG Pont vers CW05"},"geometry":{"type":"LineString","coordinates":[[6.0761,35.57978],[6.07614,35.57992],[6.07627,35.58011],[6.0768,35.58069],[6.07694,35.58092],[6.07737,35.58255],[6.07734,35.58318],[6.0774,35.58347],[6.07752,35.58375],[6.0777,35.58399],[6.07833,35.5846],[6.07835,35.58472],[6.07811,35.58508],[6.07811,35.58519],[6.07854,35.58543],[6.07862,35.58553],[6.07879,35.58611],[6.07921,35.5866],[6.07951,35.58714],[6.08026,35.58791],[6.0803,35.58842],[6.08069,35.58883],[6.0807,35.58928],[6.08082,35.58966],[6.08076,35.58976],[6.08033,35.5901],[6.08025,35.59025],[6.0802,35.59088],[6.08007,35.59113],[6.08006,35.59132],[6.08023,35.59145],[6.08113,35.59172],[6.08158,35.59198],[6.08237,35.59281],[6.08255,35.59312],[6.08249,35.59349],[6.08271,35.5938],[6.08321,35.59421],[6.08352,35.5947],[6.08374,35.59484],[6.08423,35.59487],[6.08437,35.59502],[6.08446,35.59537],[6.08461,35.59552],[6.08499,35.59554],[6.08522,35.59563],[6.08534,35.59571],[6.08565,35.59629],[6.08574,35.59634],[6.08607,35.59633],[6.08631,35.59644],[6.08648,35.59656],[6.08669,35.59693],[6.08679,35.59702],[6.0875,35.59724],[6.08906,35.59737],[6.08926,35.59746],[6.08939,35.59771],[6.08953,35.59779],[6.0902,35.59773],[6.09062,35.59756],[6.09078,35.59742],[6.09089,35.59739],[6.09103,35.59738],[6.09134,35.59749],[6.09165,35.59781],[6.0919,35.59838],[6.09191,35.59853],[6.09182,35.59878],[6.09184,35.59893],[6.09215,35.59925],[6.09231,35.59953],[6.09245,35.59959],[6.09285,35.59961],[6.09332,35.59998],[6.09394,35.60027],[6.09414,35.60043],[6.09412,35.60061],[6.09392,35.6007],[6.09321,35.6006],[6.09293,35.60063],[6.09283,35.60073],[6.09285,35.60088]]}},{"type":"Feature","properties":{"Name":"Route Gaudronnée Hamla"},"geometry":{"type":"LineString","coordinates":[[6.10519,35.54883],[6.10036,35.54951],[6.09765,35.55013],[6.09589,35.55037],[6.09412,35.55055],[6.09362,35.55042],[6.0916,35.54925],[6.08818,35.54715],[6.08776,35.54707],[6.08696,35.54728],[6.08645,35.54756],[6.08629,35.54776],[6.08595,35.54856],[6.08567,35.54875],[6.08535,35.54885],[6.08261,35.54933],[6.08205,35.54955],[6.08147,35.54997]]}},{"type":"Feature","properties":{"Name":"R Condorcet pont Romain"},"geometry":{"type":"LineString","coordinates":[[6.0761,35.57978],[6.07624,35.57935],[6.07645,35.57907],[6.07697,35.57848],[6.07725,35.57829],[6.07745,35.57809],[6.07782,35.57693],[6.07845,35.57597],[6.07866,35.57521],[6.07919,35.57487],[6.07927,35.57473],[6.07926,35.57444],[6.07932,35.57433],[6.07974,35.574],[6.08007,35.57358],[6.08014,35.57336],[6.08025,35.57221],[6.08101,35.56793],[6.0811,35.56663],[6.08117,35.56637],[6.0816,35.56564],[6.08164,35.56541],[6.08157,35.56498],[6.08155,35.56456],[6.0816,35.56431],[6.08191,35.56324],[6.08249,35.56156],[6.08266,35.56114],[6.08322,35.56012],[6.0833,35.55923],[6.08328,35.5588],[6.08262,35.55325],[6.08255,35.55297],[6.0815,35.55079],[6.08134,35.55038],[6.08128,35.55004],[6.08125,35.54975],[6.08132,35.54942],[6.0818,35.54798],[6.08187,35.54753],[6.08162,35.5454],[6.08164,35.54373]]}},{"type":"Feature","properties":{"Name":"R Pont Romain Tizi nselli"},"geometry":{"type":"LineString","coordinates":[[6.0761,35.57978],[6.07571,35.57996],[6.07543,35.58021],[6.07516,35.58067],[6.07478,35.58118],[6.07463,35.58131],[6.07416,35.58139],[6.07354,35.58167],[6.07288,35.58156],[6.07223,35.58158],[6.07102,35.58109],[6.07062,35.581],[6.06988,35.58092],[6.06945,35.58069],[6.0693,35.58067],[6.06896,35.58074],[6.06869,35.58069],[6.06814,35.58043],[6.06793,35.58023],[6.06758,35.58],[6.06702,35.57978],[6.06648,35.57968],[6.06605,35.57965],[6.06586,35.57968],[6.0652,35.57959],[6.06462,35.57958],[6.06285,35.57983],[6.06267,35.57981],[6.06235,35.57968],[6.06222,35.57968],[6.06163,35.57985],[6.06092,35.57975],[6.06017,35.57986],[6.05924,35.58021],[6.05886,35.58027],[6.05853,35.58021],[6.05742,35.57979],[6.0571,35.57973],[6.05628,35.57968],[6.05558,35.57988],[6.0548,35.57992],[6.05277,35.57974],[6.05203,35.58002],[6.05149,35.58017],[6.05142,35.58032],[6.05141,35.58051],[6.05146,35.58085],[6.05143,35.58104],[6.05147,35.58115],[6.05154,35.58119],[6.05168,35.58121],[6.05271,35.58101],[6.05276,35.58109],[6.05196,35.58173],[6.05172,35.582],[6.05113,35.5823],[6.05073,35.58234],[6.05063,35.58226],[6.05058,35.58214],[6.05048,35.58163],[6.05037,35.58149],[6.05002,35.58119],[6.04958,35.58094],[6.04876,35.58087],[6.0477,35.58103],[6.04766,35.58098],[6.04782,35.58067],[6.04785,35.58051],[6.04757,35.58019],[6.04733,35.57939],[6.04716,35.57922],[6.0462,35.57878],[6.04586,35.57877],[6.04526,35.57886],[6.04476,35.57879],[6.04378,35.57853],[6.04344,35.57828],[6.043,35.57815],[6.04267,35.57766],[6.04259,35.57744],[6.04262,35.57733],[6.04274,35.57721],[6.04309,35.57693],[6.04307,35.57683],[6.04296,35.57679],[6.04279,35.57677],[6.0423,35.57685],[6.04146,35.5768],[6.0408,35.57663],[6.03974,35.5765],[6.03879,35.57644],[6.03784,35.57613],[6.03747,35.57606],[6.03699,35.57626],[6.03662,35.57652]]}},{"type":"Feature","properties":{"Name":"R Tizi Nselli Thniet el Gantos"},"geometry":{"type":"LineString","coordinates":[[5.98986,35.57494],[5.99076,35.5753],[5.99106,35.57532],[5.99139,35.57542],[5.99186,35.57561],[5.99188,35.57553],[5.99158,35.5753],[5.99141,35.57505],[5.99132,35.57474],[5.99132,35.57469],[5.99139,35.57466],[5.99172,35.5751],[5.99201,35.5753],[5.99241,35.57576],[5.9929,35.576],[5.9931,35.57623],[5.99339,35.57641],[5.99459,35.57684],[5.99496,35.57732],[5.9956,35.57787],[5.99607,35.57813],[5.99654,35.57822],[5.99714,35.57812],[5.99784,35.57815],[5.99843,35.57841],[5.99924,35.57896],[5.99979,35.57914],[6.00002,35.57906],[6.00023,35.57891],[6.00081,35.5787],[6.0013,35.57842],[6.00179,35.57822],[6.00204,35.57818],[6.00345,35.57823],[6.00422,35.57838],[6.00515,35.57849],[6.0067,35.57894],[6.00751,35.57984],[6.00784,35.58001],[6.00837,35.58012],[6.00925,35.58078],[6.00953,35.58092],[6.00983,35.58083],[6.01061,35.58028],[6.01115,35.58003],[6.01145,35.5797],[6.01152,35.5795],[6.012,35.57913],[6.01275,35.57885],[6.01349,35.57874],[6.01395,35.57875],[6.0141,35.57882],[6.01508,35.57902],[6.01541,35.57902],[6.01614,35.57923],[6.01665,35.5793],[6.01744,35.57967],[6.01793,35.57979],[6.01852,35.58011],[6.01891,35.58023],[6.01909,35.58026],[6.0196,35.58001],[6.02045,35.58008],[6.02132,35.58043],[6.02179,35.58075],[6.0223,35.5809],[6.02263,35.58113],[6.02311,35.58138],[6.02372,35.58183],[6.02416,35.58204],[6.02434,35.58205],[6.02465,35.58219],[6.02484,35.5824],[6.02493,35.58273],[6.02502,35.58282],[6.02521,35.58285],[6.02529,35.58292],[6.02535,35.58303],[6.02539,35.58329],[6.02579,35.58368],[6.02608,35.58379],[6.0266,35.58379],[6.02745,35.584],[6.02797,35.58407],[6.02826,35.58419],[6.02857,35.58422],[6.02977,35.58454],[6.0307,35.58443],[6.03138,35.58412],[6.03155,35.58395],[6.03159,35.5836],[6.03178,35.58339],[6.0326,35.58293],[6.03398,35.58229],[6.03436,35.58198],[6.03479,35.58134],[6.03491,35.58106],[6.03496,35.58079],[6.03522,35.58023],[6.03518,35.58011],[6.03494,35.57984],[6.03493,35.57961],[6.03497,35.57954],[6.03533,35.57935],[6.03582,35.57932],[6.03601,35.57925],[6.03605,35.5792],[6.03602,35.57899],[6.03574,35.57859],[6.03578,35.57839],[6.03594,35.57825],[6.03637,35.57829],[6.03657,35.57824],[6.03667,35.57815],[6.03665,35.57797],[6.03672,35.57777],[6.03672,35.57756],[6.0366,35.57663],[6.03668,35.57648]]}},{"type":"Feature","properties":{"Name":"Route G Thniet el Gantos Oum rkha Ali Nmer"},"geometry":{"type":"LineString","coordinates":[[5.98902,35.57508],[5.98979,35.57495],[5.98824,35.57526],[5.98711,35.57564],[5.98597,35.57622],[5.98515,35.57687],[5.98501,35.57688],[5.98488,35.57684],[5.98479,35.57674],[5.98477,35.57663],[5.98529,35.57603],[5.98531,35.57593],[5.9852,35.57585],[5.98463,35.57609],[5.98395,35.57621],[5.98379,35.57631],[5.98316,35.57698],[5.98302,35.57704],[5.98286,35.577],[5.98282,35.57691],[5.98284,35.57682],[5.98341,35.57593],[5.98371,35.57568],[5.98442,35.57531],[5.98443,35.57521],[5.9843,35.57518],[5.98353,35.57547],[5.9832,35.57564],[5.98227,35.57642],[5.98148,35.57694],[5.98088,35.57746],[5.97985,35.57812],[5.97947,35.57855],[5.97935,35.57855],[5.97931,35.57846],[5.97945,35.57814],[5.98147,35.57534],[5.98146,35.57523],[5.98135,35.57522],[5.97998,35.57608],[5.97825,35.57754],[5.97813,35.57753],[5.97807,35.57748],[5.97813,35.57725],[5.97829,35.57695],[5.97889,35.57624],[5.97894,35.5761],[5.97887,35.57602],[5.97875,35.57603],[5.97808,35.57644],[5.97623,35.57738],[5.97586,35.57765],[5.97567,35.57792],[5.97544,35.57939],[5.97539,35.57947],[5.97522,35.57958],[5.975,35.57958],[5.97442,35.57923],[5.97419,35.57915],[5.97319,35.57911],[5.97261,35.579],[5.97109,35.57935],[5.97086,35.57935],[5.97003,35.57919],[5.96908,35.57923],[5.96856,35.57937],[5.96783,35.57982],[5.96765,35.58003],[5.96745,35.58092],[5.96747,35.58157],[5.96743,35.58167],[5.96736,35.58172],[5.96722,35.5817],[5.96682,35.58146],[5.96627,35.58123],[5.96585,35.58098],[5.96564,35.58078],[5.96529,35.58022],[5.96506,35.57996],[5.96475,35.57975],[5.96441,35.57963],[5.96392,35.57964],[5.96307,35.57998],[5.96251,35.5801],[5.96008,35.58001],[5.95964,35.58014],[5.95938,35.58028],[5.95895,35.58066],[5.95726,35.58171],[5.95675,35.58224],[5.95581,35.58257],[5.95567,35.58272],[5.95534,35.58328],[5.95471,35.58373],[5.95332,35.58429],[5.95307,35.58435],[5.95259,35.58436],[5.95119,35.584],[5.95022,35.58396],[5.9495,35.58405],[5.94864,35.58426],[5.94788,35.58451],[5.9466,35.58473],[5.94609,35.58487],[5.94567,35.58491],[5.9454,35.58511],[5.94518,35.58544],[5.9449,35.58573],[5.94391,35.58665],[5.94344,35.58733],[5.94251,35.58891],[5.9421,35.58929],[5.94114,35.59097],[5.9405,35.59224],[5.94016,35.59317],[5.93974,35.59362],[5.93857,35.59458],[5.93719,35.59597],[5.93721,35.59682],[5.93695,35.59745],[5.93661,35.59799],[5.93675,35.59921],[5.9367,35.60016],[5.93445,35.6051],[5.93407,35.60573],[5.93369,35.60604],[5.93348,35.60634]]}},{"type":"Feature","properties":{"Name":"CW 77"},"geometry":{"type":"LineString","coordinates":[[5.91221,35.62928],[5.91288,35.62811],[5.91449,35.6259],[5.91432,35.62445],[5.91434,35.62423],[5.91442,35.62401],[5.91478,35.62352],[5.91501,35.62311],[5.91521,35.62259],[5.9155,35.62137],[5.91553,35.62106],[5.91535,35.62009],[5.91547,35.61971],[5.91561,35.61957],[5.9166,35.61899],[5.91788,35.61839],[5.91818,35.61832],[5.91984,35.61823],[5.92026,35.6181],[5.92157,35.61721],[5.92182,35.61687],[5.92211,35.61628],[5.9231,35.6137],[5.92315,35.61334],[5.92279,35.61151],[5.9226,35.61128],[5.92231,35.6111],[5.92129,35.61113],[5.92097,35.6113],[5.91998,35.61216],[5.9197,35.61223],[5.91944,35.61223],[5.91919,35.61213],[5.91903,35.61196],[5.91896,35.61168],[5.91904,35.61129],[5.91897,35.61104],[5.91712,35.60844],[5.91667,35.60795],[5.91543,35.60694],[5.91333,35.60587],[5.91297,35.60556],[5.91273,35.60522],[5.91241,35.60438],[5.9122,35.60402],[5.91186,35.60373],[5.91163,35.60361],[5.91102,35.60355],[5.90927,35.60382],[5.90795,35.60398],[5.90718,35.60397],[5.90674,35.60388],[5.9065,35.60372],[5.906,35.6031],[5.90355,35.60049],[5.90332,35.60021],[5.90306,35.59979],[5.90268,35.59838],[5.90236,35.59689],[5.90228,35.59599],[5.90235,35.59499],[5.90093,35.59286],[5.90081,35.59221],[5.90094,35.59161],[5.90092,35.59111],[5.90078,35.59078],[5.90057,35.58999],[5.90079,35.5896],[5.901,35.58936],[5.9018,35.58879],[5.90201,35.58835],[5.90208,35.58748],[5.90199,35.5865],[5.90198,35.58598],[5.90209,35.58568],[5.90232,35.5853],[5.90274,35.58474],[5.90292,35.58415],[5.90291,35.58359],[5.90299,35.58295],[5.90323,35.58244],[5.90352,35.58201],[5.9037,35.58181],[5.90439,35.58155],[5.90492,35.58145],[5.90576,35.58155],[5.90655,35.58135],[5.90736,35.58094],[5.90783,35.58051],[5.90825,35.57994],[5.90851,35.57932],[5.90895,35.57874],[5.90923,35.57851],[5.90992,35.57808],[5.91227,35.57696],[5.913,35.57645],[5.91459,35.57489],[5.91478,35.57467],[5.9212,35.56462],[5.92147,35.56409],[5.92222,35.56191],[5.92233,35.56124],[5.9224,35.56035],[5.92234,35.56002],[5.92206,35.55918],[5.92245,35.55819],[5.92266,35.55717],[5.9229,35.55631],[5.92295,35.55454],[5.92304,35.55398],[5.923,35.55279],[5.92296,35.55236],[5.92272,35.55185],[5.92275,35.55099],[5.92265,35.55042],[5.92271,35.55019],[5.923,35.54987],[5.92353,35.54942],[5.92385,35.54903],[5.9241,35.54855],[5.92423,35.54793],[5.92459,35.54682],[5.92479,35.54638],[5.92551,35.54514],[5.92554,35.54492],[5.92538,35.54437],[5.92536,35.54403],[5.92533,35.54192],[5.92526,35.54131],[5.92531,35.54098],[5.92599,35.53995],[5.92685,35.53912],[5.92762,35.53807],[5.92805,35.53767],[5.92942,35.53598],[5.92984,35.53535],[5.9318,35.53323],[5.93258,35.53223],[5.93326,35.53161],[5.9342,35.53039],[5.93637,35.52825],[5.9371,35.5272],[5.93726,35.52686],[5.93767,35.5236],[5.93769,35.52123],[5.93764,35.51975],[5.93783,35.51812],[5.93809,35.51678],[5.93836,35.51595],[5.93857,35.51544],[5.93889,35.51472],[5.93962,35.51345],[5.93978,35.51291],[5.94021,35.51194],[5.94035,35.51178],[5.94056,35.51168],[5.94303,35.51104],[5.94487,35.51039],[5.94541,35.51034],[5.9464,35.51035],[5.94855,35.51002],[5.94885,35.5099],[5.94948,35.50941],[5.9497,35.50934],[5.95034,35.50927],[5.95185,35.50888],[5.95259,35.50882],[5.95355,35.50893],[5.95415,35.50872],[5.95439,35.50868],[5.95525,35.50881],[5.95593,35.50919],[5.95615,35.50925],[5.95683,35.50924],[5.95719,35.50936],[5.95738,35.50935],[5.95798,35.50901],[5.95822,35.50905],[5.95902,35.50889],[5.95939,35.50887],[5.96013,35.50887],[5.96059,35.50894],[5.96105,35.5089],[5.96155,35.50894],[5.96212,35.50905],[5.96271,35.50908],[5.9631,35.50902],[5.96416,35.50836],[5.96445,35.5083],[5.9655,35.50826],[5.96647,35.50836],[5.96779,35.50808],[5.96822,35.5081],[5.96915,35.50827],[5.96938,35.50837],[5.96975,35.50874],[5.97026,35.50903],[5.97057,35.5091],[5.97104,35.50914],[5.97125,35.50924],[5.97144,35.50937],[5.97162,35.50986],[5.97181,35.51007],[5.97214,35.51027],[5.97255,35.51042],[5.97317,35.51053],[5.97435,35.51107],[5.97485,35.51147],[5.97521,35.51162],[5.97585,35.51183],[5.97674,35.51201],[5.97738,35.51257],[5.97763,35.51264],[5.97831,35.51265],[5.97926,35.51275],[5.98016,35.51313],[5.98143,35.51337],[5.98223,35.51359],[5.98473,35.51464],[5.9857,35.51479],[5.98614,35.5149],[5.98637,35.51503],[5.98672,35.5156],[5.98693,35.51582],[5.98729,35.51601],[5.98996,35.51647],[5.9907,35.51629],[5.99096,35.51615],[5.99107,35.51618],[5.99111,35.51632],[5.99105,35.51646],[5.99047,35.51682],[5.9897,35.51708],[5.98952,35.51733],[5.98936,35.51744],[5.9884,35.5177],[5.98828,35.51783],[5.98829,35.51792],[5.98841,35.51802],[5.98967,35.51854],[5.991,35.51876],[5.99127,35.51871],[5.99222,35.51833],[5.99328,35.51775],[5.99435,35.51752],[5.99516,35.51749],[5.9955,35.51736],[5.99587,35.51714],[5.9968,35.51698],[5.99781,35.51659],[5.99812,35.51642],[5.99865,35.51603],[5.9989,35.51569],[5.99926,35.51457],[5.99928,35.51405],[5.99922,35.51346],[5.99933,35.5134],[5.99948,35.51353],[6.00024,35.51528],[6.00036,35.5166],[6.0006,35.51732],[6.00076,35.51817],[6.00065,35.52058],[6.00065,35.52226],[6.00045,35.52321]]}},{"type":"Feature","properties":{"Name":"Piste Tadeght Theniet el gantos praticable"},"geometry":{"type":"LineString","coordinates":[[5.93771,35.5213],[5.93838,35.52158],[5.94058,35.52304],[5.94105,35.52377],[5.94311,35.52567],[5.9435,35.52582],[5.94569,35.5282],[5.94625,35.52874],[5.94659,35.52918],[5.94755,35.53025],[5.94769,35.53113],[5.94791,35.532],[5.94835,35.53281],[5.94864,35.53317],[5.94879,35.53349],[5.94883,35.53397],[5.94879,35.53405],[5.94875,35.53405],[5.94868,35.53381],[5.94845,35.53347],[5.94817,35.5332],[5.94803,35.53312],[5.94762,35.53307],[5.94704,35.53287],[5.945,35.53271],[5.94436,35.53293],[5.94406,35.53295],[5.94337,35.53311],[5.94299,35.53327],[5.94262,35.53363],[5.94238,35.53374],[5.94211,35.53399],[5.94152,35.53436],[5.94097,35.53499],[5.94073,35.53511],[5.94057,35.53512],[5.94039,35.53519],[5.93971,35.53575],[5.9394,35.53619],[5.93945,35.53624],[5.93975,35.53595],[5.94012,35.53575],[5.94071,35.53552],[5.94128,35.53537],[5.94207,35.53497],[5.9428,35.53482],[5.94329,35.5346],[5.94364,35.53458],[5.94473,35.53434],[5.94471,35.53441],[5.9436,35.53499],[5.94268,35.53567],[5.94166,35.53655],[5.94123,35.53698],[5.94118,35.53707],[5.94126,35.53708],[5.94148,35.53688],[5.94186,35.53665],[5.94324,35.53605],[5.94364,35.53583],[5.94442,35.5357],[5.94458,35.53576],[5.94479,35.536],[5.94487,35.53617],[5.94486,35.53635],[5.94447,35.53754],[5.94446,35.53775],[5.94454,35.53849],[5.9447,35.53904],[5.94489,35.54024],[5.94527,35.54139],[5.94524,35.54164],[5.94503,35.54216],[5.94502,35.54269],[5.94506,35.54296],[5.9453,35.54355],[5.94528,35.54405],[5.94536,35.54436],[5.94578,35.54467],[5.94619,35.54527],[5.94639,35.54568],[5.9466,35.54591],[5.94684,35.54608],[5.94769,35.54631],[5.94801,35.54647],[5.94825,35.54668],[5.94841,35.54692],[5.94863,35.54768],[5.94874,35.54785],[5.94978,35.54801],[5.95039,35.54847],[5.95092,35.54907],[5.95116,35.54927],[5.95127,35.54926],[5.95175,35.54902],[5.9525,35.54901],[5.9529,35.54865],[5.9532,35.5483],[5.95326,35.54827],[5.95336,35.54834],[5.95346,35.54852],[5.95354,35.54901],[5.95376,35.54953],[5.95397,35.55095],[5.95388,35.55163],[5.95442,35.55234],[5.95446,35.55249],[5.95439,35.55304],[5.9545,35.55312],[5.95466,35.55311],[5.95501,35.55298],[5.95519,35.55284],[5.9559,35.55204],[5.95603,35.55176],[5.95653,35.55126],[5.95672,35.55075],[5.95689,35.55057],[5.95743,35.54965],[5.95781,35.54897],[5.95791,35.54869],[5.95798,35.54865],[5.95839,35.54869],[5.95898,35.54882],[5.96006,35.5489],[5.96039,35.54896],[5.96051,35.54895],[5.96059,35.54888],[5.96037,35.54796],[5.96053,35.54771],[5.96062,35.54732],[5.96101,35.54631],[5.96111,35.54593],[5.96132,35.54564],[5.96218,35.5449],[5.96251,35.54433],[5.96286,35.54416],[5.96338,35.54356],[5.96354,35.54313],[5.9637,35.54288],[5.96403,35.54279],[5.96431,35.5429],[5.96456,35.5431],[5.9648,35.54358],[5.9654,35.54415],[5.96686,35.54478],[5.96723,35.54502],[5.96731,35.54517],[5.96713,35.54531],[5.96554,35.54579],[5.96481,35.54626],[5.96358,35.54761],[5.96349,35.54775],[5.96341,35.5482],[5.96347,35.54911],[5.96364,35.54951],[5.96403,35.55007],[5.96438,35.55046],[5.96494,35.5509],[5.96495,35.55103],[5.96512,35.55156],[5.96499,35.55184],[5.96475,35.55212],[5.96445,35.55232],[5.96421,35.55265],[5.96399,35.55323],[5.96338,35.55424],[5.96295,35.5552],[5.96295,35.55533],[5.96315,35.55548],[5.96321,35.55575],[5.96345,35.55602],[5.96349,35.55618],[5.96346,35.5566],[5.96365,35.55728],[5.96374,35.55805],[5.96393,35.55899],[5.96399,35.55948],[5.96394,35.55971],[5.96404,35.55989],[5.9641,35.56028],[5.96446,35.56059],[5.96491,35.56145],[5.965,35.5615],[5.96508,35.56147],[5.96542,35.56107],[5.96579,35.56088],[5.96707,35.56081],[5.96756,35.56086],[5.96787,35.56083],[5.96823,35.56068],[5.96853,35.56041],[5.96889,35.56038],[5.96926,35.56056],[5.96992,35.56077],[5.97019,35.5611],[5.97039,35.56156],[5.9709,35.56162],[5.9714,35.56174],[5.97156,35.5618],[5.97204,35.56217],[5.97217,35.56219],[5.97285,35.56205],[5.97311,35.56209],[5.97333,35.56306],[5.97389,35.56419],[5.97435,35.56491],[5.97468,35.56525],[5.97597,35.56609],[5.97609,35.56614],[5.97759,35.56641],[5.98015,35.56741],[5.98125,35.56767],[5.98165,35.56791],[5.98195,35.56801],[5.98352,35.56801],[5.98435,35.56782],[5.98491,35.568],[5.9857,35.56853],[5.98622,35.56874],[5.98657,35.56898],[5.98668,35.56907],[5.98672,35.56929],[5.9869,35.5694],[5.98714,35.56981],[5.98741,35.57002],[5.9875,35.57031],[5.98778,35.57057],[5.98832,35.57077],[5.98874,35.57083],[5.98983,35.57116],[5.99004,35.57132],[5.99037,35.5717],[5.99053,35.57208],[5.99045,35.57234],[5.99027,35.57257],[5.99028,35.57288],[5.99019,35.57324],[5.99028,35.57369],[5.99025,35.5739],[5.9903,35.57443],[5.98992,35.57485],[5.98982,35.57503]]}},{"type":"Feature","properties":{"Name":"Piste Bouikhfaouen"},"geometry":{"type":"LineString","coordinates":[[6.23151,35.67053],[6.23164,35.67141],[6.23119,35.67195],[6.2319,35.67282],[6.23261,35.6735],[6.23279,35.67414],[6.23233,35.67479],[6.23197,35.67566],[6.23093,35.67702],[6.23065,35.67793],[6.23058,35.67996],[6.23022,35.68074],[6.22971,35.68566]]}},{"type":"Feature","properties":{"Name":"Piste Tinezough mekaidou"},"geometry":{"type":"LineString","coordinates":[[6.18729,35.68822],[6.18721,35.68804],[6.18667,35.68767],[6.18628,35.68745],[6.18585,35.68729],[6.18537,35.68723],[6.18448,35.68742],[6.18424,35.68741],[6.18354,35.68719],[6.18302,35.68671],[6.18282,35.6866],[6.18241,35.68661],[6.18198,35.68677],[6.18182,35.68678],[6.18132,35.68646],[6.1812,35.68625],[6.1812,35.68589],[6.18151,35.68559],[6.18162,35.68532],[6.18144,35.685],[6.18138,35.68465],[6.18116,35.6844],[6.18111,35.68427],[6.1811,35.68401],[6.18119,35.68345],[6.18103,35.68296],[6.18104,35.68255],[6.1809,35.6823],[6.18056,35.68189],[6.18052,35.68167],[6.18076,35.68122],[6.1812,35.68081],[6.18134,35.68052],[6.18136,35.68036],[6.18131,35.68022],[6.18088,35.67986],[6.18071,35.67958],[6.18055,35.67913],[6.18012,35.6783],[6.18003,35.67782],[6.18005,35.67761],[6.18026,35.67726],[6.18033,35.67702],[6.18048,35.6761],[6.18048,35.67578],[6.18034,35.6756],[6.17989,35.67534],[6.17965,35.67491],[6.17884,35.67437],[6.17876,35.67416],[6.17884,35.67394],[6.17919,35.6737],[6.17925,35.67359],[6.17915,35.67328],[6.17935,35.67278],[6.17924,35.6724],[6.17931,35.67222],[6.17981,35.67209],[6.17995,35.672],[6.18008,35.6718],[6.18019,35.67143],[6.18035,35.67126],[6.18061,35.67117],[6.18132,35.67109],[6.18154,35.67088],[6.1816,35.6705],[6.18137,35.67007],[6.18131,35.66985],[6.18132,35.66971],[6.18154,35.6693],[6.18146,35.66914],[6.181,35.66876],[6.18038,35.66858],[6.18013,35.66855],[6.17915,35.66865],[6.17863,35.66855],[6.17819,35.66855],[6.17739,35.66839],[6.17708,35.66847],[6.17647,35.66898],[6.17623,35.66927],[6.17598,35.66976],[6.17553,35.67029],[6.17532,35.67032],[6.17492,35.67023],[6.17467,35.67016],[6.17438,35.67],[6.17422,35.6698],[6.17434,35.66926],[6.17428,35.66859],[6.17418,35.66831],[6.17356,35.66766],[6.17334,35.66705],[6.17314,35.66667],[6.17236,35.66597],[6.17196,35.6652],[6.17132,35.66477],[6.17036,35.66444],[6.17027,35.6642],[6.1704,35.66393],[6.17041,35.66374],[6.1697,35.66228],[6.16948,35.66214],[6.16905,35.6621],[6.16846,35.66176],[6.16792,35.66163],[6.16769,35.66141],[6.16756,35.66118],[6.16742,35.66108],[6.1673,35.66105],[6.16686,35.66112],[6.16655,35.66098],[6.16644,35.66085],[6.1664,35.6605],[6.16629,35.66033],[6.16613,35.6602],[6.16575,35.66009],[6.16564,35.65998],[6.16556,35.65976],[6.16524,35.65954],[6.1652,35.65883],[6.16512,35.65856],[6.16499,35.65837],[6.16482,35.65828],[6.1646,35.65823],[6.16405,35.65823],[6.16346,35.65833],[6.16301,35.65853],[6.16263,35.65853],[6.1616,35.65823],[6.16109,35.65779],[6.16035,35.65742],[6.16008,35.6574],[6.15919,35.65752],[6.15893,35.6575],[6.15871,35.6574],[6.15855,35.65725],[6.15843,35.65701],[6.1584,35.65682],[6.15847,35.65669],[6.15849,35.65635],[6.15842,35.6562],[6.15773,35.65588],[6.15761,35.65564],[6.15761,35.65526],[6.15753,35.65498],[6.15713,35.65479],[6.15661,35.6544],[6.15622,35.65422],[6.15565,35.65427],[6.15542,35.65413],[6.15524,35.65393],[6.15484,35.65363],[6.15455,35.6535],[6.15434,35.65329],[6.15436,35.6531],[6.15448,35.65288],[6.15457,35.65253],[6.15433,35.65205],[6.15345,35.65157],[6.1528,35.65141],[6.15246,35.65119],[6.15087,35.65053],[6.15077,35.65031],[6.15059,35.65013],[6.14982,35.64972],[6.14934,35.64926],[6.14873,35.64898],[6.14667,35.64839],[6.14613,35.64833],[6.14578,35.64792],[6.14512,35.64734],[6.14473,35.64708],[6.14434,35.64689],[6.14392,35.64679],[6.14352,35.6465],[6.14206,35.64561],[6.14188,35.64531],[6.14152,35.64506],[6.14111,35.64488],[6.14062,35.64438],[6.14057,35.64409],[6.14031,35.64378],[6.14016,35.64346],[6.14013,35.64309],[6.13969,35.6425],[6.13884,35.64186],[6.13754,35.64105],[6.13712,35.64096],[6.1366,35.64078],[6.13595,35.64043],[6.13554,35.63998],[6.13469,35.63923],[6.13452,35.63901],[6.13478,35.63877],[6.13498,35.6387],[6.13506,35.63849]]}},{"type":"Feature","properties":{"Name":"Piste Benchadi (01)"},"geometry":{"type":"LineString","coordinates":[[6.20834,35.59235],[6.20809,35.59268],[6.2074,35.59324],[6.20698,35.59346],[6.20502,35.59348],[6.20111,35.59308],[6.20033,35.59311],[6.2001,35.59316],[6.19819,35.594],[6.19688,35.59449],[6.19611,35.59475],[6.19497,35.59502],[6.19442,35.595],[6.19324,35.59472],[6.19279,35.59469],[6.19112,35.59477],[6.18962,35.59471],[6.1888,35.5949],[6.18833,35.59512],[6.18738,35.59601],[6.18674,35.59717],[6.18665,35.59751],[6.18674,35.59805],[6.18703,35.59825],[6.18774,35.59829],[6.18837,35.59822],[6.18861,35.59826],[6.18911,35.59839],[6.19023,35.59885],[6.19041,35.59881],[6.19085,35.59847],[6.19087,35.59824],[6.19068,35.59796],[6.19067,35.59787],[6.19075,35.59786]]}},{"type":"Feature","properties":{"Name":"Piste Benchadi (01)"},"geometry":{"type":"LineString","coordinates":[[6.19621,35.59955],[6.19561,35.59958],[6.1972,35.59947],[6.19732,35.59953],[6.19795,35.60061],[6.19923,35.60179],[6.20006,35.60063],[6.20077,35.59987],[6.20111,35.5994],[6.20122,35.59921],[6.20117,35.59905],[6.20123,35.59889],[6.20326,35.59833],[6.20374,35.59893],[6.20417,35.59931],[6.20517,35.59972],[6.20571,35.59987],[6.20599,35.6001],[6.20621,35.60019],[6.20634,35.6],[6.20667,35.59977],[6.20741,35.59958],[6.2083,35.59918],[6.20906,35.59905],[6.20926,35.59889],[6.20926,35.59872],[6.20935,35.59866],[6.20992,35.59856],[6.21017,35.59832],[6.21037,35.59798],[6.21047,35.59724]]}},{"type":"Feature","properties":{"Name":"Piste Koudiat Menkouch vers lcar lmahroug (01)"},"geometry":{"type":"LineString","coordinates":[[6.26037,35.65009],[6.26025,35.64988],[6.26026,35.64958],[6.26035,35.64937],[6.26047,35.64927],[6.26062,35.64924],[6.26086,35.64911],[6.26167,35.64826],[6.26179,35.64818],[6.26315,35.64814],[6.26356,35.64821],[6.26438,35.64847],[6.2648,35.6485],[6.26522,35.64845],[6.26537,35.64841],[6.26621,35.64766],[6.26653,35.64743],[6.26727,35.64712],[6.26814,35.64657],[6.26957,35.64543],[6.27,35.64492],[6.27081,35.64414],[6.27314,35.64169],[6.27491,35.64025],[6.2752,35.64006]]}},{"type":"Feature","properties":{"Name":"Piste kassrou vers Djerma"},"geometry":{"type":"LineString","coordinates":[[6.26039,35.6501],[6.2604,35.65017],[6.26024,35.65022],[6.2595,35.65005],[6.25838,35.65001],[6.25794,35.65009],[6.25768,35.65001],[6.25742,35.65006],[6.25723,35.65019],[6.25704,35.65003],[6.25693,35.64979],[6.25681,35.64973],[6.25534,35.6494],[6.25521,35.64941],[6.25448,35.64981],[6.25436,35.64981],[6.25417,35.64969],[6.25382,35.64972],[6.25368,35.64956],[6.25378,35.64931],[6.25375,35.6492],[6.25362,35.64908],[6.25336,35.64902],[6.25291,35.64902],[6.25188,35.64828],[6.25152,35.64812],[6.25126,35.64807],[6.25095,35.64816],[6.25082,35.6481],[6.25081,35.64784],[6.2507,35.64773],[6.25051,35.64764],[6.25009,35.64761],[6.24986,35.64745],[6.24933,35.64723],[6.24893,35.64696],[6.2487,35.64659],[6.2481,35.64634],[6.2479,35.64613],[6.2476,35.64592],[6.24703,35.64561],[6.2468,35.64542],[6.24629,35.64512],[6.24575,35.6445],[6.24541,35.64398],[6.24382,35.64337],[6.24362,35.64332],[6.2431,35.64331],[6.24267,35.64322],[6.24164,35.64357],[6.23925,35.64329],[6.23817,35.64333],[6.23765,35.64324],[6.23666,35.64318],[6.23645,35.64322],[6.23597,35.64307],[6.2343,35.64286],[6.23396,35.64285],[6.23363,35.64302],[6.23308,35.64307],[6.2328,35.64294],[6.23166,35.64273],[6.2309,35.64246],[6.23049,35.64248],[6.22935,35.64268],[6.22894,35.64264],[6.22863,35.64267],[6.22842,35.64259],[6.22812,35.64218],[6.22759,35.64186],[6.22637,35.6415],[6.2257,35.64111],[6.22547,35.64105],[6.22489,35.64105],[6.22423,35.64066],[6.22376,35.64048],[6.22266,35.64044],[6.22223,35.6403],[6.22196,35.64015],[6.22178,35.63986],[6.22133,35.63951],[6.22107,35.63902],[6.22077,35.63886],[6.22066,35.6387],[6.22065,35.63856],[6.22033,35.63833],[6.22031,35.63816],[6.22036,35.63783],[6.22024,35.63749],[6.22057,35.63719],[6.22055,35.63709],[6.22031,35.63686],[6.21933,35.63617],[6.21891,35.63599],[6.21856,35.63588],[6.21799,35.63585],[6.2178,35.63569],[6.21535,35.63283],[6.21509,35.63233],[6.21473,35.63142],[6.21434,35.63072],[6.21401,35.63026],[6.21367,35.63022],[6.21325,35.63026],[6.21286,35.63016],[6.21187,35.63006],[6.21161,35.62992],[6.21155,35.62982],[6.21154,35.6296],[6.21136,35.6295],[6.2091,35.62911],[6.20903,35.62906],[6.20895,35.62884],[6.20851,35.62847],[6.20851,35.62818],[6.20864,35.62795],[6.20912,35.62775],[6.20923,35.62757],[6.20916,35.62744],[6.20902,35.62734],[6.20876,35.62723],[6.2081,35.62732],[6.20789,35.62729],[6.20792,35.62716],[6.20834,35.62688],[6.20866,35.62676],[6.20878,35.62657],[6.20882,35.62624],[6.20879,35.62592],[6.20819,35.62507],[6.20818,35.62497],[6.20825,35.62477],[6.20835,35.62472],[6.20907,35.62456],[6.20919,35.62448],[6.2092,35.62443],[6.20872,35.62386],[6.20776,35.62294],[6.20763,35.62267],[6.20741,35.62246],[6.20679,35.62238],[6.20575,35.62171],[6.20519,35.62128],[6.20437,35.62052],[6.20363,35.62028],[6.20312,35.62022],[6.20256,35.62023],[6.20139,35.62007],[6.20096,35.62007],[6.20043,35.62016],[6.20014,35.62008],[6.19981,35.61991],[6.19795,35.61958],[6.19651,35.61896],[6.19593,35.61888],[6.19516,35.61881],[6.19448,35.61893],[6.19382,35.6189],[6.19343,35.61911]]}},{"type":"Feature","properties":{},"geometry":{"type":"LineString","coordinates":[[6.18906,35.62353],[6.18982,35.62283],[6.19091,35.62214],[6.19161,35.62179],[6.19176,35.62164],[6.1922,35.62106],[6.1925,35.6205],[6.1931,35.61987],[6.19339,35.61944],[6.19347,35.61928],[6.19339,35.61903]]}},{"type":"Feature","properties":{"Name":"Piste msarat vers thniet Laadjoul"},"geometry":{"type":"LineString","coordinates":[[6.13186,35.61535],[6.13293,35.61566],[6.13387,35.61567],[6.1343,35.61576],[6.13443,35.61584],[6.13493,35.61679],[6.13551,35.61723],[6.13702,35.61794],[6.13759,35.61807],[6.14035,35.61933],[6.14118,35.61991],[6.14183,35.62051],[6.14216,35.62092],[6.1422,35.62106],[6.14211,35.62137],[6.14199,35.62228],[6.14193,35.62246],[6.14139,35.62282],[6.14131,35.62323],[6.14111,35.62353],[6.141,35.62399],[6.1405,35.62441],[6.14,35.62462],[6.13969,35.62492],[6.13952,35.62498],[6.13945,35.62507],[6.13948,35.62525],[6.1404,35.62568],[6.14071,35.62593],[6.14087,35.62597],[6.14156,35.62595],[6.14205,35.62606],[6.14234,35.62595],[6.14296,35.62584],[6.14341,35.62564],[6.14439,35.62535],[6.14539,35.62479],[6.14585,35.62458],[6.14693,35.62381],[6.14724,35.62371],[6.14789,35.62375],[6.14846,35.62392],[6.15034,35.62493],[6.15119,35.62585],[6.15125,35.62616],[6.15118,35.62654],[6.15084,35.6267],[6.1507,35.62683],[6.15016,35.62739],[6.14995,35.62754],[6.14939,35.62832],[6.14898,35.6286],[6.14874,35.62885],[6.14684,35.62972],[6.14649,35.62995],[6.14647,35.63011],[6.14689,35.63047],[6.14705,35.63109],[6.1471,35.63115],[6.14722,35.6312],[6.14796,35.63102],[6.14841,35.63109],[6.14893,35.63135],[6.14905,35.63183],[6.1492,35.63197],[6.14946,35.63202],[6.14996,35.6322],[6.15054,35.63212],[6.15097,35.63214],[6.15131,35.6322],[6.15172,35.6324],[6.15222,35.63286],[6.15259,35.63299],[6.1528,35.633],[6.15424,35.63252],[6.15462,35.63255],[6.15494,35.6327],[6.15517,35.6329],[6.15569,35.63371],[6.15604,35.63394],[6.15635,35.63406],[6.15657,35.63404],[6.15679,35.63394],[6.15709,35.63369],[6.15776,35.63337],[6.15884,35.63307],[6.15948,35.63298],[6.16012,35.63309],[6.16053,35.6334],[6.16074,35.6338],[6.16076,35.63435],[6.16044,35.63578],[6.16048,35.63603],[6.16083,35.63655],[6.16102,35.63701],[6.16104,35.6375],[6.16098,35.63766],[6.16084,35.63778],[6.16054,35.63787],[6.16038,35.63785],[6.15993,35.63768],[6.1593,35.63771],[6.15793,35.63817],[6.15764,35.63808],[6.15725,35.63782],[6.15677,35.63784],[6.15651,35.63769],[6.15635,35.63767],[6.1558,35.63785],[6.1549,35.6375],[6.15451,35.63747],[6.15382,35.63723],[6.15359,35.63726],[6.15346,35.63739],[6.15343,35.63758],[6.15403,35.63892],[6.15419,35.63915],[6.15409,35.63932],[6.15371,35.63953],[6.15365,35.63975],[6.15369,35.64031],[6.15406,35.64101],[6.1541,35.64123],[6.15404,35.64132],[6.15389,35.64139],[6.15344,35.64144],[6.15302,35.64159],[6.15248,35.64143],[6.15208,35.64143],[6.15126,35.64155],[6.15111,35.64153],[6.15091,35.64144],[6.15029,35.64084],[6.15013,35.64077],[6.14975,35.64087],[6.14941,35.64107],[6.149,35.6411],[6.14884,35.64139],[6.14873,35.64147],[6.14801,35.64144],[6.14744,35.64156],[6.14713,35.64155],[6.14689,35.64149],[6.14625,35.64121],[6.14608,35.64117],[6.14582,35.64121],[6.14553,35.6414],[6.14535,35.64141],[6.14492,35.64121],[6.14458,35.6408],[6.14442,35.64072],[6.14287,35.64102],[6.14263,35.64103],[6.14231,35.64086],[6.14203,35.64051],[6.14189,35.64045],[6.14159,35.64054],[6.14115,35.6405],[6.14052,35.6406],[6.13948,35.64043],[6.13842,35.64018],[6.13694,35.63948],[6.13604,35.63892],[6.13541,35.6386],[6.13348,35.63788],[6.13204,35.63714],[6.12942,35.63657],[6.12782,35.636],[6.12646,35.63571],[6.12462,35.63507],[6.12303,35.6344],[6.11997,35.63353],[6.11875,35.63366],[6.11837,35.63381],[6.11753,35.63387],[6.1172,35.63469],[6.11713,35.63518],[6.11667,35.6352],[6.11433,35.63411],[6.11312,35.63362],[6.11136,35.63316],[6.10932,35.63228],[6.10377,35.63065],[6.10272,35.63011],[6.10144,35.62968],[6.10037,35.62889],[6.09878,35.62807],[6.09766,35.62756],[6.0968,35.62739],[6.09628,35.62685],[6.09568,35.62677],[6.0949,35.62645],[6.09393,35.62613],[6.09237,35.62516],[6.09121,35.62493],[6.08916,35.6249],[6.08776,35.62463],[6.08635,35.62388]]}},{"type":"Feature","properties":{"Name":"Piste fesdis"},"geometry":{"type":"LineString","coordinates":[[6.11338,35.6026],[6.1131,35.60294],[6.11307,35.60306],[6.11312,35.60316],[6.1135,35.60355],[6.11447,35.60438],[6.11504,35.60455],[6.11537,35.60457],[6.11625,35.60443],[6.11689,35.60442],[6.11733,35.60427],[6.11782,35.60427],[6.11914,35.6047],[6.11978,35.60507],[6.12009,35.60537],[6.1204,35.60558],[6.12052,35.60589],[6.12081,35.60617],[6.12091,35.60642],[6.12078,35.60673],[6.1204,35.60709],[6.12037,35.60747],[6.11998,35.6082],[6.12021,35.60858],[6.12017,35.60886],[6.12021,35.60904],[6.1205,35.60932],[6.12074,35.60964],[6.121,35.60979],[6.12127,35.61007],[6.12202,35.61043],[6.12256,35.61052],[6.12286,35.61073],[6.12331,35.6114],[6.12335,35.61185],[6.12313,35.61218],[6.1231,35.61233],[6.12314,35.61242],[6.12341,35.61263],[6.12382,35.6128],[6.12437,35.61295],[6.12474,35.61335],[6.12568,35.61385],[6.12647,35.61414],[6.12707,35.61401],[6.1275,35.61377],[6.12796,35.6138],[6.12813,35.61386],[6.12835,35.61407],[6.12868,35.61427],[6.12939,35.61447],[6.12996,35.61474],[6.13025,35.61493],[6.13115,35.61507],[6.13156,35.61519],[6.13187,35.61535],[6.13302,35.61551],[6.13424,35.61532],[6.13474,35.61535],[6.13495,35.61546],[6.135,35.61587],[6.13506,35.61599],[6.13538,35.6162],[6.13568,35.61649],[6.13613,35.61676],[6.13759,35.61718],[6.1381,35.61723],[6.13862,35.61737],[6.13931,35.61747],[6.13965,35.61761],[6.14036,35.61772],[6.1409,35.6179],[6.14134,35.61821],[6.14201,35.61853],[6.14246,35.61866],[6.14292,35.619],[6.1432,35.61915],[6.14399,35.61945],[6.14418,35.61988],[6.14463,35.62032],[6.14478,35.62054],[6.14473,35.62085],[6.14441,35.62167],[6.14442,35.62176],[6.14448,35.62179],[6.14631,35.62076],[6.14642,35.6208],[6.14645,35.62108],[6.14656,35.62118],[6.14687,35.62112],[6.14789,35.62122],[6.14816,35.62131],[6.14854,35.62124],[6.14913,35.62128],[6.14969,35.62145],[6.15031,35.62152],[6.15065,35.62164],[6.15135,35.62147],[6.15198,35.62144],[6.15239,35.62128],[6.15307,35.62147],[6.15376,35.62159],[6.15456,35.62131],[6.15516,35.62077],[6.15529,35.62071],[6.15539,35.62073],[6.15748,35.6218],[6.15846,35.62244],[6.1589,35.62252],[6.15996,35.62303],[6.16041,35.62335],[6.16117,35.62375],[6.16174,35.62391],[6.16182,35.62401],[6.16173,35.62429],[6.16177,35.62438],[6.16212,35.6245],[6.16286,35.62495],[6.1637,35.62525],[6.16465,35.62568],[6.1648,35.62579],[6.16514,35.6259],[6.16627,35.6261],[6.16703,35.62632],[6.16799,35.62648],[6.16876,35.62655],[6.16922,35.62669],[6.16988,35.62651],[6.17042,35.62624],[6.17117,35.62637],[6.17141,35.62631],[6.17167,35.62586],[6.17263,35.62482],[6.17317,35.6245],[6.17367,35.62435],[6.17398,35.62434],[6.17468,35.62467],[6.17641,35.62474],[6.17771,35.62466],[6.17845,35.62449],[6.18068,35.62445],[6.18162,35.62418],[6.18256,35.62364],[6.18302,35.62348],[6.18347,35.62323],[6.18377,35.62313],[6.18466,35.62332],[6.18543,35.62362],[6.18652,35.62374],[6.18732,35.62372],[6.18792,35.62354],[6.1887,35.62359],[6.18906,35.62353],[6.18909,35.62365],[6.18904,35.62406],[6.18904,35.62504],[6.18893,35.62522],[6.18793,35.62573],[6.18727,35.62629],[6.18667,35.62661],[6.18614,35.62718],[6.18516,35.62789],[6.18486,35.62826],[6.18697,35.62883],[6.18795,35.62894],[6.18866,35.62919],[6.18955,35.62932],[6.19001,35.62932],[6.19171,35.62918],[6.19267,35.62923],[6.19352,35.62912],[6.19402,35.62912],[6.19504,35.62898],[6.1953,35.62902],[6.19583,35.62922],[6.19642,35.62925],[6.1972,35.62954],[6.19744,35.62972],[6.19828,35.6299],[6.19906,35.63025],[6.19991,35.63048],[6.20037,35.63073],[6.20093,35.63083],[6.20126,35.63079],[6.20147,35.63083],[6.20158,35.63096],[6.20178,35.63143],[6.20247,35.63197],[6.20254,35.6322],[6.20271,35.63246],[6.20383,35.63352],[6.20447,35.63405],[6.20501,35.6347],[6.2051,35.63493],[6.20509,35.63521],[6.2048,35.63531],[6.20464,35.63546],[6.20465,35.63568],[6.2047,35.63573],[6.20601,35.63581],[6.20621,35.63576],[6.2075,35.63476],[6.20869,35.63395],[6.20897,35.63384],[6.20992,35.63418],[6.21041,35.63443],[6.21097,35.63497],[6.21084,35.63517],[6.21078,35.6354],[6.21085,35.63548],[6.21111,35.63557],[6.21141,35.63557],[6.21209,35.63574],[6.21286,35.63555],[6.21352,35.63556],[6.21395,35.63544],[6.21425,35.6353],[6.21459,35.6353],[6.21783,35.63586],[6.21856,35.63593],[6.21893,35.63603],[6.21939,35.63625],[6.21977,35.63659],[6.22027,35.63689],[6.22049,35.63712],[6.22053,35.63721],[6.22025,35.63751],[6.22032,35.63788],[6.22032,35.63832],[6.22045,35.63849],[6.22063,35.63861],[6.2207,35.63885],[6.22096,35.63897],[6.22129,35.63957],[6.22171,35.63987],[6.22188,35.64014],[6.22202,35.64026],[6.22256,35.64046],[6.22343,35.64049],[6.2238,35.64055],[6.22407,35.64065],[6.22488,35.64108],[6.2256,35.64113],[6.22628,35.64153],[6.22755,35.64188],[6.22822,35.64235],[6.22849,35.64268],[6.22908,35.64264],[6.22942,35.64269],[6.23003,35.64258],[6.23084,35.64249],[6.23185,35.64282],[6.23287,35.643],[6.23315,35.64312],[6.23338,35.64305],[6.23367,35.64303],[6.23401,35.64284],[6.23436,35.64293],[6.23596,35.64309],[6.23647,35.64325],[6.23668,35.64323],[6.23721,35.64332],[6.23807,35.64337],[6.23914,35.64335],[6.23973,35.64342],[6.23998,35.6434],[6.24045,35.64353],[6.24163,35.64364],[6.24184,35.64359],[6.24214,35.6434],[6.24259,35.64327],[6.24323,35.64339],[6.24362,35.64334],[6.24371,35.64341],[6.24391,35.64343],[6.24469,35.64371],[6.24537,35.644],[6.24585,35.64466],[6.24613,35.64493],[6.24626,35.64512],[6.24646,35.64527],[6.24673,35.64539],[6.24695,35.64561],[6.24797,35.64623],[6.24828,35.6465],[6.24875,35.64668],[6.24897,35.64706],[6.24925,35.64724],[6.25015,35.6477],[6.25046,35.6477],[6.25067,35.64776],[6.25079,35.64788],[6.25088,35.64819],[6.25106,35.64821],[6.2513,35.6481],[6.25152,35.64816],[6.25174,35.64824],[6.25293,35.64908],[6.25342,35.64907],[6.25363,35.64916],[6.25374,35.64929],[6.25372,35.64967],[6.25383,35.64976],[6.25414,35.64974],[6.25453,35.64987],[6.25509,35.64951],[6.25549,35.64947],[6.25596,35.64962],[6.25679,35.64979],[6.2569,35.64986],[6.257,35.65006],[6.25719,35.65026],[6.25765,35.65007],[6.25807,35.65012],[6.2586,35.65003],[6.25979,35.65012],[6.26024,35.65029],[6.26055,35.65034],[6.26143,35.65118],[6.26224,35.65231],[6.263,35.65287],[6.26318,35.65306],[6.26471,35.65506],[6.26506,35.65602],[6.2649,35.65626],[6.26482,35.65689],[6.26481,35.65746],[6.26463,35.65796],[6.26443,35.65831],[6.26361,35.65916],[6.26341,35.65947],[6.26332,35.66048],[6.26344,35.66114],[6.26331,35.66199],[6.26338,35.66212],[6.26351,35.66223],[6.26372,35.66232],[6.26405,35.66236],[6.26419,35.66246],[6.26432,35.66263],[6.26442,35.6629],[6.26412,35.66397],[6.26312,35.66504],[6.26301,35.66527],[6.26301,35.66551],[6.26311,35.66587],[6.26321,35.66602],[6.26492,35.66844],[6.26514,35.66886],[6.26514,35.66906],[6.2649,35.6706],[6.26492,35.67106],[6.26501,35.6713],[6.26526,35.67157],[6.26668,35.67284],[6.26706,35.67306],[6.26775,35.67366],[6.26811,35.67407],[6.26814,35.67432],[6.26799,35.67508],[6.26799,35.67552],[6.26884,35.67857],[6.26884,35.67985],[6.26877,35.68006],[6.26865,35.6802]]}},{"type":"Feature","properties":{"Name":"Piste fesdis 02"},"geometry":{"type":"LineString","coordinates":[[6.18457,35.62909],[6.18406,35.62971],[6.18361,35.62995],[6.18299,35.63015],[6.18214,35.63008],[6.18098,35.62968],[6.18013,35.62964],[6.17975,35.6294],[6.17925,35.62922],[6.17881,35.62915],[6.17818,35.62876],[6.17752,35.62866],[6.17692,35.62816],[6.17554,35.62804],[6.17432,35.62776],[6.17365,35.62771],[6.17278,35.62754],[6.17206,35.62763],[6.17179,35.62802],[6.17185,35.62842],[6.17162,35.62856],[6.17101,35.62842],[6.17082,35.62783],[6.17138,35.62698],[6.17148,35.62659],[6.1715,35.62622]]}},{"type":"Feature","properties":{"Name":"Piste Boukhris"},"geometry":{"type":"LineString","coordinates":[[6.11973,35.5874],[6.11985,35.58749],[6.11999,35.58774],[6.1202,35.58794],[6.12031,35.58851],[6.12048,35.58878],[6.12057,35.58881],[6.12089,35.58867],[6.12114,35.58823],[6.12124,35.58817],[6.12134,35.58825],[6.12137,35.58871],[6.1214,35.58882],[6.1215,35.5889],[6.12161,35.58884],[6.12167,35.5886],[6.12209,35.58851],[6.12275,35.58849],[6.12342,35.58863],[6.12414,35.5884],[6.12435,35.58828],[6.12469,35.58821],[6.12582,35.58764],[6.12627,35.58754],[6.12773,35.58742],[6.12834,35.58748],[6.12883,35.58759],[6.12886,35.58758],[6.12879,35.58749],[6.1288,35.58743],[6.12891,35.58733],[6.12947,35.58721],[6.13048,35.58716],[6.1314,35.58731],[6.13164,35.58717],[6.13217,35.58716],[6.13244,35.58722],[6.13257,35.58709],[6.13263,35.58693],[6.1326,35.58674],[6.13251,35.58653],[6.13224,35.58615],[6.13204,35.58562],[6.13226,35.58509],[6.13259,35.58466],[6.13315,35.58437],[6.1334,35.58429],[6.13434,35.58417],[6.13464,35.58422],[6.13519,35.58444],[6.13599,35.585],[6.13609,35.58521],[6.13609,35.58596],[6.13617,35.5868],[6.13627,35.58687],[6.13691,35.58705],[6.13712,35.58723],[6.13724,35.58722],[6.13728,35.58704],[6.13741,35.58686],[6.13751,35.58681],[6.13848,35.58675],[6.13876,35.5868],[6.13947,35.58678],[6.14076,35.58669],[6.14305,35.58669],[6.14314,35.58678],[6.14316,35.58687],[6.14301,35.58742],[6.14293,35.58805],[6.14307,35.58819],[6.14307,35.58837],[6.14347,35.58855],[6.14372,35.58859],[6.14406,35.58845],[6.14438,35.58846],[6.14493,35.58873],[6.1453,35.58878],[6.14568,35.58869],[6.14723,35.58811],[6.14985,35.58722],[6.15051,35.5869],[6.15093,35.5864],[6.15126,35.58619],[6.15143,35.58616],[6.15324,35.58594],[6.15615,35.58549],[6.15676,35.58547],[6.15757,35.5855],[6.15812,35.58545],[6.15875,35.58545],[6.16183,35.58558],[6.16207,35.58565],[6.16367,35.58578],[6.16382,35.58587],[6.16398,35.58607],[6.16407,35.5861],[6.16425,35.58604],[6.16443,35.58583],[6.16456,35.58578],[6.16466,35.58612],[6.16482,35.58621],[6.16646,35.58646],[6.16667,35.58656],[6.16699,35.58689],[6.16708,35.58684],[6.16711,35.58667],[6.16727,35.5866],[6.16837,35.58701],[6.16904,35.58712],[6.17004,35.58741],[6.17021,35.58767],[6.17042,35.58768],[6.17103,35.58788],[6.17338,35.5889],[6.17362,35.58919],[6.17364,35.58944],[6.17378,35.58944],[6.17437,35.5896],[6.17477,35.58977],[6.17649,35.59067],[6.17663,35.59086],[6.17709,35.59098],[6.17895,35.59195],[6.17917,35.59217],[6.17928,35.59269],[6.17939,35.5928],[6.17953,35.59281],[6.17961,35.59276],[6.17974,35.59248],[6.17988,35.59246],[6.18209,35.59358],[6.18257,35.59401],[6.18342,35.59493],[6.18348,35.59504],[6.18343,35.59525],[6.18348,35.59533],[6.18388,35.59535],[6.18464,35.5961],[6.18467,35.59619],[6.18461,35.59647],[6.18465,35.59679],[6.18476,35.59683],[6.185,35.59663],[6.18526,35.59652],[6.18662,35.59724]]}},{"type":"Feature","properties":{"Name":"carriere Djebes"},"geometry":{"type":"LineString","coordinates":[[6.27691,35.68315],[6.27723,35.6828],[6.27751,35.68238],[6.27724,35.68122],[6.27693,35.68059],[6.27675,35.68007],[6.27668,35.67967],[6.2767,35.67937],[6.27605,35.67943],[6.27572,35.67952],[6.27498,35.67953],[6.2746,35.67941],[6.27415,35.6791]]}},{"type":"Feature","properties":{"Name":"Piste Djerma"},"geometry":{"type":"LineString","coordinates":[[6.28158,35.67444],[6.28183,35.67398],[6.28218,35.67361],[6.28134,35.67307],[6.28073,35.67231],[6.27975,35.67086],[6.27888,35.67002],[6.27862,35.66934],[6.27673,35.66708],[6.27647,35.66635],[6.27503,35.66457],[6.27394,35.66339],[6.27252,35.66207],[6.27203,35.66154],[6.2714,35.66105],[6.27065,35.66035],[6.27006,35.66001],[6.2694,35.6595],[6.26868,35.65903],[6.26784,35.65832],[6.26741,35.65783],[6.26707,35.65774],[6.26685,35.65733],[6.26631,35.65689],[6.26613,35.65664],[6.26526,35.65596],[6.26502,35.65594]]}},{"type":"Feature","properties":{"Name":"maison forestiere ouled manaa vers tadekht"},"geometry":{"type":"LineString","coordinates":[[6.03848,35.62585],[6.03833,35.62486],[6.03748,35.62136],[6.03752,35.62043],[6.03718,35.61913],[6.03719,35.61702],[6.03688,35.61638],[6.0364,35.6158],[6.03534,35.61471],[6.03516,35.61398],[6.03527,35.61317],[6.0346,35.6124]]}},{"type":"Feature","properties":{"Name":"Piste Ouled Menaa"},"geometry":{"type":"LineString","coordinates":[[6.03073,35.62666],[6.03045,35.62656],[6.02977,35.62556],[6.02918,35.62378],[6.0293,35.62359],[6.03025,35.62317],[6.03075,35.62305],[6.03099,35.62285],[6.03089,35.62257],[6.0305,35.62235],[6.02936,35.62231],[6.02874,35.62217],[6.02785,35.62188],[6.02763,35.62162],[6.02738,35.62157],[6.02701,35.62179],[6.02675,35.62129],[6.02643,35.62034]]}},{"type":"Feature","properties":{"Name":"Sabaoune"},"geometry":{"type":"LineString","coordinates":[[6.08159,35.5437],[6.07977,35.54402],[6.07748,35.54455],[6.07613,35.54472],[6.07501,35.54519],[6.07352,35.54555],[6.07172,35.54534],[6.06895,35.54538],[6.06591,35.54582],[6.06371,35.54716],[6.0622,35.54612],[6.06135,35.54606]]}},{"type":"Feature","properties":{"Name":"Magoule"},"geometry":{"type":"LineString","coordinates":[[6.08303,35.56033],[6.08165,35.56031],[6.0796,35.56049],[6.07835,35.56068],[6.07729,35.56096],[6.07584,35.56041],[6.07457,35.56106],[6.07295,35.56166],[6.07255,35.56195],[6.07183,35.56202],[6.07041,35.56206],[6.06961,35.5624],[6.06889,35.56285],[6.06851,35.56303],[6.06786,35.5639],[6.06735,35.5641]]}},{"type":"Feature","properties":{"Name":"Piste lafriha"},"geometry":{"type":"LineString","coordinates":[[6.07112,35.51915],[6.07079,35.51988],[6.07065,35.52007],[6.07047,35.52042],[6.07031,35.52093],[6.07014,35.52122],[6.06991,35.52213],[6.06941,35.52277],[6.06866,35.52429],[6.06789,35.52524],[6.06769,35.52589],[6.06719,35.52676],[6.06666,35.52742],[6.0658,35.52934],[6.06506,35.53053],[6.06459,35.53188]]}},{"type":"Feature","properties":{"Name":"Piste Bouarous"},"geometry":{"type":"LineString","coordinates":[[6.01605,35.50766],[6.01562,35.50841],[6.0152,35.50887],[6.01513,35.50917],[6.01489,35.50951],[6.01481,35.51015],[6.01429,35.51039],[6.01395,35.51083],[6.01337,35.51139],[6.01278,35.51176]]}},{"type":"Feature","properties":{"Name":"Piste Parcour sportif"},"geometry":{"type":"LineString","coordinates":[[6.18359,35.58843],[6.18255,35.58804],[6.18164,35.58758],[6.17772,35.58643],[6.177,35.58615],[6.17479,35.58577],[6.17278,35.58531],[6.17225,35.58488],[6.17128,35.58464],[6.17079,35.58432],[6.16999,35.58392],[6.16871,35.58372],[6.16795,35.58347],[6.16728,35.58332],[6.16684,35.58301],[6.16594,35.5829],[6.16501,35.58487],[6.16469,35.58567]]}},{"type":"Feature","properties":{"Name":"Parcour sportif 1"},"geometry":{"type":"LineString","coordinates":[[6.17119,35.5879],[6.17174,35.58716],[6.1725,35.58595],[6.17293,35.58538]]}},{"type":"Feature","properties":{"Name":"parcour sportif 2"},"geometry":{"type":"LineString","coordinates":[[6.17555,35.5901],[6.17586,35.58944],[6.17603,35.58855],[6.17641,35.58773],[6.17658,35.5872],[6.17705,35.58622]]}},{"type":"Feature","properties":{"Name":"Kirassion"},"geometry":{"type":"LineString","coordinates":[[6.15745,35.59259],[6.15792,35.59177],[6.15897,35.58929],[6.16013,35.5869],[6.16033,35.58622],[6.1606,35.58571]]}}]}