{"type":"FeatureCollection","features":[{"type":"Feature","properties":{"Name":"Piste Benchadi (01) degradée"},"geometry":{"type":"LineString","coordinates":[[6.19068,35.59796],[6.19067,35.59787],[6.19085,35.59786],[6.19168,35.59823],[6.19193,35.59827],[6.19207,35.59835],[6.19219,35.59856],[6.19177,35.59877],[6.19173,35.59903],[6.19183,35.59942],[6.19176,35.59958],[6.1921,35.59984],[6.19378,35.60062],[6.19393,35.60064],[6.19426,35.60048],[6.1948,35.6004],[6.19523,35.60009],[6.19541,35.59973],[6.19556,35.59962]]}},{"type":"Feature","properties":{"Name":"Piste dégradée Mghoua"},"geometry":{"type":"LineString","coordinates":[[6.12586,35.56717],[6.12616,35.56694],[6.12622,35.56637],[6.12663,35.56529],[6.12591,35.56466],[6.12511,35.56376],[6.12462,35.56351],[6.12387,35.56238],[6.12312,35.56141],[6.12215,35.56057],[6.12135,35.56022],[6.11956,35.55921],[6.11916,35.55904],[6.11881,35.5588],[6.1182,35.55852],[6.1171,35.55789],[6.11637,35.55759],[6.1146,35.55666],[6.11148,35.55555],[6.10933,35.55466],[6.1073,35.55398],[6.10188,35.55192],[6.10006,35.55128],[6.09835,35.55056],[6.09796,35.55044],[6.09829,35.55008]]}},{"type":"Feature","properties":{"Name":"Magoul vers bouarous"},"geometry":{"type":"MultiLineString","coordinates":[[[6.0734,35.54448],[6.07284,35.54385],[6.07071,35.54204],[6.06949,35.5413],[6.06844,35.54053],[6.06731,35.53962],[6.06613,35.53904],[6.06535,35.53882],[6.06464,35.53897],[6.06423,35.53863],[6.06062,35.53877],[6.06019,35.5391],[6.0594,35.53936]],[[6.0734,35.54448],[6.07293,35.54355],[6.07217,35.54285],[6.07056,35.54024],[6.0698,35.53944],[6.06944,35.53913],[6.06951,35.53855],[6.06836,35.5369],[6.06756,35.5361],[6.06715,35.53602],[6.06685,35.53516],[6.0661,35.5342],[6.06529,35.53343],[6.06452,35.53205],[6.0627,35.53069],[6.06148,35.53008],[6.06001,35.52944],[6.05899,35.52883],[6.05825,35.52868],[6.05739,35.52825],[6.05653,35.5282],[6.05567,35.52787],[6.05555,35.52756],[6.05527,35.52742],[6.05484,35.52778],[6.05465,35.5273],[6.05483,35.52687],[6.05448,35.52635],[6.05384,35.52569],[6.05323,35.52523],[6.05213,35.5249],[6.05185,35.52439],[6.051,35.52403],[6.0499,35.52346],[6.04899,35.52316],[6.04809,35.52294],[6.04748,35.52258],[6.04695,35.5225],[6.04675,35.52213],[6.04611,35.52157],[6.04551,35.52094],[6.04507,35.52039],[6.04386,35.51968],[6.04338,35.51916],[6.04211,35.51876],[6.04126,35.51819],[6.0406,35.51801],[6.04018,35.5181],[6.03972,35.51829],[6.03943,35.51815],[6.03891,35.5177],[6.03871,35.51745],[6.03868,35.51705],[6.03652,35.51608],[6.03592,35.5166],[6.03517,35.51686],[6.03352,35.51658],[6.03289,35.51667],[6.03241,35.51618],[6.03164,35.51579],[6.0309,35.51557],[6.0298,35.51506],[6.02941,35.51441],[6.02913,35.51417],[6.02862,35.51436],[6.0278,35.51427],[6.0269,35.51394],[6.02612,35.51358],[6.02509,35.51335],[6.02474,35.51284],[6.02435,35.5133],[6.02368,35.51349],[6.02251,35.51366],[6.02185,35.51361],[6.02136,35.51333],[6.02029,35.51307],[6.01932,35.51257],[6.01833,35.51231],[6.01796,35.51216],[6.0174,35.51181],[6.01716,35.51139],[6.01639,35.51093],[6.01532,35.51064],[6.01437,35.51017]],[[6.07849,35.55204],[6.07762,35.5515],[6.07721,35.55135],[6.07624,35.55062],[6.07497,35.54923],[6.07428,35.54877],[6.07358,35.54757],[6.0736,35.54682],[6.07346,35.54611],[6.07366,35.54558],[6.0734,35.54448]]]}},{"type":"Feature","properties":{"Name":"Tagharbit N U"},"geometry":{"type":"LineString","coordinates":[[6.24123,35.61428],[6.24037,35.61478],[6.23987,35.61522],[6.23907,35.61614],[6.23763,35.61682],[6.23702,35.61698],[6.23642,35.61729],[6.23496,35.61767],[6.23305,35.61843],[6.23215,35.61887],[6.23159,35.61922],[6.23136,35.61916],[6.23067,35.61874],[6.23011,35.61856],[6.22973,35.61831],[6.22866,35.61773],[6.22793,35.61706],[6.22669,35.61607],[6.22618,35.6156],[6.22529,35.61507],[6.22383,35.61386],[6.22324,35.61345],[6.22287,35.61311],[6.22238,35.61276],[6.22122,35.61211],[6.21893,35.61131],[6.21808,35.61086],[6.21706,35.61043],[6.21502,35.61094],[6.21409,35.6114],[6.21338,35.61151],[6.21212,35.61145],[6.21138,35.6111],[6.21012,35.61038],[6.20819,35.6098],[6.2077,35.6094],[6.20728,35.60878],[6.20686,35.60841],[6.20677,35.60818]]}},{"type":"Feature","properties":{"Name":"Piste dégradée Tadeght MF oued Chaaba canton Tazehmat"},"geometry":{"type":"LineString","coordinates":[[5.94412,35.52631],[5.94477,35.52623],[5.94568,35.52687],[5.94613,35.5269],[5.94693,35.52721],[5.94763,35.52773],[5.94792,35.52816],[5.94887,35.52934],[5.94917,35.52982],[5.94964,35.52994],[5.9506,35.53044],[5.95171,35.53161],[5.95225,35.53202],[5.95303,35.53236],[5.95477,35.53274],[5.95665,35.53323],[5.95718,35.53345],[5.95866,35.53359],[5.95949,35.53377],[5.96054,35.5341],[5.96067,35.53444],[5.96146,35.53517],[5.96281,35.53591],[5.96362,35.53651],[5.96384,35.5372],[5.96551,35.53824],[5.96623,35.53924],[5.96708,35.53958],[5.96819,35.53966],[5.96991,35.53964],[5.97072,35.53976],[5.97108,35.53987],[5.97147,35.54019],[5.97181,35.54083],[5.97287,35.54099],[5.97348,35.54131],[5.97363,35.5419],[5.97382,35.54193],[5.97438,35.54222],[5.97594,35.54214],[5.97717,35.54197],[5.97778,35.54211],[5.97967,35.54238],[5.98086,35.54293],[5.98274,35.54354],[5.98479,35.5447],[5.98522,35.54507],[5.98613,35.54512],[5.98744,35.54549],[5.98943,35.54508],[5.99044,35.5446],[5.99068,35.54461],[5.99172,35.54524],[5.99349,35.54665],[5.9959,35.5481],[5.9972,35.54894],[5.99789,35.54927],[6.00078,35.55044],[6.00201,35.55081],[6.00337,35.55053],[6.00448,35.55017],[6.00543,35.55013],[6.00547,35.55069]]}},{"type":"Feature","properties":{"Name":"Piste de débardage"},"geometry":{"type":"LineString","coordinates":[[6.07116,35.57873],[6.07068,35.57888],[6.06983,35.57922],[6.06588,35.57931],[6.06557,35.57937],[6.06516,35.5796]]}},{"type":"Feature","properties":{"Name":"Piste de débardage dégradée (coupé)"},"geometry":{"type":"LineString","coordinates":[[6.04303,35.57707],[6.04347,35.57722],[6.04381,35.57743],[6.04404,35.57743],[6.04461,35.57759],[6.04532,35.57757],[6.04651,35.57775],[6.04702,35.57768],[6.0472,35.5777],[6.04735,35.57775],[6.04784,35.57806],[6.04827,35.57805],[6.04903,35.57818],[6.04938,35.57802],[6.04948,35.57793],[6.04952,35.57756],[6.04936,35.57691],[6.0499,35.57689],[6.04997,35.57673],[6.05007,35.57666],[6.05047,35.57659],[6.05062,35.57642],[6.05063,35.57614],[6.05068,35.57613],[6.05095,35.57625],[6.05103,35.57634],[6.05112,35.57652],[6.05115,35.57676],[6.05108,35.57694],[6.0509,35.57701],[6.05065,35.57723],[6.05056,35.57736],[6.05052,35.57753],[6.05079,35.57809],[6.05103,35.57842],[6.05102,35.57867],[6.05133,35.57884],[6.0515,35.57904],[6.05178,35.5791],[6.05221,35.5791],[6.05256,35.57907],[6.05344,35.57889],[6.05381,35.57897],[6.05414,35.57895],[6.05443,35.57885],[6.0549,35.57893],[6.05541,35.57877],[6.05564,35.57896],[6.05594,35.57909],[6.05641,35.57914],[6.05681,35.57907],[6.05763,35.57855],[6.05783,35.57889],[6.05802,35.57907],[6.05824,35.5794],[6.05837,35.57948],[6.0584,35.57945],[6.05829,35.57931],[6.05833,35.57922],[6.0589,35.57922],[6.05967,35.57904],[6.06031,35.57863],[6.06063,35.57832],[6.06074,35.57834],[6.06104,35.57872],[6.06157,35.57879],[6.06223,35.57872],[6.06285,35.57842],[6.06383,35.57838],[6.06431,35.57844],[6.06454,35.57839],[6.06475,35.57831],[6.06498,35.57813],[6.06514,35.57764],[6.06541,35.57725],[6.06588,35.57705],[6.066,35.57705],[6.06633,35.57753],[6.06691,35.57812],[6.0672,35.57822],[6.06758,35.57827],[6.06857,35.57833],[6.06964,35.5783],[6.07005,35.57823],[6.07051,35.57807],[6.07108,35.57796],[6.07238,35.57801],[6.07343,35.57778],[6.07346,35.5778],[6.07335,35.57793],[6.07193,35.5786],[6.07134,35.57858],[6.07126,35.57859],[6.07116,35.57869],[6.0712,35.57877],[6.07207,35.57903],[6.0722,35.57913],[6.07211,35.57925],[6.07171,35.57943],[6.07162,35.57968],[6.07163,35.57986],[6.07167,35.57991],[6.07226,35.58007],[6.07344,35.58025],[6.07354,35.58032],[6.07354,35.5804],[6.07324,35.58049],[6.07317,35.58057],[6.07339,35.58063],[6.07373,35.58061],[6.07464,35.58037],[6.07523,35.57992],[6.07584,35.57927],[6.07613,35.57907],[6.07686,35.5784],[6.0773,35.57816]]}},{"type":"Feature","properties":{"Name":"Piste de débardage Tizi Nselli Dégradée"},"geometry":{"type":"LineString","coordinates":[[6.03588,35.58184],[6.03626,35.58157],[6.03656,35.58144],[6.03696,35.58107],[6.03753,35.58082],[6.03806,35.58082],[6.03852,35.58074],[6.03919,35.58073],[6.0401,35.58083],[6.04107,35.58073],[6.04209,35.5809],[6.04269,35.58114],[6.04291,35.5814],[6.04281,35.58169],[6.04328,35.58206],[6.04362,35.58259],[6.04385,35.58324],[6.04369,35.58331],[6.0437,35.58383]]}},{"type":"Feature","properties":{"Name":"piste refuge vers tissouresse  catnon tazourit (n u)"},"geometry":{"type":"LineString","coordinates":[[5.93939,35.60908],[5.93947,35.609],[5.93986,35.60888],[5.94221,35.60845],[5.94277,35.60831],[5.94433,35.60813],[5.94587,35.60786],[5.94973,35.60732],[5.9504,35.60718],[5.95147,35.60716],[5.95183,35.60706],[5.9521,35.60688],[5.95225,35.60671],[5.95221,35.60614],[5.95209,35.60601],[5.95129,35.60573],[5.95084,35.60582],[5.95053,35.60577],[5.95038,35.60567],[5.95032,35.60557],[5.95028,35.60531],[5.95062,35.60435],[5.9507,35.6044],[5.95074,35.60465],[5.95084,35.60477],[5.9511,35.60488],[5.95174,35.60493],[5.95235,35.60471],[5.95238,35.60457],[5.95235,35.6043],[5.95215,35.60359],[5.95234,35.60279],[5.95231,35.60235],[5.95238,35.60227],[5.95254,35.60225],[5.95281,35.6021],[5.95287,35.60202],[5.95286,35.6019],[5.95239,35.602],[5.95161,35.60192],[5.9511,35.60211],[5.95066,35.60198],[5.94901,35.60174],[5.94831,35.60203],[5.94798,35.60207],[5.94744,35.60239],[5.94675,35.60254],[5.94647,35.60249],[5.94627,35.60225],[5.94633,35.60213],[5.94683,35.60182],[5.94726,35.60141],[5.94857,35.60124],[5.94897,35.60128],[5.94944,35.60094],[5.94959,35.60094],[5.94981,35.60083],[5.95045,35.60024],[5.95053,35.60023],[5.95059,35.60029],[5.95063,35.60048],[5.95069,35.60049],[5.95137,35.59999],[5.95168,35.59989],[5.95216,35.59939],[5.9526,35.59881],[5.95293,35.59849],[5.95389,35.59799],[5.95414,35.59778],[5.95437,35.5975],[5.95476,35.59744],[5.95506,35.59731],[5.95544,35.59689],[5.95556,35.59646],[5.95586,35.5961],[5.95572,35.59608],[5.95513,35.59668],[5.95483,35.59684],[5.9546,35.59693],[5.95434,35.59692],[5.95404,35.59699],[5.95329,35.59737],[5.95243,35.59762],[5.9512,35.59811],[5.95099,35.59811],[5.95092,35.59807],[5.9509,35.59793],[5.95114,35.59735],[5.95134,35.59706],[5.95141,35.59677],[5.95071,35.59651],[5.95022,35.59611],[5.95011,35.59552],[5.94997,35.59522],[5.94988,35.59514],[5.94976,35.59476],[5.9496,35.59444],[5.94932,35.59347],[5.94944,35.59346],[5.94955,35.59354],[5.94967,35.59381],[5.94993,35.59413],[5.9505,35.59437],[5.95064,35.59457],[5.95103,35.59486],[5.95127,35.59492],[5.95156,35.59481],[5.952,35.59451],[5.95282,35.59422],[5.95374,35.59381],[5.95424,35.59349],[5.95463,35.5933],[5.95572,35.59332],[5.9562,35.59325],[5.95675,35.59286],[5.95727,35.59258],[5.95764,35.59215],[5.95786,35.59175],[5.95773,35.59166],[5.95738,35.59166],[5.95693,35.5915],[5.95642,35.59124],[5.95639,35.59114],[5.95671,35.59109],[5.95705,35.59093],[5.95724,35.59077],[5.958,35.58987],[5.95822,35.58969],[5.95838,35.58964],[5.95906,35.58975],[5.95934,35.58972],[5.95996,35.58943],[5.96111,35.58869],[5.96225,35.58836],[5.96285,35.58828],[5.96345,35.5884],[5.96366,35.58849],[5.964,35.58873],[5.96471,35.58902],[5.96494,35.58917],[5.96503,35.58928],[5.96507,35.58952],[5.96481,35.5902],[5.96473,35.59057],[5.96475,35.59087],[5.96485,35.59094],[5.96492,35.59091],[5.96496,35.59029],[5.96508,35.59014],[5.96543,35.58989],[5.96557,35.58965],[5.96564,35.58897],[5.96625,35.58838],[5.96662,35.58819],[5.967,35.58816],[5.9675,35.58861],[5.96775,35.58877],[5.96884,35.58929],[5.97024,35.5895],[5.97169,35.58943],[5.97195,35.58933],[5.97262,35.58896],[5.97316,35.58872],[5.97399,35.58862],[5.97429,35.58851],[5.9749,35.58782],[5.9751,35.58765],[5.97553,35.5868],[5.97565,35.58666],[5.97639,35.58605],[5.97669,35.58586],[5.97732,35.5858],[5.97757,35.58572],[5.97782,35.58519],[5.9779,35.5848],[5.978,35.5847],[5.97831,35.58468],[5.97934,35.58494],[5.97992,35.58497],[5.98027,35.5849],[5.98129,35.58431],[5.98174,35.58415],[5.98206,35.58414],[5.98366,35.58442],[5.9846,35.58435],[5.98485,35.58426],[5.98517,35.58404],[5.98568,35.58347],[5.98589,35.58334],[5.98642,35.58323],[5.98724,35.58328],[5.98777,35.58342],[5.98803,35.58363],[5.98851,35.58416],[5.98882,35.5846],[5.98909,35.58481],[5.98958,35.58481],[5.98977,35.5847],[5.99031,35.58461],[5.99091,35.58443],[5.99096,35.5843],[5.99083,35.58417],[5.99081,35.58398]]}},{"type":"Feature","properties":{"Name":"Piste Bourdjem dégradée"},"geometry":{"type":"LineString","coordinates":[[6.03125,35.6013],[6.0304,35.60092],[6.03003,35.60082],[6.03004,35.60072],[6.03121,35.60025],[6.03199,35.60029],[6.03205,35.60024],[6.03204,35.60018],[6.03155,35.6],[6.03118,35.59994],[6.03076,35.59971],[6.02995,35.59962],[6.02953,35.59968],[6.02941,35.59944],[6.02933,35.599],[6.02909,35.59868],[6.02891,35.59856],[6.02899,35.59853],[6.02961,35.59874],[6.03067,35.5988],[6.03073,35.59876],[6.0298,35.5982],[6.0298,35.59816],[6.02994,35.59809],[6.03024,35.59807],[6.03116,35.59834],[6.03141,35.59825],[6.03151,35.59802],[6.03146,35.59778],[6.03132,35.59766],[6.03118,35.59762],[6.03113,35.59751],[6.03129,35.59704],[6.03134,35.59642],[6.03103,35.59652],[6.03051,35.59655],[6.03049,35.59651],[6.0306,35.59622],[6.0305,35.59593],[6.03,35.59522],[6.02955,35.59473],[6.02941,35.59449],[6.02901,35.59416],[6.02852,35.59387],[6.02827,35.59378],[6.02801,35.59353],[6.02802,35.59349],[6.02864,35.59346],[6.0289,35.59337],[6.02921,35.593],[6.02941,35.59253],[6.02954,35.59246],[6.02977,35.59253],[6.03053,35.59312],[6.03074,35.59333],[6.03104,35.59353],[6.03162,35.59376],[6.03213,35.59372]]}},{"type":"Feature","properties":{"Name":"Piste Sguen vers bouilef dégradée"},"geometry":{"type":"LineString","coordinates":[[6.12091,35.60633],[6.12104,35.60637],[6.1212,35.60634],[6.12169,35.60576],[6.12186,35.6055],[6.12212,35.60529],[6.12231,35.60521],[6.12245,35.60521],[6.12277,35.60534],[6.1229,35.60517],[6.12308,35.60478],[6.12323,35.60414],[6.12321,35.60363],[6.12344,35.60308],[6.12341,35.60294],[6.12324,35.60285],[6.12314,35.6027],[6.12313,35.60249],[6.12325,35.6022],[6.12355,35.60202],[6.12394,35.60189],[6.12458,35.60183],[6.12534,35.60167],[6.12594,35.60126],[6.12628,35.60112],[6.12639,35.60081],[6.12649,35.60014],[6.12657,35.59997],[6.12668,35.59994],[6.12739,35.60001],[6.12779,35.60018],[6.12813,35.60023],[6.12833,35.60017],[6.12836,35.60011],[6.12831,35.5998],[6.12844,35.59973],[6.12888,35.59999],[6.12898,35.59999],[6.12916,35.60008],[6.12926,35.60026],[6.12988,35.60077],[6.13024,35.60086],[6.13049,35.60084],[6.13057,35.60078],[6.13071,35.60052],[6.13092,35.60046],[6.13106,35.60047],[6.13127,35.60062],[6.13187,35.60124],[6.13202,35.60154],[6.13202,35.60196],[6.1322,35.60234],[6.13233,35.60247],[6.13258,35.60254],[6.1328,35.60248],[6.13303,35.60211],[6.13354,35.60172],[6.13367,35.60178],[6.13373,35.60199],[6.13384,35.60212],[6.13428,35.60252],[6.13444,35.60261],[6.13543,35.60293],[6.13642,35.60339],[6.13725,35.60366],[6.13753,35.60361],[6.13778,35.60345],[6.13875,35.60242],[6.13889,35.60239],[6.13926,35.60209],[6.1393,35.60213],[6.13923,35.60256],[6.13932,35.60356],[6.13935,35.60369],[6.13943,35.6038],[6.13976,35.60392],[6.14094,35.60414],[6.1417,35.60463],[6.14188,35.6047],[6.14227,35.60453],[6.14318,35.60381],[6.14335,35.60373],[6.1434,35.60387],[6.1433,35.6044],[6.14335,35.60484],[6.14325,35.60557],[6.14338,35.60576],[6.14367,35.60588],[6.14439,35.60606],[6.14522,35.60638],[6.14577,35.60631],[6.1458,35.60638],[6.14573,35.60676],[6.14586,35.60709],[6.14619,35.60744],[6.14655,35.60773],[6.14711,35.60804],[6.14725,35.60807],[6.14742,35.60809],[6.14786,35.60803],[6.14814,35.60792],[6.14808,35.60815],[6.14811,35.60838],[6.14833,35.60858],[6.1486,35.60868],[6.14882,35.6087],[6.14939,35.6084],[6.1494,35.60873],[6.14945,35.60885],[6.1496,35.60905],[6.14981,35.60917],[6.1501,35.60921],[6.15038,35.60916],[6.15109,35.60854],[6.15133,35.60845],[6.15135,35.60849],[6.15129,35.60855],[6.1512,35.60885],[6.15117,35.60919],[6.15122,35.60951],[6.15133,35.60976],[6.15171,35.6101],[6.15247,35.61046],[6.15276,35.61054],[6.15294,35.61053],[6.15341,35.61038],[6.154,35.6098],[6.15432,35.60936],[6.15444,35.60932],[6.1545,35.60941],[6.15466,35.60995],[6.15474,35.61067],[6.15488,35.61094],[6.15521,35.61124],[6.15547,35.61137],[6.15578,35.61144],[6.15606,35.61142],[6.15665,35.61126],[6.15696,35.61105],[6.1576,35.61015],[6.15791,35.60981],[6.15809,35.60968],[6.15833,35.60959],[6.15838,35.60968],[6.15827,35.60994],[6.15834,35.61021],[6.15836,35.61067],[6.15843,35.61092],[6.15843,35.6112],[6.15827,35.61171],[6.15827,35.61202],[6.15858,35.61237],[6.15884,35.61256],[6.15909,35.6127],[6.15926,35.61272],[6.15971,35.61267],[6.16,35.61258],[6.16034,35.61235],[6.16094,35.6116],[6.16125,35.6114],[6.16131,35.61147],[6.16141,35.61225],[6.1613,35.61314],[6.16179,35.6139],[6.16178,35.61413],[6.16182,35.61427],[6.16193,35.61438],[6.16207,35.61447],[6.16221,35.61449],[6.16247,35.61433],[6.16303,35.61427],[6.16376,35.61402],[6.16393,35.61388],[6.16398,35.61376],[6.16403,35.61335],[6.16409,35.61329],[6.16444,35.61352],[6.16469,35.61391],[6.16472,35.61402],[6.16452,35.61458],[6.16449,35.6148],[6.1647,35.61504],[6.16487,35.61512],[6.16523,35.61513],[6.16592,35.61481],[6.16605,35.61478],[6.16633,35.61483],[6.16656,35.61549],[6.16658,35.61558],[6.16651,35.61569],[6.16636,35.61577],[6.16611,35.61581],[6.16589,35.61578],[6.16576,35.61568],[6.16554,35.61581],[6.16541,35.61597],[6.16512,35.6162],[6.16521,35.61623],[6.16538,35.61619],[6.16556,35.61607],[6.16581,35.61605],[6.16587,35.61626],[6.16606,35.61643],[6.1662,35.61647],[6.16631,35.61646],[6.16662,35.61628],[6.16671,35.6163],[6.16655,35.61698],[6.16643,35.61705],[6.16611,35.61704],[6.1658,35.61717],[6.16577,35.61725],[6.16586,35.61736],[6.16622,35.61743],[6.16662,35.61759],[6.16776,35.61771],[6.16821,35.61792],[6.16852,35.61815],[6.16913,35.6183],[6.16932,35.61828],[6.16952,35.61814],[6.1707,35.61777],[6.17081,35.61782],[6.17085,35.61808],[6.1714,35.61798],[6.17228,35.61825],[6.1725,35.61842],[6.17256,35.61857],[6.17255,35.6187],[6.17151,35.6202],[6.1713,35.62066],[6.17122,35.62116]]}},{"type":"Feature","properties":{"Name":"Piste kassrou kirassion ravin bleu dégradée"},"geometry":{"type":"LineString","coordinates":[[6.12885,35.58758],[6.1295,35.58801],[6.13033,35.58879],[6.13085,35.58903],[6.13137,35.58955],[6.13227,35.59022],[6.13284,35.5904],[6.13391,35.59103],[6.13583,35.59232],[6.13641,35.59265],[6.1375,35.59355],[6.13783,35.59366],[6.13812,35.59368],[6.13837,35.59362],[6.13881,35.59307],[6.139,35.59294],[6.13943,35.59282],[6.13951,35.59276],[6.13952,35.59204],[6.13962,35.59168],[6.13978,35.59158],[6.14038,35.59154],[6.14056,35.59117],[6.14074,35.59103],[6.14126,35.59086],[6.14189,35.59081],[6.14237,35.59091],[6.14264,35.59103],[6.14283,35.59102],[6.143,35.59088],[6.14306,35.59076],[6.143,35.59039],[6.14306,35.59033],[6.14357,35.59027],[6.14439,35.58995],[6.14487,35.58983],[6.14534,35.58982],[6.14603,35.58992],[6.14656,35.58979],[6.14705,35.58973],[6.14835,35.58982],[6.14867,35.5899],[6.14903,35.59007],[6.14962,35.59048],[6.15072,35.5917],[6.15088,35.59182],[6.15103,35.59186],[6.15123,35.59175],[6.15129,35.59162],[6.15136,35.59123],[6.15146,35.59111],[6.15166,35.59096],[6.15213,35.59079],[6.15266,35.59065],[6.15317,35.59061],[6.15431,35.59072],[6.15465,35.59092],[6.15537,35.59151],[6.15638,35.59193],[6.15782,35.59279],[6.15814,35.59283],[6.15852,35.59277],[6.15895,35.59277],[6.1598,35.5931],[6.16,35.59307],[6.16007,35.59299],[6.16007,35.59286],[6.15987,35.59252],[6.15965,35.59227],[6.15955,35.59161],[6.15955,35.59125],[6.15968,35.59074],[6.16003,35.59061],[6.16024,35.59056],[6.16098,35.59054],[6.16173,35.59071],[6.16231,35.59094],[6.16271,35.59121],[6.16278,35.59184],[6.16288,35.59193],[6.16306,35.59184],[6.16344,35.59147],[6.16398,35.5913],[6.16491,35.59131],[6.16564,35.59149],[6.16624,35.59185],[6.1664,35.59216],[6.16647,35.59264],[6.16656,35.59271],[6.16691,35.59235],[6.16777,35.59184],[6.16783,35.59177],[6.16815,35.59032],[6.16829,35.59019],[6.16851,35.59014],[6.16929,35.59021],[6.17048,35.59053],[6.17123,35.59047],[6.17141,35.59053],[6.17224,35.59099],[6.17251,35.59122],[6.17263,35.59142],[6.17304,35.59189],[6.17341,35.59263],[6.17341,35.59289],[6.17313,35.59329],[6.1727,35.59367],[6.17255,35.59394],[6.17256,35.59409],[6.17287,35.59422],[6.1737,35.5942],[6.1742,35.59412],[6.17489,35.59418],[6.17561,35.59409],[6.17589,35.59415],[6.17683,35.59538],[6.17682,35.59596],[6.17702,35.59643],[6.17706,35.59676],[6.17705,35.59684],[6.17693,35.597],[6.17647,35.59723],[6.1759,35.59735],[6.17545,35.59735],[6.17504,35.59743],[6.17492,35.59761],[6.17486,35.59798],[6.17477,35.59818],[6.17431,35.59866],[6.17424,35.59894],[6.17453,35.59902],[6.17499,35.59876],[6.17608,35.5987],[6.17669,35.59856],[6.1761,35.59884],[6.17574,35.59888],[6.17542,35.59898],[6.17466,35.59937],[6.17414,35.5994],[6.17399,35.59946],[6.17382,35.5996],[6.17342,35.60017],[6.17319,35.60033],[6.17293,35.60044],[6.17213,35.60061],[6.17184,35.60082],[6.17134,35.60095],[6.17127,35.60101],[6.17131,35.60119],[6.17138,35.60122],[6.1716,35.60113],[6.17177,35.60121],[6.17192,35.60118],[6.17207,35.6012],[6.17321,35.60188],[6.1738,35.60201],[6.17414,35.60204],[6.1746,35.6022],[6.17503,35.60263],[6.17551,35.60323],[6.17578,35.60333],[6.17646,35.60374],[6.17658,35.60388],[6.17712,35.60385],[6.17736,35.60391],[6.17756,35.60412],[6.17763,35.60435],[6.17804,35.60478],[6.17826,35.60508],[6.17952,35.60612],[6.1797,35.60648],[6.17972,35.6067],[6.18015,35.60692],[6.18052,35.60721],[6.18076,35.60767],[6.18098,35.60781],[6.1811,35.60799],[6.18157,35.60831],[6.18175,35.60858],[6.18172,35.60879],[6.18177,35.60888],[6.18221,35.60916],[6.18248,35.60956]]}},{"type":"Feature","properties":{"Name":"Piste Bouilef NF"},"geometry":{"type":"LineString","coordinates":[[6.21512,35.59767],[6.2148,35.59791],[6.21399,35.5982],[6.21352,35.59851],[6.21303,35.59925],[6.21266,35.59962],[6.21161,35.60006],[6.2108,35.60129],[6.21056,35.60152],[6.20973,35.6019],[6.20903,35.60201],[6.20815,35.60228],[6.2076,35.60254],[6.20718,35.60293],[6.20712,35.60379],[6.20731,35.6057],[6.20759,35.60657],[6.20736,35.60723],[6.20706,35.60783],[6.20666,35.60831],[6.2061,35.60856],[6.20537,35.60879],[6.20486,35.6089],[6.20473,35.60924],[6.20437,35.60955],[6.20316,35.61025],[6.20297,35.61042],[6.20243,35.61061],[6.20137,35.61087],[6.20124,35.61096],[6.2008,35.61145],[6.20057,35.61179],[6.20045,35.61183],[6.19948,35.61179],[6.19924,35.61176],[6.19882,35.61161],[6.19871,35.61163],[6.19862,35.61167],[6.19855,35.61177],[6.19848,35.61198],[6.19806,35.6122],[6.19792,35.61221],[6.19779,35.61235],[6.19759,35.61245],[6.19745,35.61243],[6.1971,35.61251],[6.19662,35.61235],[6.19624,35.61246],[6.19578,35.61269],[6.1955,35.61264],[6.19513,35.61272],[6.19494,35.61268],[6.19447,35.61282],[6.19378,35.61282],[6.19228,35.61307],[6.19155,35.61325],[6.19103,35.61357],[6.18931,35.61419],[6.18911,35.6143],[6.18882,35.61465],[6.18885,35.61505],[6.18893,35.61524],[6.1892,35.61552],[6.18944,35.61569],[6.18983,35.61593],[6.19003,35.61601],[6.19022,35.61601],[6.19032,35.61612],[6.19012,35.61643],[6.19012,35.61654],[6.19042,35.61716],[6.1911,35.61777],[6.1923,35.61839],[6.19241,35.61846],[6.19246,35.61857],[6.19254,35.61897],[6.19236,35.61922],[6.19216,35.61929],[6.19154,35.6193],[6.19139,35.61942],[6.1912,35.61976],[6.19112,35.61982],[6.19043,35.62],[6.19023,35.61991],[6.18995,35.61923],[6.18965,35.619],[6.18931,35.61895],[6.18877,35.61899],[6.18865,35.61886],[6.1885,35.61886],[6.18842,35.61896],[6.18845,35.61939],[6.18834,35.61969],[6.18826,35.61971],[6.18805,35.61949],[6.18755,35.61924],[6.18731,35.61918],[6.18694,35.61927],[6.18712,35.61908],[6.18726,35.61905],[6.18778,35.6191],[6.18769,35.61869],[6.18784,35.61836],[6.18786,35.6181],[6.18801,35.61792],[6.18847,35.61763],[6.18904,35.61763],[6.18942,35.61754],[6.18947,35.61747],[6.18946,35.61739],[6.189,35.61696],[6.18864,35.61647],[6.18857,35.61625],[6.18843,35.61608],[6.18821,35.61592],[6.18817,35.61599],[6.18817,35.61617],[6.18835,35.61655],[6.18835,35.61665],[6.18787,35.61702],[6.18753,35.61717],[6.18743,35.61712],[6.18753,35.61682],[6.18752,35.61657],[6.18738,35.6164],[6.18681,35.61631],[6.18659,35.61613],[6.18657,35.61571],[6.18623,35.61541],[6.18632,35.61502],[6.18629,35.61486],[6.18546,35.61488],[6.18525,35.6148],[6.18521,35.61472],[6.18523,35.61464],[6.18542,35.61451],[6.18545,35.61444],[6.1853,35.61418],[6.18493,35.61389],[6.1851,35.61352],[6.18509,35.61331],[6.18501,35.61313],[6.18473,35.61297],[6.18408,35.61295],[6.18377,35.61264],[6.18383,35.61258],[6.18466,35.61244],[6.18479,35.61236],[6.18494,35.61218],[6.18495,35.61205],[6.18484,35.6117],[6.18315,35.61034],[6.18301,35.61016],[6.18304,35.61001],[6.18276,35.60985],[6.18251,35.60953],[6.18247,35.60918],[6.18249,35.60905],[6.18225,35.60914],[6.18209,35.609],[6.18168,35.60883],[6.18169,35.60874],[6.18176,35.60868],[6.18166,35.60838],[6.18111,35.60798],[6.18088,35.60773],[6.18069,35.60767],[6.18062,35.60735],[6.18053,35.60719],[6.17985,35.60675],[6.1797,35.60674],[6.17969,35.60644],[6.17955,35.60614],[6.17931,35.60589],[6.17855,35.60534],[6.17816,35.60498],[6.17803,35.60473],[6.17762,35.60429],[6.17753,35.60403],[6.17727,35.60387],[6.17657,35.60392],[6.17653,35.60382],[6.17624,35.6036],[6.17574,35.6033],[6.17547,35.60319],[6.17526,35.60285],[6.17504,35.60264],[6.17485,35.60238],[6.17453,35.6022],[6.17404,35.60203],[6.17399,35.60185],[6.17383,35.60164],[6.1738,35.60152],[6.17358,35.60127],[6.17343,35.60092],[6.17345,35.60084],[6.17358,35.60073],[6.17355,35.60053],[6.17401,35.59987],[6.17429,35.59957],[6.17436,35.59944],[6.17434,35.59939],[6.17462,35.59937],[6.17544,35.59894],[6.17606,35.59886],[6.17656,35.59865],[6.17705,35.59824],[6.17785,35.59768],[6.17899,35.59673],[6.1806,35.5952],[6.1824,35.5936],[6.18629,35.58984],[6.18644,35.58962],[6.18764,35.58973],[6.18931,35.59],[6.19064,35.59068],[6.19084,35.59094],[6.1911,35.59113],[6.19263,35.59154],[6.19385,35.59179],[6.19555,35.59203],[6.19704,35.59214],[6.19877,35.5928],[6.20053,35.59293],[6.20093,35.5931],[6.2023,35.59314],[6.20315,35.59333],[6.20433,35.59348],[6.20599,35.59339],[6.20665,35.59346],[6.20701,35.59342],[6.20733,35.59329],[6.20818,35.59257],[6.20828,35.59254]]}},{"type":"Feature","properties":{"Name":"Piste Djerma dégeadée"},"geometry":{"type":"LineString","coordinates":[[6.26302,35.66528],[6.26273,35.66522],[6.26167,35.66481],[6.26134,35.66473],[6.26097,35.66475],[6.26074,35.6647],[6.2604,35.66448],[6.26029,35.66404],[6.26022,35.66386],[6.26009,35.66372],[6.25979,35.66352],[6.25935,35.66337],[6.25892,35.66298],[6.25854,35.66281]]}},{"type":"Feature","properties":{"Name":"Piste Djerma dégeadée"},"geometry":{"type":"LineString","coordinates":[[6.26278,35.6775],[6.2627,35.67736],[6.26246,35.67712],[6.26233,35.67676],[6.26246,35.67653],[6.26293,35.67607],[6.26318,35.67568],[6.26349,35.67538],[6.26369,35.6749],[6.26365,35.67423],[6.26398,35.67374],[6.26465,35.67297],[6.26475,35.67264],[6.26486,35.67184],[6.26491,35.67094]]}},{"type":"Feature","properties":{"Name":"Piste tagargourt Dégradée"},"geometry":{"type":"LineString","coordinates":[[6.26337,35.66219],[6.26299,35.66287],[6.26259,35.66333],[6.26241,35.66435],[6.26189,35.66593],[6.26151,35.66632],[6.26095,35.66667],[6.26075,35.66705],[6.26053,35.66868],[6.26015,35.66993],[6.26024,35.67068],[6.26022,35.67119],[6.26026,35.67176],[6.26067,35.67243],[6.26053,35.67266],[6.26044,35.67314],[6.26062,35.67352],[6.26115,35.67426],[6.26117,35.67479],[6.26164,35.67548],[6.2617,35.67595],[6.26146,35.67669],[6.26085,35.67727],[6.26045,35.67799],[6.26086,35.67826],[6.26112,35.67832],[6.26133,35.6783],[6.26154,35.67819],[6.26185,35.67783],[6.26195,35.67822],[6.26201,35.67872],[6.26195,35.67966],[6.26203,35.67991],[6.26223,35.68023],[6.26227,35.68035],[6.26225,35.68051],[6.26236,35.68061],[6.26243,35.68079],[6.26245,35.68134],[6.26269,35.68193],[6.26351,35.68308],[6.26395,35.68348],[6.26501,35.68511],[6.2656,35.68563],[6.26582,35.68604],[6.26586,35.6863],[6.26606,35.68679],[6.26621,35.68699],[6.26637,35.68709],[6.26637,35.68729],[6.26647,35.68754],[6.2666,35.68772],[6.26674,35.68782],[6.26677,35.68802],[6.26771,35.68877],[6.26783,35.68906],[6.26897,35.69013],[6.26966,35.69057],[6.27002,35.6909],[6.27149,35.69134],[6.27195,35.69152],[6.27297,35.69248],[6.27319,35.69281],[6.27352,35.69315],[6.27355,35.69339],[6.2737,35.69356],[6.27535,35.69445],[6.27755,35.6948],[6.27818,35.69456],[6.27822,35.69464],[6.27816,35.69494],[6.27822,35.69516],[6.27843,35.69539],[6.27898,35.69581],[6.2795,35.69596],[6.27978,35.69592],[6.28064,35.69637],[6.28175,35.69713],[6.28202,35.69714],[6.28204,35.69724],[6.28186,35.69747],[6.28246,35.69842],[6.28295,35.69906],[6.28559,35.70102],[6.28701,35.70185],[6.28852,35.7026],[6.28892,35.70272],[6.28924,35.70271],[6.29037,35.70305],[6.29089,35.70347],[6.29142,35.70362],[6.29171,35.70365],[6.29206,35.70361],[6.29247,35.70398],[6.29275,35.70412],[6.29367,35.70436],[6.29542,35.70447],[6.29571,35.70467],[6.29686,35.70517],[6.29816,35.70547],[6.30066,35.70511],[6.30237,35.70497],[6.30304,35.70483],[6.30353,35.70481],[6.30404,35.70481],[6.30478,35.70488],[6.30656,35.70529],[6.30951,35.70535],[6.31176,35.70496],[6.31329,35.70477],[6.31482,35.70464],[6.31605,35.70448],[6.31656,35.70449],[6.31891,35.70388],[6.31987,35.70371],[6.32097,35.70344],[6.3217,35.703],[6.3229,35.70159],[6.324,35.69998],[6.32576,35.69787],[6.32593,35.69753],[6.3266,35.69775]]}},{"type":"Feature","properties":{"Name":"Mghoua dégradée"},"geometry":{"type":"LineString","coordinates":[[6.10219,35.55213],[6.10319,35.55346],[6.10337,35.55432],[6.10408,35.5542],[6.10466,35.55422],[6.10518,35.55385],[6.10526,35.55325]]}},{"type":"Feature","properties":{"Name":"Piste dégradée"},"geometry":{"type":"LineString","coordinates":[[6.10234,35.55231],[6.10162,35.55347],[6.10123,35.55393],[6.10139,35.55476]]}},{"type":"Feature","properties":{"Name":"Piste dégradée"},"geometry":{"type":"LineString","coordinates":[[6.1017,35.55178],[6.10123,35.55143],[6.10052,35.55133],[6.10028,35.55086],[6.09983,35.55066],[6.09956,35.54991]]}},{"type":"Feature","properties":{"Name":"Piste canton Tazehmat dit Tikhoubay Dégradée"},"geometry":{"type":"LineString","coordinates":[[5.99482,35.52646],[5.99331,35.5268],[5.99147,35.52677],[5.99089,35.52703],[5.98943,35.52668],[5.98924,35.5266],[5.98883,35.52633],[5.98771,35.52591],[5.98701,35.52536],[5.98671,35.52519],[5.98655,35.52516],[5.98623,35.52535],[5.98612,35.52535],[5.986,35.52515],[5.98557,35.5249],[5.98465,35.52477],[5.98358,35.5243],[5.98305,35.52385],[5.98159,35.52304],[5.98119,35.52266],[5.98078,35.52244],[5.98035,35.52231],[5.97967,35.5219],[5.97886,35.52166],[5.97777,35.52141],[5.97676,35.52127],[5.97621,35.52102],[5.97603,35.5207],[5.97591,35.5206],[5.97311,35.51936],[5.97189,35.51896],[5.9713,35.51885],[5.97024,35.51827],[5.96846,35.51738],[5.96723,35.51715],[5.9668,35.51721],[5.96643,35.51691],[5.96595,35.51689],[5.96554,35.51676],[5.96501,35.51641],[5.96473,35.51606],[5.96448,35.51597],[5.96429,35.51583],[5.96176,35.51447],[5.96025,35.51418],[5.95979,35.51415],[5.95917,35.5142],[5.95858,35.51414],[5.95672,35.51386],[5.95563,35.51365],[5.95429,35.51347],[5.95257,35.51333],[5.95108,35.51314],[5.95029,35.51316],[5.94999,35.51289],[5.94953,35.51294],[5.94922,35.51289],[5.94852,35.51251],[5.94801,35.51238],[5.94779,35.51222],[5.94776,35.5121],[5.94781,35.51198],[5.94818,35.51176],[5.9483,35.5115],[5.94827,35.51123],[5.9481,35.51097],[5.94782,35.51083],[5.94681,35.51058],[5.94658,35.51047],[5.94652,35.51035]]}},{"type":"Feature","properties":{"Name":"Zouchent elmardj Tichaou-- Mf Oued Chaaba (Dégradée)"},"geometry":{"type":"LineString","coordinates":[[6.0062,35.55054],[6.00595,35.55053],[6.00487,35.55114],[6.00418,35.55141],[6.00278,35.55167],[6.00137,35.55213],[6.00027,35.55226],[5.99869,35.55271],[5.99781,35.55291],[5.9974,35.55296],[5.99691,35.55316],[5.99672,35.55317],[5.99659,35.553],[5.99633,35.55295],[5.99377,35.55311],[5.99347,35.55317],[5.99309,35.55336],[5.99242,35.55342],[5.99148,35.55358],[5.98974,35.554],[5.98938,35.55396],[5.9893,35.55384],[5.98917,35.55347],[5.98894,35.55331],[5.98844,35.55329],[5.98816,35.55348],[5.98804,35.55349],[5.98787,35.55331],[5.98767,35.55321],[5.98644,35.55287],[5.9857,35.55278],[5.985,35.55276],[5.98465,35.55284],[5.98407,35.55309],[5.98363,35.55284],[5.9834,35.5528],[5.98283,35.55314],[5.98253,35.55318],[5.98206,35.55313],[5.98115,35.55283],[5.98027,35.55278],[5.9792,35.55266],[5.9786,35.55246],[5.97802,35.55213],[5.97755,35.55205],[5.97711,35.55189],[5.9768,35.55192],[5.97628,35.55171],[5.97524,35.55158],[5.97504,35.55167],[5.97418,35.55177],[5.97374,35.55197],[5.97278,35.55262],[5.9714,35.55343],[5.97124,35.55358],[5.97118,35.55375],[5.9712,35.55407],[5.97113,35.55424],[5.97042,35.55494],[5.96988,35.55557],[5.96961,35.55573],[5.96943,35.55577],[5.96932,35.5557],[5.96958,35.5554],[5.9696,35.55524],[5.96936,35.55489],[5.96938,35.5548],[5.96956,35.55451],[5.9698,35.55424],[5.9698,35.55408],[5.96955,35.55395],[5.9691,35.55347],[5.96895,35.55311],[5.9688,35.55295],[5.96812,35.55285],[5.96777,35.55295],[5.96768,35.55289],[5.96781,35.55228],[5.96802,35.55188],[5.96808,35.55167],[5.96809,35.55124],[5.96782,35.551],[5.96761,35.55052],[5.96725,35.55031],[5.96652,35.5495],[5.96623,35.5493],[5.96616,35.5494],[5.96617,35.54946],[5.96627,35.54961],[5.96639,35.55021],[5.96653,35.55055],[5.96655,35.55086],[5.9667,35.5513],[5.96669,35.55142],[5.96661,35.55161],[5.96587,35.55255],[5.96526,35.55315],[5.96462,35.55418],[5.96427,35.55457],[5.96432,35.55493],[5.96461,35.55516],[5.96461,35.55529],[5.96455,35.55536],[5.96447,35.55541],[5.96414,35.55543],[5.96357,35.5553],[5.96337,35.55519],[5.96333,35.55509],[5.96335,35.5547],[5.96348,35.55413]]}},{"type":"Feature","properties":{"Name":"Piste de débardage Pont romain Thizi netghat (Dégradé)"},"geometry":{"type":"LineString","coordinates":[[6.07665,35.5805],[6.07701,35.58025],[6.07739,35.57982],[6.0776,35.57944],[6.07764,35.57914],[6.07757,35.57895],[6.0776,35.57888],[6.07776,35.57876],[6.07782,35.57878],[6.07792,35.57917],[6.07795,35.58001],[6.07806,35.58018],[6.07851,35.58037],[6.07955,35.58042],[6.08003,35.58059],[6.08032,35.58114],[6.08041,35.58147],[6.08074,35.58193],[6.08083,35.58228],[6.08098,35.58237],[6.08104,35.58234],[6.08112,35.58219],[6.08148,35.58256],[6.08214,35.58278],[6.08247,35.58354],[6.08248,35.58404],[6.08302,35.5848],[6.08341,35.58509],[6.08435,35.5856],[6.08478,35.58589],[6.08517,35.58632],[6.08575,35.58677],[6.08654,35.58699],[6.08715,35.58694],[6.08734,35.58725],[6.08746,35.58737],[6.0883,35.58794],[6.08819,35.58815],[6.08821,35.58822],[6.08955,35.58881],[6.09004,35.58895],[6.09073,35.58927],[6.0909,35.58944],[6.09117,35.59007],[6.09188,35.59079],[6.09247,35.59082],[6.09413,35.59113],[6.09444,35.59123],[6.09492,35.59157],[6.09526,35.59169],[6.09618,35.59183],[6.09667,35.59197],[6.0967,35.5921],[6.09654,35.59226],[6.09656,35.59243],[6.09728,35.59355],[6.09732,35.59414],[6.09772,35.59488],[6.0978,35.59589],[6.09768,35.59604],[6.09756,35.59606],[6.09686,35.59603],[6.09653,35.59597],[6.09692,35.59618],[6.09745,35.59636],[6.0976,35.59679],[6.09705,35.59721],[6.09644,35.59743],[6.09579,35.59784],[6.09549,35.59795],[6.09469,35.598],[6.09443,35.59811],[6.09424,35.59845],[6.0942,35.59922],[6.09389,35.59992],[6.09394,35.60013],[6.09388,35.60022],[6.09391,35.60017]]}},{"type":"Feature","properties":{"Name":"Piste de débardage boumerzoug (Dégradé)"},"geometry":{"type":"LineString","coordinates":[[6.08084,35.59162],[6.08091,35.59156],[6.0811,35.59158],[6.08187,35.59188],[6.08251,35.59191],[6.08251,35.59179],[6.08234,35.59154],[6.08228,35.59124],[6.08241,35.59092],[6.08257,35.59087],[6.08272,35.59094],[6.08294,35.59117],[6.08315,35.5913],[6.08364,35.59153],[6.08465,35.59188],[6.08576,35.59248],[6.08636,35.59262],[6.0874,35.59305],[6.08827,35.5932],[6.08997,35.59365],[6.09079,35.59407],[6.09147,35.59425],[6.09209,35.59453],[6.09367,35.59492],[6.09441,35.59528],[6.09504,35.59553],[6.09606,35.5958],[6.09654,35.59597]]}},{"type":"Feature","properties":{"Name":"Piste tizi Nseli village oued Chaaba dégradée"},"geometry":{"type":"LineString","coordinates":[[6.03727,35.57607],[6.03654,35.576],[6.0358,35.5758],[6.03517,35.57538],[6.03399,35.57494],[6.03361,35.57484],[6.03275,35.57433],[6.03203,35.57416],[6.03172,35.57403],[6.03142,35.57388],[6.03107,35.57347],[6.03094,35.57339],[6.03078,35.57336],[6.03011,35.57346],[6.02937,35.57328],[6.02906,35.57326],[6.02878,35.57317],[6.02822,35.57316],[6.02693,35.57258],[6.02646,35.57228],[6.02636,35.5719],[6.02616,35.57166],[6.02618,35.5715],[6.02652,35.5712],[6.02652,35.57106],[6.02636,35.57089],[6.0261,35.57077],[6.0257,35.5708],[6.02531,35.57095],[6.02515,35.57113],[6.02498,35.57116],[6.02445,35.57096],[6.02393,35.57045],[6.0235,35.57019],[6.02275,35.56958],[6.02256,35.56929],[6.0224,35.5692],[6.02198,35.56911],[6.02113,35.56855],[6.02054,35.56826],[6.02006,35.56787],[6.0196,35.56738],[6.01924,35.56721],[6.01911,35.567],[6.01902,35.56655],[6.01889,35.56626],[6.01868,35.566],[6.01828,35.56575],[6.01831,35.56545],[6.01815,35.56522],[6.01798,35.56475],[6.01689,35.56396],[6.01624,35.56337],[6.01614,35.563],[6.01616,35.56291],[6.01631,35.56269],[6.0163,35.56263],[6.01558,35.56239],[6.0149,35.56206],[6.01454,35.56179],[6.01449,35.56156],[6.01477,35.561],[6.01475,35.56095],[6.01462,35.56093],[6.01432,35.5612],[6.01317,35.56197],[6.01305,35.56212],[6.01283,35.56262],[6.01269,35.5627],[6.01252,35.5627],[6.01231,35.56258],[6.01214,35.56234],[6.0121,35.56217],[6.01216,35.56163],[6.01205,35.56143],[6.0118,35.56044],[6.01157,35.56012],[6.01097,35.55983],[6.01027,35.55964],[6.00939,35.55989],[6.00903,35.55989],[6.00869,35.55973],[6.00838,35.55945],[6.00791,35.55842],[6.0079,35.55822],[6.00797,35.5576],[6.00843,35.55681],[6.00846,35.55664],[6.00808,35.55609],[6.00742,35.5555],[6.00702,35.55503],[6.00705,35.55457],[6.0067,35.55385],[6.00637,35.55287],[6.00607,35.55139],[6.00607,35.55104],[6.00614,35.55066],[6.00633,35.55021],[6.00685,35.54937],[6.00799,35.5485],[6.01034,35.54633],[6.0104,35.54602],[6.01041,35.54516],[6.01083,35.54388],[6.01081,35.54255],[6.01054,35.54211],[6.01018,35.54167],[6.0094,35.5411],[6.00927,35.54092],[6.00918,35.54059],[6.00905,35.54039],[6.00714,35.53822],[6.00697,35.53789],[6.0069,35.53742],[6.00677,35.5371],[6.00624,35.53627],[6.00582,35.536],[6.00458,35.53548],[6.00351,35.53495],[6.00316,35.5347],[6.00229,35.53393],[6.002,35.53376],[6.00147,35.53355],[6.00039,35.53324],[6.0002,35.53304],[5.99985,35.53251],[5.99964,35.53218],[5.99952,35.5319],[5.99947,35.53133],[5.9996,35.53093]]}},{"type":"Feature","properties":{"Name":"Ravin bleu vers pont romain (Dégradé)"},"geometry":{"type":"LineString","coordinates":[[6.08112,35.58219],[6.08119,35.58169],[6.08101,35.58114],[6.08077,35.58003],[6.08094,35.57938],[6.08108,35.57915],[6.08196,35.57808],[6.08273,35.57785],[6.08401,35.57758],[6.08474,35.57751],[6.0854,35.57755],[6.08671,35.57783],[6.0874,35.57781],[6.08823,35.57795],[6.08836,35.5779],[6.08851,35.57774],[6.08872,35.57772],[6.0898,35.57791],[6.09061,35.5782],[6.09111,35.57821],[6.09186,35.57834],[6.09341,35.57881],[6.09412,35.57885],[6.0951,35.57875],[6.09548,35.57875],[6.09585,35.57888],[6.09611,35.57912],[6.09651,35.57938],[6.0966,35.57949],[6.0967,35.57952],[6.09692,35.57947],[6.09719,35.5795],[6.09766,35.57943],[6.09827,35.57949],[6.09853,35.57929],[6.09886,35.57926],[6.09919,35.57934],[6.09937,35.57945],[6.09998,35.58],[6.10044,35.58056],[6.10065,35.58071],[6.10091,35.58083],[6.1013,35.58087],[6.10141,35.58084],[6.10156,35.58072],[6.10202,35.58072],[6.10233,35.58013],[6.10242,35.5801],[6.10294,35.58011],[6.10345,35.58002],[6.10348,35.57989],[6.10337,35.57967],[6.10338,35.57927],[6.10345,35.57917],[6.1039,35.57912],[6.10468,35.57881],[6.10507,35.57878],[6.10536,35.57864],[6.10591,35.57861],[6.10584,35.5785],[6.10528,35.57829],[6.10499,35.5781],[6.1049,35.57792],[6.10489,35.57778],[6.10509,35.5776],[6.10583,35.5775],[6.10629,35.57757],[6.10672,35.57776],[6.10705,35.57784],[6.10726,35.57794],[6.10751,35.57816],[6.10762,35.57842],[6.10804,35.57864],[6.10825,35.57885],[6.10833,35.57884],[6.10821,35.57833],[6.10848,35.57803],[6.10856,35.57784],[6.10854,35.57762],[6.10837,35.57727],[6.10777,35.57662],[6.10781,35.5765],[6.10825,35.57604],[6.10826,35.57586],[6.10823,35.57578],[6.10797,35.57558],[6.10771,35.57553],[6.10733,35.5756],[6.10719,35.5755],[6.1078,35.57528],[6.10822,35.57522],[6.1088,35.57532],[6.10907,35.57543],[6.10923,35.57562],[6.10933,35.57595],[6.11039,35.5756],[6.11053,35.57564],[6.11102,35.57602],[6.1112,35.57633],[6.11113,35.57692],[6.11129,35.57766],[6.11146,35.5782],[6.11165,35.5784],[6.11168,35.57849],[6.11157,35.57862],[6.11157,35.57869],[6.11196,35.57872],[6.11236,35.57882],[6.11276,35.57883],[6.11297,35.57906],[6.11314,35.57948],[6.11323,35.57971],[6.11315,35.57993],[6.11317,35.57998],[6.11361,35.57993],[6.11405,35.57979],[6.11436,35.57978],[6.11528,35.58009],[6.11579,35.58043],[6.11612,35.58056],[6.11646,35.58078],[6.11681,35.58127],[6.11676,35.58144],[6.11681,35.58157],[6.11723,35.58176],[6.11744,35.58197],[6.11759,35.58222],[6.11762,35.5824],[6.11751,35.58246],[6.11748,35.58258],[6.11798,35.58319],[6.11816,35.58355],[6.11823,35.58396],[6.11809,35.58444],[6.11832,35.58493],[6.11832,35.58535],[6.11838,35.58558],[6.11917,35.58588],[6.11927,35.58604],[6.1195,35.58662],[6.11974,35.58682]]}},{"type":"Feature","properties":{"Name":"Lemaaden Dégradée"},"geometry":{"type":"LineString","coordinates":[[6.09808,35.56814],[6.09692,35.56782],[6.0957,35.56765],[6.09437,35.56728],[6.09291,35.56715],[6.09105,35.56682],[6.08966,35.56664],[6.08869,35.56595],[6.08713,35.56529],[6.08465,35.56442],[6.08381,35.5634],[6.08269,35.56104]]}},{"type":"Feature","properties":{"Name":"Piste Tmoument Dégradée"},"geometry":{"type":"LineString","coordinates":[[6.00695,35.57913],[6.00676,35.57854],[6.00673,35.57808],[6.00629,35.57771],[6.00583,35.57704],[6.00556,35.57625],[6.00476,35.57574],[6.00412,35.5749],[6.00446,35.5737],[6.00539,35.57255],[6.00622,35.57049],[6.00546,35.56993],[6.00473,35.56954],[6.00446,35.56863],[6.00512,35.56804],[6.006,35.56776],[6.00637,35.56722],[6.00693,35.56685],[6.00741,35.56659],[6.00783,35.56653],[6.00788,35.56614],[6.008,35.56592],[6.00818,35.56582],[6.00811,35.56539],[6.00832,35.565],[6.00874,35.56476],[6.00955,35.565],[6.00988,35.56474],[6.00994,35.56437],[6.01027,35.56417],[6.01086,35.56395],[6.01143,35.56331],[6.01162,35.56287],[6.01175,35.56221],[6.01192,35.56093]]}},{"type":"Feature","properties":{"Name":"Pistecol telmet-casarne- bordjem- Theniet El Gantos -route m'rkha dégradée (intervention possible)"},"geometry":{"type":"LineString","coordinates":[[5.98959,35.57535],[5.98929,35.5754],[5.98851,35.57585],[5.98765,35.57638],[5.98736,35.57665],[5.98655,35.5776],[5.98618,35.57823],[5.98593,35.57849],[5.98578,35.57905],[5.98595,35.57917],[5.98618,35.57916],[5.98641,35.57923],[5.98751,35.57919],[5.98774,35.57936],[5.98775,35.57947],[5.98766,35.57962],[5.98774,35.57979],[5.98795,35.57971],[5.98821,35.57972],[5.98874,35.57988],[5.98919,35.58012],[5.99005,35.58036],[5.99087,35.58042],[5.99138,35.58023],[5.99155,35.58025],[5.9916,35.5803],[5.99155,35.58072],[5.9916,35.58095],[5.99172,35.58119],[5.99172,35.58142],[5.99151,35.58171],[5.99105,35.58202],[5.9912,35.5822],[5.99121,35.58228],[5.99107,35.58252],[5.99089,35.58268],[5.99078,35.58291],[5.99075,35.58303],[5.99084,35.58342],[5.99064,35.58383],[5.99104,35.58415],[5.99133,35.58445],[5.99136,35.58454],[5.99134,35.58458],[5.9909,35.5847],[5.9903,35.58494],[5.98938,35.58539],[5.98862,35.58556],[5.98816,35.58551],[5.98781,35.58529],[5.98754,35.58493],[5.98725,35.58479],[5.98704,35.58482],[5.98684,35.585],[5.98682,35.58594],[5.98688,35.586],[5.98747,35.58614],[5.98787,35.5863],[5.98794,35.58637],[5.98803,35.58667],[5.98808,35.5867],[5.98813,35.58668],[5.9882,35.58644],[5.98828,35.58637],[5.98903,35.58616],[5.99052,35.58598],[5.99102,35.58604],[5.99165,35.58623],[5.99262,35.58686],[5.99356,35.58722],[5.99368,35.58717],[5.99418,35.58717],[5.9946,35.58679],[5.99473,35.5866],[5.99556,35.58658],[5.99615,35.58626],[5.99652,35.58611],[5.99664,35.5861],[5.99754,35.58635],[5.99816,35.58647],[5.99829,35.58656],[5.99862,35.58697],[5.99991,35.58724],[6.00105,35.58765],[6.00145,35.5878],[6.00208,35.5882],[6.00251,35.5884],[6.00311,35.58857],[6.00348,35.5886],[6.00365,35.58859],[6.00391,35.58849],[6.00401,35.58851],[6.00403,35.58855],[6.00399,35.58865],[6.00366,35.58892],[6.00349,35.58913],[6.00343,35.58927],[6.00335,35.58992],[6.0035,35.58997],[6.00405,35.5899],[6.00515,35.58997],[6.00519,35.59007],[6.00502,35.59034],[6.00509,35.59057],[6.00529,35.5907],[6.00565,35.59078],[6.00589,35.59116],[6.00625,35.59138],[6.00676,35.59143],[6.00727,35.5913],[6.00747,35.59133],[6.0078,35.59125],[6.0079,35.59128],[6.00798,35.59135],[6.00811,35.59194],[6.00836,35.59223],[6.0085,35.59248],[6.00853,35.59322],[6.00846,35.59355],[6.00849,35.59378],[6.00889,35.59454],[6.00944,35.59514],[6.00989,35.59521],[6.01006,35.59538],[6.01091,35.59566],[6.01146,35.59599],[6.01162,35.59618],[6.01168,35.5964],[6.0119,35.59649],[6.01204,35.59682],[6.01262,35.59744],[6.01279,35.59782],[6.01286,35.59848],[6.01346,35.59898],[6.01372,35.59907],[6.01402,35.59911],[6.01487,35.59956],[6.01563,35.59965],[6.01704,35.60006],[6.01749,35.60015],[6.01771,35.60015],[6.01795,35.60008],[6.01823,35.59987],[6.01837,35.59968],[6.0183,35.5992],[6.01796,35.59873],[6.01778,35.59809],[6.0174,35.59731],[6.0174,35.59714],[6.01753,35.59685],[6.01763,35.59642],[6.01763,35.59609],[6.01711,35.59503],[6.01686,35.59416],[6.01679,35.59362],[6.01694,35.59329],[6.01732,35.59188],[6.01779,35.59154],[6.01816,35.59138],[6.01831,35.59122],[6.01864,35.59022],[6.01863,35.58993],[6.01842,35.58929],[6.01854,35.58912],[6.01867,35.58905],[6.01921,35.58893],[6.01938,35.58894],[6.02129,35.58944],[6.02185,35.58963],[6.02228,35.5896],[6.0226,35.58945],[6.02296,35.58936],[6.02336,35.58953],[6.02378,35.5896],[6.02412,35.58976],[6.02485,35.5898],[6.02524,35.58988],[6.02569,35.58982],[6.02606,35.5895],[6.0263,35.58939],[6.02727,35.58922],[6.02841,35.58942],[6.02874,35.58954],[6.02887,35.58963],[6.02916,35.58957],[6.02944,35.58944],[6.03054,35.58975],[6.03095,35.58978],[6.03121,35.58971],[6.03127,35.58961],[6.03127,35.58951],[6.03168,35.58914],[6.03182,35.58892],[6.03188,35.58867],[6.0323,35.58848],[6.03269,35.58818],[6.03309,35.58808],[6.0335,35.58778],[6.0338,35.58772],[6.03525,35.58768],[6.03567,35.58759],[6.03601,35.58758],[6.03635,35.58766],[6.03686,35.58748],[6.03705,35.5875],[6.03785,35.58791],[6.03824,35.58844],[6.03838,35.58881],[6.03848,35.58893],[6.03877,35.58901],[6.0396,35.58902],[6.04046,35.58929],[6.04109,35.58972],[6.04118,35.58983],[6.04125,35.59016],[6.04129,35.59023],[6.04137,35.59025],[6.04152,35.59025],[6.04193,35.59006],[6.04302,35.58988],[6.04363,35.58982],[6.04394,35.5899],[6.04427,35.58992],[6.04476,35.58982],[6.04531,35.58988],[6.04601,35.59032],[6.04714,35.59059],[6.0484,35.59056],[6.04885,35.59066],[6.04923,35.59059],[6.04965,35.59063],[6.05022,35.59059],[6.05076,35.59032],[6.05105,35.59047],[6.05136,35.59043],[6.05165,35.59054],[6.05183,35.59063],[6.05191,35.59076],[6.05178,35.59173],[6.05179,35.5922],[6.05174,35.59248],[6.05177,35.59267],[6.05248,35.59414],[6.05288,35.59464],[6.05317,35.59488],[6.05363,35.59503],[6.05417,35.59505],[6.05492,35.59498],[6.05535,35.59499],[6.05594,35.59539],[6.05653,35.59609],[6.05701,35.59633],[6.05718,35.59636]]}},{"type":"Feature","properties":{"Name":"Piste Tizi Nselli dégradée"},"geometry":{"type":"LineString","coordinates":[[6.03431,35.58203],[6.0347,35.58194],[6.03579,35.58184],[6.03588,35.58191],[6.03536,35.58233],[6.03525,35.58256],[6.03416,35.5831],[6.03393,35.58337],[6.03374,35.58345],[6.03351,35.58362],[6.03333,35.58384],[6.03273,35.5844],[6.03267,35.58451],[6.03276,35.58474],[6.03274,35.58481],[6.03258,35.58502],[6.03227,35.58528],[6.03208,35.58564],[6.03132,35.586],[6.03136,35.58606],[6.03157,35.58607],[6.03222,35.58582],[6.03259,35.58555],[6.03303,35.58534],[6.03341,35.58486],[6.0338,35.58462],[6.03392,35.58463],[6.03349,35.58504],[6.03334,35.58552],[6.03294,35.58594],[6.03259,35.58679],[6.03247,35.5874],[6.03265,35.58771],[6.03272,35.58797],[6.033,35.58811]]}},{"type":"Feature","properties":{"Name":"Piste Theniete laagoul N U"},"geometry":{"type":"LineString","coordinates":[[6.16908,35.62667],[6.1688,35.62694],[6.16843,35.62783],[6.16739,35.62928],[6.1672,35.6295],[6.167,35.62956],[6.16694,35.62972],[6.1667,35.62972],[6.16614,35.62947],[6.1658,35.6295],[6.16519,35.62972],[6.16468,35.62956],[6.16445,35.6296],[6.16445,35.63024],[6.16467,35.63041],[6.16522,35.63117],[6.16542,35.63162],[6.16549,35.63226],[6.16546,35.63242],[6.1654,35.63248],[6.16534,35.63247],[6.16464,35.63171],[6.16446,35.63156],[6.16435,35.63154],[6.16443,35.63227],[6.16438,35.63278],[6.16444,35.63315],[6.16436,35.6334],[6.16414,35.6338],[6.16408,35.63383],[6.164,35.6338],[6.16399,35.63344],[6.16377,35.63305],[6.16351,35.6327],[6.16304,35.63226],[6.16238,35.63185],[6.16163,35.63155],[6.16149,35.63157],[6.16186,35.63179],[6.16215,35.63233],[6.16227,35.63284],[6.16231,35.6337],[6.16215,35.63414],[6.1618,35.63485],[6.16151,35.63513],[6.1614,35.63543],[6.16116,35.63576],[6.16161,35.63631],[6.16155,35.63705],[6.16163,35.6373],[6.16176,35.63746],[6.16209,35.63769],[6.16211,35.63778],[6.16184,35.63781],[6.16091,35.63774]]}},{"type":"Feature","properties":{"Name":"Piste Bouilef elgasaa /hamem romain dégradée"},"geometry":{"type":"LineString","coordinates":[[6.19984,35.59323],[6.19999,35.5937],[6.20026,35.59431],[6.20029,35.59499],[6.20069,35.59578],[6.20078,35.59624],[6.20129,35.59711],[6.2014,35.59743],[6.20151,35.59811],[6.20158,35.5982],[6.20188,35.59838],[6.20214,35.59863],[6.20266,35.5994],[6.20283,35.59981],[6.2028,35.60012],[6.20284,35.6006],[6.20279,35.60087],[6.2025,35.60121],[6.20241,35.60149],[6.20194,35.60216],[6.20048,35.60329],[6.20007,35.60345],[6.19959,35.6033],[6.19899,35.60365],[6.19807,35.60429],[6.19773,35.60444],[6.19626,35.60542],[6.19497,35.60586],[6.19454,35.6059],[6.19415,35.60603],[6.19401,35.60635],[6.19339,35.60685],[6.19227,35.60724],[6.19196,35.6073],[6.19164,35.60726],[6.19132,35.60714],[6.19092,35.60746],[6.18996,35.60763],[6.18997,35.60774],[6.19014,35.60788],[6.19058,35.60855],[6.19102,35.60881],[6.1911,35.60887],[6.19112,35.60895],[6.19099,35.60907],[6.19076,35.60914],[6.18992,35.60912],[6.18873,35.60889],[6.18811,35.60906],[6.18789,35.60906],[6.1879,35.60922],[6.18835,35.60976],[6.18896,35.61024],[6.18896,35.61034],[6.18881,35.61045],[6.18812,35.61064],[6.18796,35.61064],[6.18746,35.61048],[6.18735,35.61041],[6.18693,35.60981],[6.18657,35.60954],[6.18636,35.60915],[6.18577,35.60906],[6.18537,35.60893],[6.18502,35.60868],[6.18394,35.60834],[6.18383,35.60834],[6.18293,35.60871],[6.18249,35.60907],[6.18245,35.60933],[6.18248,35.60956],[6.18275,35.60987],[6.18301,35.61003],[6.183,35.61017],[6.18312,35.61037],[6.18454,35.61149],[6.18483,35.61183],[6.18487,35.61216],[6.18468,35.61245],[6.18417,35.61258],[6.18385,35.61259],[6.18383,35.61269],[6.18412,35.61298],[6.18455,35.61297],[6.18481,35.61305],[6.18497,35.61318],[6.18505,35.61354],[6.18493,35.61392],[6.1853,35.61421],[6.1854,35.6144],[6.18538,35.61455],[6.18523,35.61474],[6.18526,35.61482],[6.18553,35.61491],[6.18608,35.61488],[6.18624,35.61493],[6.18626,35.61548],[6.18657,35.61581],[6.18656,35.61606],[6.18663,35.6162],[6.18687,35.61634],[6.18739,35.61643],[6.18754,35.6168],[6.1875,35.61716],[6.18774,35.6171],[6.18799,35.61697],[6.18838,35.61665],[6.18837,35.61651],[6.18819,35.6162],[6.18821,35.61598],[6.1883,35.61599],[6.18864,35.61635],[6.18865,35.61655],[6.18884,35.61683],[6.18951,35.61742],[6.18944,35.61758],[6.18933,35.61762],[6.18889,35.61767],[6.18851,35.61765],[6.18827,35.6177],[6.18803,35.61784],[6.18777,35.6181],[6.18779,35.61836],[6.18764,35.61866],[6.18778,35.61909],[6.18764,35.61913],[6.18733,35.61907],[6.18708,35.6191],[6.18648,35.61952],[6.18643,35.6196],[6.1865,35.6198],[6.18684,35.62017],[6.18671,35.62035],[6.18657,35.62071],[6.1867,35.62086],[6.18666,35.62098],[6.18681,35.62125],[6.18657,35.62162],[6.18658,35.62195],[6.18651,35.62235],[6.18628,35.62278],[6.18608,35.62287],[6.18598,35.62283],[6.18592,35.62252],[6.18586,35.62242],[6.18565,35.6223],[6.18555,35.6223],[6.18519,35.6226],[6.18506,35.62265],[6.1848,35.62261],[6.18454,35.62248],[6.18452,35.62235],[6.18463,35.62146],[6.18455,35.62113],[6.18459,35.62081],[6.18455,35.62067],[6.18444,35.62061],[6.18293,35.6204],[6.18188,35.62036],[6.18176,35.62031],[6.18156,35.62003],[6.18131,35.61983],[6.18077,35.61956],[6.18015,35.61936],[6.1799,35.61934],[6.17955,35.61939],[6.17828,35.62017],[6.17808,35.62049],[6.17806,35.62072],[6.17858,35.62137],[6.1785,35.62147],[6.17838,35.6215],[6.17764,35.62154],[6.17706,35.62145],[6.1768,35.62125],[6.17637,35.62069],[6.17613,35.62054],[6.17535,35.62019],[6.17522,35.62017],[6.17454,35.62039],[6.17343,35.62025],[6.17292,35.62029],[6.17232,35.62043],[6.17218,35.62052],[6.17165,35.62095],[6.17122,35.62116],[6.17102,35.62146],[6.17096,35.62187],[6.171,35.62197],[6.17139,35.62228],[6.17173,35.62267],[6.17237,35.62288],[6.17247,35.623],[6.17249,35.62329],[6.17238,35.62378],[6.1722,35.62407],[6.17185,35.62483],[6.17135,35.62534],[6.17105,35.62557],[6.17086,35.62581],[6.17024,35.62614],[6.17022,35.62621],[6.17028,35.62628]]}},{"type":"Feature","properties":{"Name":"piste tiakakin"},"geometry":{"type":"LineString","coordinates":[[5.97099,35.60375],[5.97165,35.60323],[5.97243,35.60245],[5.97351,35.60191],[5.97449,35.60127],[5.97515,35.60094],[5.9758,35.6004],[5.97625,35.60025],[5.97652,35.60022],[5.97653,35.59973],[5.97687,35.59995],[5.97675,35.59905],[5.97694,35.59869],[5.97671,35.59826],[5.97642,35.59804],[5.97593,35.59827],[5.97539,35.59863],[5.97485,35.59887],[5.9743,35.599],[5.97425,35.59905],[5.97399,35.59889],[5.97381,35.59812],[5.97403,35.59768],[5.9741,35.59723],[5.97447,35.59694],[5.97466,35.59687],[5.9741,35.59658],[5.97438,35.59639],[5.9753,35.59599],[5.97498,35.59585],[5.97421,35.5958],[5.9744,35.5957],[5.97501,35.59562],[5.97507,35.59547],[5.97435,35.59532],[5.97458,35.59511],[5.97529,35.59487],[5.97557,35.59453],[5.97578,35.59405],[5.97601,35.5938],[5.97643,35.59375],[5.97641,35.59352],[5.97603,35.5934],[5.97572,35.59367],[5.97434,35.59387],[5.97407,35.59407],[5.97389,35.59397],[5.97392,35.5935],[5.97371,35.59244],[5.9734,35.59177],[5.97301,35.59217],[5.9726,35.59241],[5.97222,35.59251],[5.97198,35.59251],[5.97144,35.59279],[5.97059,35.59337],[5.9701,35.59344],[5.96875,35.59268],[5.96825,35.59228],[5.96765,35.59187],[5.96678,35.59175],[5.96609,35.59153],[5.96543,35.59167],[5.9652,35.59152]]}},{"type":"Feature","properties":{"Name":"piste manaa lagdima vers tafrent (ouverture sonalghaz N U)"},"geometry":{"type":"LineString","coordinates":[[6.07665,35.61566],[6.07631,35.61546],[6.07563,35.61525],[6.07547,35.61513],[6.07457,35.6153],[6.07399,35.6156],[6.07373,35.61587],[6.07337,35.61602],[6.07257,35.61598],[6.07062,35.61574],[6.06973,35.61575],[6.06943,35.61588],[6.069,35.61588],[6.0686,35.61579],[6.06818,35.6156],[6.06757,35.61565],[6.06706,35.61564],[6.06665,35.61534],[6.06628,35.61521],[6.06514,35.61501],[6.06476,35.615],[6.06455,35.61524],[6.0642,35.61541],[6.06349,35.61538],[6.06342,35.61566],[6.0634,35.61612],[6.063,35.61643],[6.06285,35.61662]]}}]}