{"type":"FeatureCollection","features":[{"type":"Feature","properties":{"Name":"Boumerzoug"},"geometry":{"type":"LineString","coordinates":[[6.12041,35.56255],[6.11768,35.56109],[6.11285,35.55915],[6.10998,35.55765],[6.10615,35.55601],[6.10317,35.55491],[6.10087,35.55352],[6.09786,35.55255],[6.09677,35.5512],[6.09573,35.55101],[6.09474,35.55057],[6.09185,35.54963],[6.09058,35.54889],[6.08878,35.54776],[6.08742,35.54729]]}},{"type":"Feature","properties":{"Name":"Ain djesser vers hamla"},"geometry":{"type":"LineString","coordinates":[[6.0902,35.60494],[6.0882,35.60242],[6.08336,35.59874],[6.07993,35.59555],[6.07707,35.5895],[6.07491,35.58555],[6.07678,35.58037],[6.07674,35.57482],[6.07552,35.56412],[6.07514,35.56253]]}},{"type":"Feature","properties":{"Name":"oued chaaba vers Hidoussa"},"geometry":{"type":"LineString","coordinates":[[5.98835,35.51799],[5.97948,35.51491],[5.9699,35.51198],[5.96176,35.51106],[5.95327,35.51002],[5.94811,35.51035]]}},{"type":"Feature","properties":{"Name":"Djerma"},"geometry":{"type":"LineString","coordinates":[[6.27738,35.65294],[6.27755,35.65357],[6.27764,35.65434],[6.27786,35.65488],[6.27836,35.65523],[6.27881,35.65526],[6.27994,35.65473],[6.28117,35.6548],[6.2818,35.65493],[6.28178,35.65537],[6.28137,35.6561],[6.28125,35.65647],[6.28171,35.65692],[6.2818,35.65722],[6.28235,35.65802],[6.28277,35.65846],[6.28306,35.6588],[6.28327,35.65914],[6.2836,35.65947],[6.28392,35.6604],[6.28366,35.66098],[6.28359,35.66149],[6.2833,35.66217],[6.28336,35.66243],[6.28388,35.66285],[6.28378,35.66324],[6.28352,35.66355],[6.28306,35.66431],[6.28316,35.6647],[6.28248,35.66917],[6.28188,35.67066],[6.28152,35.67121],[6.28129,35.67194],[6.28166,35.6738],[6.28143,35.67554],[6.28063,35.6766],[6.28028,35.67722],[6.27981,35.6779],[6.27873,35.67914],[6.27659,35.68024],[6.27263,35.6827],[6.26965,35.68429],[6.26888,35.68477],[6.26802,35.68492],[6.2659,35.68555],[6.26342,35.6859],[6.26226,35.68638]]}},{"type":"Feature","properties":{"Name":"Tranchet par feu son/ ligne chengoura"},"geometry":{"type":"LineString","coordinates":[[6.26649,35.63928],[6.2652,35.63816],[6.26402,35.6367],[6.26298,35.63507],[6.26197,35.63442],[6.26147,35.63356],[6.26086,35.63275],[6.25998,35.63189],[6.25881,35.63092],[6.25804,35.63051],[6.25777,35.63026]]}},{"type":"Feature","properties":{"Name":"Bouilef"},"geometry":{"type":"LineString","coordinates":[[6.20861,35.59977],[6.20622,35.59834],[6.20548,35.59782],[6.20479,35.59729],[6.20418,35.59671],[6.20129,35.59422]]}},{"type":"Feature","properties":{"Name":"Djerma"},"geometry":{"type":"LineString","coordinates":[[6.2503,35.68997],[6.2508,35.68962],[6.25132,35.68953],[6.25161,35.68933],[6.25195,35.68901],[6.25234,35.68902],[6.25261,35.68909],[6.25271,35.68902],[6.25378,35.68721],[6.25376,35.68683],[6.25393,35.68585],[6.25413,35.68542],[6.25418,35.68509],[6.25458,35.68437],[6.25499,35.68391],[6.25557,35.68366],[6.25539,35.68311],[6.25561,35.6825],[6.25606,35.68239],[6.25658,35.68189],[6.25712,35.68162],[6.2576,35.68078],[6.25793,35.68066],[6.25831,35.68064],[6.25916,35.68044],[6.2597,35.68041],[6.26009,35.6806],[6.26014,35.68072],[6.25999,35.68095],[6.25997,35.68113],[6.26014,35.68122],[6.26042,35.68119],[6.26066,35.68125],[6.26094,35.68122],[6.26157,35.6814],[6.26205,35.68121],[6.26237,35.68089]]}},{"type":"Feature","properties":{"Name":"Djerma"},"geometry":{"type":"LineString","coordinates":[[6.27926,35.67667],[6.27841,35.67821],[6.27773,35.67862],[6.27649,35.67906],[6.27525,35.67969],[6.27395,35.68021],[6.27273,35.68099],[6.27142,35.68145],[6.27078,35.68191],[6.2696,35.6823],[6.26916,35.68257],[6.26815,35.68305],[6.26687,35.68351],[6.26499,35.68446],[6.26367,35.68503],[6.2626,35.68485],[6.26178,35.68477],[6.26111,35.68482],[6.26042,35.68492],[6.25978,35.68511],[6.2585,35.68532],[6.25827,35.68548],[6.25777,35.68557]]}},{"type":"Feature","properties":{"Name":"Djerma"},"geometry":{"type":"LineString","coordinates":[[6.27981,35.67124],[6.28027,35.67013],[6.28054,35.66883],[6.28089,35.66785],[6.28131,35.66615],[6.28148,35.66514],[6.28189,35.66433],[6.28218,35.66323],[6.28226,35.6626],[6.28266,35.66174]]}},{"type":"Feature","properties":{"Name":"Djerma"},"geometry":{"type":"LineString","coordinates":[[6.28199,35.67309],[6.28347,35.67195],[6.28417,35.671],[6.28447,35.67034],[6.28506,35.6694],[6.2854,35.66846],[6.28555,35.66757],[6.28591,35.66509],[6.28592,35.66415]]}},{"type":"Feature","properties":{"Name":"Djerma"},"geometry":{"type":"LineString","coordinates":[[6.28399,35.67224],[6.28455,35.67145],[6.28567,35.67003],[6.2862,35.66953],[6.28622,35.6688],[6.28606,35.66626],[6.28618,35.66582]]}},{"type":"Feature","properties":{"Name":"chengoura"},"geometry":{"type":"LineString","coordinates":[[6.26109,35.63634],[6.25991,35.63558],[6.25915,35.63471],[6.25813,35.63382],[6.2574,35.63326],[6.2569,35.63298]]}},{"type":"Feature","properties":{"Name":"Changoura"},"geometry":{"type":"LineString","coordinates":[[6.26852,35.63924],[6.26787,35.6387],[6.26656,35.63608],[6.26615,35.63552],[6.26547,35.63428],[6.26482,35.6333],[6.26414,35.63249],[6.26314,35.63074],[6.26278,35.63035],[6.26244,35.62976]]}},{"type":"Feature","properties":{"Name":"Changoura"},"geometry":{"type":"LineString","coordinates":[[6.27305,35.63978],[6.27129,35.63833],[6.26994,35.63701],[6.26673,35.63412],[6.2656,35.63296],[6.26336,35.63101],[6.26238,35.63033],[6.26131,35.62997],[6.26066,35.62959],[6.26018,35.62921],[6.2593,35.62881]]}},{"type":"Feature","properties":{"Name":"changoura"},"geometry":{"type":"LineString","coordinates":[[6.26505,35.63031],[6.26402,35.63018],[6.2629,35.62989],[6.26177,35.62979],[6.26129,35.62962],[6.26076,35.62969],[6.26052,35.62955],[6.25935,35.62944]]}},{"type":"Feature","properties":{"Name":"Tagharbit vers bouilef"},"geometry":{"type":"LineString","coordinates":[[6.22439,35.61719],[6.21709,35.61426],[6.20889,35.61088],[6.20593,35.60641],[6.20203,35.604],[6.19341,35.59609],[6.1855,35.59138],[6.1836,35.58848]]}},{"type":"Feature","properties":{"Name":"Parcours sportif"},"geometry":{"type":"LineString","coordinates":[[6.17288,35.58533],[6.16482,35.58425]]}},{"type":"Feature","properties":{"Name":"Djerma"},"geometry":{"type":"LineString","coordinates":[[6.27738,35.65294],[6.27755,35.65357],[6.27764,35.65434],[6.27786,35.65488],[6.27836,35.65523],[6.27881,35.65526],[6.27994,35.65473],[6.28117,35.6548],[6.2818,35.65493],[6.28178,35.65537],[6.28137,35.6561],[6.28125,35.65647],[6.28171,35.65692],[6.2818,35.65722],[6.28235,35.65802],[6.28277,35.65846],[6.28306,35.6588],[6.28327,35.65914],[6.2836,35.65947],[6.28392,35.6604],[6.28366,35.66098],[6.28359,35.66149],[6.2833,35.66217],[6.28336,35.66243],[6.28388,35.66285],[6.28378,35.66324],[6.28352,35.66355],[6.28306,35.66431],[6.28316,35.6647],[6.28248,35.66917],[6.28188,35.67066],[6.28152,35.67121],[6.28129,35.67194],[6.28166,35.6738],[6.28143,35.67554],[6.28063,35.6766],[6.28028,35.67722],[6.27981,35.6779],[6.27873,35.67914],[6.27659,35.68024],[6.27263,35.6827],[6.26965,35.68429],[6.26888,35.68477],[6.26802,35.68492],[6.2659,35.68555],[6.26342,35.6859],[6.26226,35.68638]]}},{"type":"Feature","properties":{"Name":"Tranchet par feu son/ ligne chengoura"},"geometry":{"type":"LineString","coordinates":[[6.26649,35.63928],[6.2652,35.63816],[6.26402,35.6367],[6.26298,35.63507],[6.26197,35.63442],[6.26147,35.63356],[6.26086,35.63275],[6.25998,35.63189],[6.25881,35.63092],[6.25804,35.63051],[6.25777,35.63026]]}},{"type":"Feature","properties":{"Name":"Bouilef"},"geometry":{"type":"LineString","coordinates":[[6.20861,35.59977],[6.20622,35.59834],[6.20548,35.59782],[6.20479,35.59729],[6.20418,35.59671],[6.20129,35.59422]]}},{"type":"Feature","properties":{"Name":"Djerma"},"geometry":{"type":"LineString","coordinates":[[6.2503,35.68997],[6.2508,35.68962],[6.25132,35.68953],[6.25161,35.68933],[6.25195,35.68901],[6.25234,35.68902],[6.25261,35.68909],[6.25271,35.68902],[6.25378,35.68721],[6.25376,35.68683],[6.25393,35.68585],[6.25413,35.68542],[6.25418,35.68509],[6.25458,35.68437],[6.25499,35.68391],[6.25557,35.68366],[6.25539,35.68311],[6.25561,35.6825],[6.25606,35.68239],[6.25658,35.68189],[6.25712,35.68162],[6.2576,35.68078],[6.25793,35.68066],[6.25831,35.68064],[6.25916,35.68044],[6.2597,35.68041],[6.26009,35.6806],[6.26014,35.68072],[6.25999,35.68095],[6.25997,35.68113],[6.26014,35.68122],[6.26042,35.68119],[6.26066,35.68125],[6.26094,35.68122],[6.26157,35.6814],[6.26205,35.68121],[6.26237,35.68089]]}},{"type":"Feature","properties":{"Name":"Djerma"},"geometry":{"type":"LineString","coordinates":[[6.27926,35.67667],[6.27841,35.67821],[6.27773,35.67862],[6.27649,35.67906],[6.27525,35.67969],[6.27395,35.68021],[6.27273,35.68099],[6.27142,35.68145],[6.27078,35.68191],[6.2696,35.6823],[6.26916,35.68257],[6.26815,35.68305],[6.26687,35.68351],[6.26499,35.68446],[6.26367,35.68503],[6.2626,35.68485],[6.26178,35.68477],[6.26111,35.68482],[6.26042,35.68492],[6.25978,35.68511],[6.2585,35.68532],[6.25827,35.68548],[6.25777,35.68557]]}},{"type":"Feature","properties":{"Name":"Djerma"},"geometry":{"type":"LineString","coordinates":[[6.27981,35.67124],[6.28027,35.67013],[6.28054,35.66883],[6.28089,35.66785],[6.28131,35.66615],[6.28148,35.66514],[6.28189,35.66433],[6.28218,35.66323],[6.28226,35.6626],[6.28266,35.66174]]}},{"type":"Feature","properties":{"Name":"Djerma"},"geometry":{"type":"LineString","coordinates":[[6.28199,35.67309],[6.28347,35.67195],[6.28417,35.671],[6.28447,35.67034],[6.28506,35.6694],[6.2854,35.66846],[6.28555,35.66757],[6.28591,35.66509],[6.28592,35.66415]]}},{"type":"Feature","properties":{"Name":"Djerma"},"geometry":{"type":"LineString","coordinates":[[6.28399,35.67224],[6.28455,35.67145],[6.28567,35.67003],[6.2862,35.66953],[6.28622,35.6688],[6.28606,35.66626],[6.28618,35.66582]]}},{"type":"Feature","properties":{"Name":"chengoura"},"geometry":{"type":"LineString","coordinates":[[6.26109,35.63634],[6.25991,35.63558],[6.25915,35.63471],[6.25813,35.63382],[6.2574,35.63326],[6.2569,35.63298]]}},{"type":"Feature","properties":{"Name":"Changoura"},"geometry":{"type":"LineString","coordinates":[[6.26852,35.63924],[6.26787,35.6387],[6.26656,35.63608],[6.26615,35.63552],[6.26547,35.63428],[6.26482,35.6333],[6.26414,35.63249],[6.26314,35.63074],[6.26278,35.63035],[6.26244,35.62976]]}},{"type":"Feature","properties":{"Name":"Changoura"},"geometry":{"type":"LineString","coordinates":[[6.27305,35.63978],[6.27129,35.63833],[6.26994,35.63701],[6.26673,35.63412],[6.2656,35.63296],[6.26336,35.63101],[6.26238,35.63033],[6.26131,35.62997],[6.26066,35.62959],[6.26018,35.62921],[6.2593,35.62881]]}},{"type":"Feature","properties":{"Name":"changoura"},"geometry":{"type":"LineString","coordinates":[[6.26505,35.63031],[6.26402,35.63018],[6.2629,35.62989],[6.26177,35.62979],[6.26129,35.62962],[6.26076,35.62969],[6.26052,35.62955],[6.25935,35.62944]]}},{"type":"Feature","properties":{"Name":"Tagharbit vers bouilef"},"geometry":{"type":"LineString","coordinates":[[6.22439,35.61719],[6.21709,35.61426],[6.20889,35.61088],[6.20593,35.60641],[6.20203,35.604],[6.19341,35.59609],[6.1855,35.59138],[6.1836,35.58848]]}},{"type":"Feature","properties":{"Name":"chlaalaa"},"geometry":{"type":"LineString","coordinates":[[6.08234,35.61721],[6.08357,35.61721],[6.08526,35.61736],[6.08561,35.61728],[6.08593,35.61714],[6.08648,35.61724],[6.08681,35.61718],[6.08708,35.61705],[6.08723,35.61691],[6.08722,35.6167],[6.08709,35.61653],[6.08709,35.6163],[6.08729,35.61614],[6.08753,35.61613]]}},{"type":"Feature","properties":{"Name":"Oued El ma"},"geometry":{"type":"LineString","coordinates":[[6.08734,35.61618],[6.09594,35.6095],[6.09312,35.60701],[6.09025,35.60505]]}}]}