{"type":"FeatureCollection","features":[{"type":"Feature","properties":{"Name":"TRANSITION"},"geometry":{"type":"MultiPolygon","coordinates":[[[[5.96142,35.53011],[5.96005,35.52973],[5.95831,35.52849],[5.95702,35.52796],[5.95413,35.52775],[5.95361,35.52763],[5.9535,35.52813],[5.95352,35.52879],[5.95518,35.53065],[5.9557,35.53152],[5.95687,35.53251],[5.95675,35.53282],[5.95439,35.53124],[5.95181,35.52901],[5.94982,35.52773],[5.9478,35.52591],[5.94574,35.52427],[5.94595,35.5224],[5.9475,35.5222],[5.94986,35.52055],[5.95259,35.51924],[5.95557,35.51915],[5.95953,35.52078],[5.9632,35.5214],[5.96509,35.52348],[5.9698,35.52542],[5.97288,35.52598],[5.97612,35.52718],[5.98195,35.53081],[5.98372,35.53134],[5.98448,35.53275],[5.98644,35.5345],[5.99118,35.53667],[5.99405,35.53722],[5.99533,35.5372],[5.99587,35.53905],[5.99846,35.54006],[6.00077,35.54022],[6.00322,35.54006],[6.00569,35.54127],[6.00701,35.5423],[6.00673,35.54362],[6.00487,35.54521],[6.00147,35.54867],[5.99972,35.54968],[5.99784,35.55048],[5.9938,35.55135],[5.99184,35.55136],[5.9911,35.55108],[5.99154,35.5511],[5.99237,35.55088],[5.99363,35.55005],[5.9945,35.54927],[5.99341,35.54871],[5.98978,35.54713],[5.98856,35.5471],[5.98774,35.5473],[5.98499,35.54723],[5.98161,35.54608],[5.98068,35.54615],[5.97972,35.54647],[5.97924,35.54637],[5.97867,35.54605],[5.9778,35.54529],[5.97724,35.54514],[5.97373,35.54494],[5.97132,35.54494],[5.97084,35.54466],[5.97085,35.54402],[5.97108,35.54372],[5.97096,35.54341],[5.96994,35.54273],[5.96879,35.54291],[5.96797,35.54261],[5.96751,35.54204],[5.96737,35.54118],[5.96744,35.54063],[5.96821,35.53971],[5.97083,35.53887],[5.97151,35.53886],[5.97354,35.53924],[5.97636,35.53889],[5.9774,35.53807],[5.97776,35.53757],[5.97713,35.53725],[5.97656,35.53716],[5.97501,35.5377],[5.97451,35.53775],[5.97419,35.53767],[5.97397,35.53707],[5.97448,35.53649],[5.97454,35.53617],[5.97396,35.53595],[5.97141,35.53647],[5.97091,35.53641],[5.97011,35.53657],[5.96951,35.5369],[5.96901,35.53676],[5.96858,35.53682],[5.96782,35.53674],[5.96718,35.53645],[5.96688,35.53647],[5.96627,35.53593],[5.96622,35.53556],[5.96635,35.53547],[5.9659,35.53518],[5.96619,35.53497],[5.96673,35.53498],[5.96729,35.53471],[5.96777,35.53418],[5.96842,35.53428],[5.96888,35.53406],[5.97117,35.53391],[5.9733,35.53341],[5.97502,35.53339],[5.97571,35.53321],[5.97586,35.53298],[5.9745,35.53194],[5.97365,35.53159],[5.96996,35.53105],[5.96866,35.53102],[5.96759,35.53148],[5.96656,35.53274],[5.96555,35.53292],[5.96275,35.53105],[5.96229,35.53048],[5.96142,35.53011]],[[5.98506,35.54399],[5.98645,35.54367],[5.98669,35.54338],[5.98648,35.54332],[5.98609,35.54345],[5.98559,35.54336],[5.98445,35.54301],[5.98396,35.54306],[5.98357,35.54339],[5.98361,35.54355],[5.98378,35.54366],[5.98461,35.54394],[5.98506,35.54399]],[[5.97606,35.54182],[5.97638,35.54168],[5.97742,35.5409],[5.97746,35.54072],[5.97759,35.54065],[5.97804,35.54048],[5.97851,35.5405],[5.97805,35.54012],[5.97747,35.53991],[5.97719,35.53991],[5.97533,35.54108],[5.97504,35.54149],[5.97504,35.54171],[5.97516,35.5418],[5.97606,35.54182]]],[[[6.0063,35.55217],[6.00653,35.55192],[6.00663,35.55217],[6.00678,35.55226],[6.00678,35.55248],[6.00689,35.55259],[6.00694,35.55277],[6.00673,35.55319],[6.00684,35.55405],[6.00636,35.55338],[6.0063,35.55217]]],[[[5.95784,35.53393],[5.95787,35.53382],[5.95872,35.53398],[5.9621,35.53514],[5.96017,35.53667],[5.95922,35.53659],[5.95827,35.53629],[5.9571,35.53611],[5.95213,35.5365],[5.95054,35.5365],[5.94977,35.53707],[5.94928,35.53815],[5.94855,35.53748],[5.94817,35.53668],[5.94698,35.53617],[5.94656,35.53652],[5.94647,35.53743],[5.94688,35.53839],[5.94703,35.53961],[5.94695,35.54005],[5.94647,35.54065],[5.94596,35.54114],[5.94372,35.54068],[5.94274,35.54078],[5.94207,35.54125],[5.94175,35.54172],[5.94183,35.54212],[5.94168,35.54334],[5.94067,35.5434],[5.93916,35.54275],[5.93834,35.54265],[5.93748,35.5426],[5.93684,35.54285],[5.9363,35.54293],[5.93635,35.54487],[5.93698,35.54614],[5.9367,35.54641],[5.93501,35.54581],[5.93448,35.54538],[5.93404,35.54522],[5.9329,35.54516],[5.93112,35.54489],[5.93049,35.54501],[5.93004,35.54533],[5.9304,35.54571],[5.93033,35.54588],[5.93041,35.54665],[5.93162,35.54769],[5.93161,35.54813],[5.93093,35.54878],[5.92852,35.54859],[5.92826,35.54865],[5.92822,35.54897],[5.92963,35.54991],[5.93006,35.55066],[5.93039,35.55098],[5.93111,35.5513],[5.93169,35.55131],[5.93218,35.5508],[5.9325,35.55095],[5.93253,35.55137],[5.93203,35.55154],[5.93155,35.55158],[5.93067,35.55144],[5.92957,35.55286],[5.92919,35.5528],[5.92644,35.55417],[5.92494,35.55468],[5.9258,35.5538],[5.92674,35.55248],[5.92779,35.55146],[5.92798,35.55055],[5.92711,35.54906],[5.92721,35.54852],[5.92824,35.54758],[5.9288,35.54673],[5.92919,35.54497],[5.93007,35.54424],[5.93367,35.54359],[5.93295,35.54246],[5.93275,35.54156],[5.93363,35.54096],[5.93479,35.54109],[5.93629,35.54094],[5.93706,35.54024],[5.93712,35.53971],[5.9381,35.53922],[5.93883,35.53848],[5.93908,35.53778],[5.93923,35.53686],[5.93948,35.53604],[5.94212,35.53476],[5.94402,35.53462],[5.94673,35.5353],[5.9485,35.53619],[5.94978,35.53665],[5.95049,35.53609],[5.95657,35.53527],[5.95778,35.5348],[5.9574,35.53423],[5.95784,35.53393]]],[[[5.99783,35.56411],[5.9999,35.56621],[6.0005,35.56668],[6.00002,35.56696],[5.99886,35.56721],[5.99774,35.56662],[5.99718,35.56619],[5.99728,35.56593],[5.99662,35.56557],[5.99584,35.56544],[5.99491,35.56491],[5.99418,35.56506],[5.9937,35.56485],[5.99396,35.56435],[5.99446,35.56394],[5.99568,35.56335],[5.99517,35.56301],[5.99448,35.56271],[5.99398,35.56208],[5.99391,35.56178],[5.99353,35.56151],[5.99295,35.56136],[5.99267,35.56134],[5.99218,35.56168],[5.99187,35.56221],[5.99095,35.56288],[5.98942,35.56342],[5.98807,35.5642],[5.98695,35.56418],[5.98667,35.56378],[5.98618,35.56359],[5.98593,35.56351],[5.98563,35.56364],[5.98454,35.56244],[5.98327,35.56205],[5.98229,35.56112],[5.98183,35.56121],[5.98174,35.5611],[5.9829,35.56093],[5.98456,35.56021],[5.98524,35.55911],[5.98338,35.55808],[5.98163,35.55749],[5.98077,35.55708],[5.9768,35.55623],[5.97522,35.5563],[5.97474,35.55618],[5.97504,35.55585],[5.97525,35.55453],[5.97442,35.55373],[5.97279,35.55394],[5.97314,35.5538],[5.97294,35.55381],[5.97468,35.55239],[5.97878,35.55359],[5.98226,35.55532],[5.98499,35.55722],[5.98515,35.55851],[5.98659,35.55895],[5.98975,35.55844],[5.99328,35.55975],[5.99359,35.5598],[5.99689,35.56176],[5.99783,35.56411]]],[[[6.00634,35.55495],[6.00675,35.55503],[6.00731,35.55566],[6.00778,35.556],[6.00801,35.5569],[6.00765,35.55779],[6.00762,35.55838],[6.00784,35.55899],[6.00819,35.55959],[6.00854,35.55985],[6.01,35.55966],[6.01059,35.55974],[6.01109,35.56],[6.01138,35.5603],[6.01194,35.56123],[6.01189,35.56224],[6.01207,35.5623],[6.01221,35.56218],[6.01217,35.56193],[6.0123,35.56183],[6.0128,35.56207],[6.01243,35.56278],[6.01253,35.56286],[6.01325,35.56281],[6.01393,35.56304],[6.01431,35.5633],[6.01472,35.56392],[6.0156,35.56439],[6.01599,35.56493],[6.01602,35.56591],[6.01662,35.56633],[6.01751,35.56673],[6.01796,35.56727],[6.01799,35.56746],[6.01786,35.56774],[6.01776,35.56782],[6.0167,35.56731],[6.0141,35.5653],[6.01356,35.56473],[6.01136,35.56428],[6.01118,35.56403],[6.01115,35.56374],[6.01154,35.56316],[6.01162,35.56247],[6.01136,35.56189],[6.01089,35.56145],[6.01031,35.56144],[6.00856,35.56263],[6.00734,35.56268],[6.0062,35.56253],[6.00465,35.5621],[6.00406,35.56207],[6.00212,35.56171],[6.00113,35.56173],[6.00037,35.56187],[5.99933,35.56138],[5.99854,35.5594],[5.99802,35.55896],[5.99752,35.5581],[5.99749,35.55751],[5.9967,35.55607],[5.99667,35.55551],[5.99706,35.5551],[5.99747,35.55421],[5.99809,35.55399],[5.99859,35.55363],[5.99933,35.55343],[5.99984,35.55305],[6.00134,35.55257],[6.00195,35.55259],[6.00263,35.55249],[6.00291,35.55296],[6.00374,35.55363],[6.00634,35.55495]]],[[[6.01426,35.56747],[6.01227,35.56638],[6.01365,35.56691],[6.01456,35.56738],[6.01522,35.56805],[6.01481,35.56792],[6.01426,35.56747]]],[[[6.01611,35.56832],[6.01583,35.56824],[6.01644,35.56803],[6.01675,35.56804],[6.01611,35.56832]]],[[[6.07399,35.57173],[6.07406,35.57211],[6.07438,35.5726],[6.07377,35.57367],[6.07378,35.57427],[6.07398,35.57488],[6.07359,35.5752],[6.07541,35.57746],[6.07369,35.57694],[6.07032,35.57512],[6.06962,35.57496],[6.06741,35.5735],[6.0669,35.573],[6.06638,35.57206],[6.0656,35.57191],[6.06481,35.57155],[6.0635,35.57164],[6.0625,35.57181],[6.06166,35.57182],[6.06112,35.572],[6.06069,35.57189],[6.06021,35.57144],[6.05946,35.57109],[6.05825,35.57105],[6.0573,35.57123],[6.05627,35.57114],[6.05413,35.57063],[6.05346,35.57017],[6.05228,35.56997],[6.05186,35.5697],[6.05125,35.5696],[6.05085,35.5694],[6.05025,35.56926],[6.04975,35.56895],[6.04849,35.56873],[6.04687,35.56756],[6.04652,35.56717],[6.04641,35.5669],[6.04647,35.56656],[6.04711,35.56603],[6.04835,35.56569],[6.05043,35.56569],[6.05118,35.56578],[6.05264,35.5665],[6.05338,35.56715],[6.05407,35.56728],[6.05495,35.56717],[6.05588,35.56673],[6.05939,35.56666],[6.0597,35.56656],[6.06003,35.56625],[6.06001,35.56607],[6.05984,35.56593],[6.058,35.56605],[6.05677,35.56572],[6.05616,35.56574],[6.05574,35.56586],[6.05517,35.56578],[6.05473,35.5654],[6.05454,35.5649],[6.05369,35.56385],[6.05302,35.56282],[6.05282,35.56146],[6.0529,35.56114],[6.05315,35.5608],[6.05341,35.56063],[6.05393,35.56048],[6.0549,35.56035],[6.05562,35.56064],[6.05685,35.56094],[6.05753,35.5609],[6.05791,35.56057],[6.05791,35.56023],[6.05773,35.55982],[6.05724,35.55937],[6.05621,35.55917],[6.0556,35.55919],[6.05494,35.55937],[6.0536,35.56017],[6.05148,35.56064],[6.05113,35.5608],[6.05077,35.56082],[6.05025,35.56055],[6.05003,35.56009],[6.04968,35.55976],[6.04926,35.55974],[6.04882,35.55994],[6.04829,35.55995],[6.04725,35.5597],[6.04483,35.55886],[6.04427,35.55825],[6.04366,35.55716],[6.04371,35.55676],[6.04398,35.55622],[6.04386,35.55517],[6.04435,35.55415],[6.04414,35.55277],[6.04429,35.55227],[6.04465,35.55166],[6.04519,35.55133],[6.04527,35.55109],[6.04509,35.5508],[6.04467,35.55055],[6.04371,35.55047],[6.04316,35.55018],[6.04301,35.54994],[6.04296,35.54953],[6.04329,35.54894],[6.04388,35.54856],[6.04647,35.54859],[6.04673,35.54852],[6.04732,35.5481],[6.04731,35.54777],[6.04709,35.54764],[6.04634,35.54782],[6.04532,35.54773],[6.04418,35.54711],[6.04382,35.547],[6.04316,35.54701],[6.04245,35.54686],[6.04116,35.54686],[6.04065,35.54674],[6.03982,35.5463],[6.03931,35.54614],[6.03754,35.5459],[6.0371,35.54592],[6.03657,35.54612],[6.03582,35.54579],[6.03523,35.54596],[6.03473,35.54707],[6.03447,35.54725],[6.03309,35.54762],[6.03293,35.54776],[6.03248,35.54834],[6.03207,35.54936],[6.03213,35.54969],[6.03279,35.55021],[6.03376,35.55044],[6.03448,35.55044],[6.03478,35.55041],[6.03536,35.55002],[6.03619,35.55012],[6.03691,35.55057],[6.03745,35.5517],[6.03834,35.55223],[6.04009,35.55261],[6.04197,35.55285],[6.04234,35.55308],[6.04253,35.55339],[6.04243,35.55363],[6.04163,35.55379],[6.04135,35.55396],[6.0406,35.55518],[6.03958,35.55571],[6.0389,35.55574],[6.0382,35.55556],[6.03792,35.55539],[6.03686,35.5542],[6.03563,35.55362],[6.03507,35.55347],[6.03426,35.55358],[6.03324,35.5542],[6.03105,35.55386],[6.03074,35.55398],[6.03042,35.55441],[6.0293,35.55488],[6.02888,35.55498],[6.02809,35.55493],[6.02619,35.5551],[6.02522,35.55478],[6.02315,35.55437],[6.02262,35.55419],[6.02057,35.55385],[6.02044,35.55372],[6.01972,35.55357],[6.01926,35.55315],[6.01849,35.55292],[6.01756,35.55278],[6.01713,35.55281],[6.01689,35.55301],[6.01687,35.55333],[6.01675,35.55346],[6.01648,35.55346],[6.0164,35.55337],[6.01611,35.55345],[6.01501,35.55322],[6.01385,35.55319],[6.01198,35.55355],[6.01136,35.55391],[6.01102,35.55422],[6.01108,35.5545],[6.01127,35.55456],[6.01304,35.55499],[6.01679,35.5561],[6.0172,35.55662],[6.01754,35.55684],[6.01499,35.55786],[6.01401,35.5575],[6.013,35.55736],[6.01188,35.55752],[6.01,35.55831],[6.00957,35.55837],[6.00883,35.55818],[6.00844,35.5578],[6.00838,35.55745],[6.00852,35.55659],[6.00888,35.55603],[6.00907,35.55584],[6.00995,35.55537],[6.0103,35.55497],[6.01096,35.55459],[6.01101,35.5542],[6.01122,35.55395],[6.01201,35.55347],[6.01247,35.55345],[6.01235,35.55313],[6.01189,35.55292],[6.00993,35.55313],[6.00911,35.55286],[6.00806,35.5523],[6.00681,35.55179],[6.0066,35.55185],[6.00745,35.55117],[6.00799,35.55128],[6.00916,35.55195],[6.01043,35.552],[6.01116,35.55194],[6.01178,35.55171],[6.01229,35.55076],[6.01319,35.54993],[6.01427,35.54939],[6.01505,35.54913],[6.01582,35.54859],[6.01588,35.54816],[6.01576,35.54777],[6.01522,35.54735],[6.01394,35.54663],[6.01345,35.54572],[6.01489,35.5439],[6.01687,35.54457],[6.01911,35.54508],[6.02017,35.54499],[6.02022,35.54442],[6.01844,35.54262],[6.01782,35.5423],[6.01789,35.54189],[6.01772,35.54133],[6.01765,35.53986],[6.01733,35.53851],[6.01797,35.53753],[6.01809,35.53694],[6.01861,35.536],[6.01927,35.53377],[6.01918,35.53333],[6.01877,35.53259],[6.01838,35.53215],[6.01773,35.5318],[6.01728,35.531],[6.01706,35.53036],[6.01667,35.52992],[6.01602,35.52881],[6.01579,35.52764],[6.01624,35.52717],[6.01787,35.52772],[6.01798,35.52767],[6.0184,35.52812],[6.01887,35.52843],[6.02031,35.52867],[6.02183,35.52927],[6.02265,35.52943],[6.02358,35.52978],[6.02421,35.52987],[6.02551,35.5304],[6.0268,35.53042],[6.02935,35.53138],[6.02947,35.53159],[6.03057,35.53198],[6.03255,35.53288],[6.03396,35.53319],[6.03641,35.53389],[6.03716,35.5343],[6.03806,35.53443],[6.03908,35.5349],[6.03997,35.53509],[6.04052,35.53551],[6.04237,35.53595],[6.04274,35.53588],[6.04339,35.53606],[6.04402,35.53598],[6.04656,35.53684],[6.04807,35.53716],[6.04865,35.53709],[6.04941,35.53742],[6.05288,35.53805],[6.05386,35.53802],[6.05519,35.53845],[6.05537,35.53911],[6.05482,35.53928],[6.05422,35.53968],[6.05386,35.54033],[6.05324,35.54064],[6.05274,35.54154],[6.05196,35.5424],[6.05181,35.54301],[6.05197,35.54367],[6.05224,35.54428],[6.05222,35.54471],[6.05252,35.54516],[6.05266,35.54582],[6.05303,35.5465],[6.05329,35.54724],[6.05398,35.54826],[6.05472,35.54912],[6.05527,35.54961],[6.05732,35.5508],[6.05895,35.55146],[6.05937,35.55186],[6.06145,35.55274],[6.06188,35.5532],[6.06236,35.55345],[6.06395,35.55546],[6.06429,35.55607],[6.06447,35.55651],[6.0645,35.55698],[6.06437,35.55781],[6.06581,35.55982],[6.06634,35.56171],[6.06518,35.56343],[6.05926,35.56466],[6.05899,35.56578],[6.06004,35.56587],[6.06018,35.56598],[6.06041,35.56654],[6.06266,35.56683],[6.0652,35.56654],[6.06787,35.56459],[6.06813,35.56514],[6.07084,35.56679],[6.07144,35.56698],[6.07155,35.56718],[6.07271,35.56747],[6.07445,35.5687],[6.07484,35.56944],[6.07491,35.56983],[6.07481,35.57024],[6.07456,35.57068],[6.07423,35.57101],[6.07399,35.57173]]],[[[6.02201,35.57614],[6.02473,35.57924],[6.02769,35.58287],[6.03132,35.58384],[6.03052,35.58443],[6.02996,35.58458],[6.02528,35.58357],[6.02515,35.58349],[6.02447,35.58224],[6.02387,35.58201],[6.02327,35.5816],[6.02104,35.58044],[6.01996,35.57997],[6.01851,35.58016],[6.01724,35.57968],[6.01525,35.5791],[6.01315,35.57883],[6.00985,35.57902],[6.00848,35.57871],[6.00698,35.57872],[6.00523,35.57787],[6.0031,35.57755],[6.0011,35.57708],[5.99949,35.57703],[5.99796,35.57718],[5.99693,35.57693],[5.9969,35.57679],[5.99698,35.57542],[6.00264,35.57608],[6.00928,35.57607],[6.01517,35.57532],[6.01863,35.57594],[6.02201,35.57614]]],[[[5.93636,35.5862],[5.93479,35.58794],[5.9329,35.58932],[5.92704,35.59114],[5.92286,35.59145],[5.92006,35.59223],[5.91848,35.59517],[5.91617,35.59704],[5.91367,35.59767],[5.91061,35.59653],[5.90765,35.59205],[5.91029,35.58785],[5.91232,35.58533],[5.91631,35.58188],[5.91957,35.58103],[5.91896,35.58193],[5.91833,35.58328],[5.91678,35.58537],[5.91614,35.58591],[5.91619,35.58616],[5.91594,35.5865],[5.91757,35.58706],[5.91816,35.58684],[5.91894,35.58675],[5.91948,35.58637],[5.92092,35.58578],[5.92361,35.58538],[5.9261,35.58537],[5.92668,35.58516],[5.92858,35.58477],[5.9298,35.5851],[5.93162,35.58578],[5.9323,35.5857],[5.93209,35.58488],[5.93156,35.58373],[5.93116,35.58316],[5.93145,35.58247],[5.93107,35.5821],[5.93084,35.58135],[5.93101,35.58105],[5.93296,35.58186],[5.93317,35.58182],[5.9339,35.58095],[5.93373,35.58042],[5.93306,35.57977],[5.93268,35.57962],[5.93192,35.57892],[5.93196,35.57813],[5.9327,35.57768],[5.93391,35.57721],[5.93707,35.57751],[5.93836,35.57747],[5.93874,35.57794],[5.93974,35.5797],[5.94062,35.58031],[5.94146,35.5806],[5.9451,35.58008],[5.94601,35.58009],[5.94946,35.57923],[5.95064,35.57847],[5.95263,35.57906],[5.95434,35.58004],[5.9549,35.58053],[5.95632,35.57928],[5.95749,35.5792],[5.95856,35.57948],[5.95828,35.5802],[5.95806,35.58032],[5.95718,35.58039],[5.95576,35.58083],[5.95473,35.58178],[5.95466,35.58196],[5.95244,35.58266],[5.94975,35.58313],[5.94669,35.58318],[5.94401,35.58342],[5.94066,35.58491],[5.93809,35.58491],[5.93636,35.5862]]],[[[5.95423,35.59983],[5.9496,35.60296],[5.94703,35.60263],[5.94644,35.60148],[5.94694,35.59756],[5.94748,35.59415],[5.9489,35.59024],[5.9538,35.58695],[5.95628,35.58425],[5.9632,35.58203],[5.96715,35.58229],[5.96719,35.58263],[5.96761,35.58362],[5.96819,35.5845],[5.96873,35.58598],[5.96884,35.58607],[5.96835,35.58757],[5.96796,35.58813],[5.96623,35.58834],[5.96549,35.58867],[5.96387,35.58816],[5.96307,35.58772],[5.96215,35.58778],[5.96068,35.58749],[5.9589,35.58787],[5.95822,35.58832],[5.958,35.58875],[5.95787,35.59],[5.95768,35.59086],[5.95677,35.59278],[5.95481,35.59382],[5.95442,35.59423],[5.95417,35.59495],[5.9534,35.59569],[5.95348,35.59696],[5.954,35.59748],[5.95481,35.59739],[5.95641,35.59668],[5.95683,35.59679],[5.95691,35.59717],[5.95669,35.59806],[5.95687,35.59842],[5.95738,35.59875],[5.95822,35.59889],[5.95914,35.59883],[5.96022,35.5984],[5.96124,35.59792],[5.96489,35.59564],[5.96614,35.59519],[5.96636,35.59542],[5.96606,35.59625],[5.96601,35.59705],[5.9661,35.59788],[5.96754,35.59957],[5.96756,35.59999],[5.96696,35.60209],[5.96575,35.60222],[5.96361,35.60221],[5.96124,35.6016],[5.95656,35.60003],[5.95423,35.59983]]],[[[6.06798,35.61139],[6.06772,35.61081],[6.06869,35.61069],[6.06988,35.6111],[6.07014,35.6111],[6.07047,35.61095],[6.07086,35.61104],[6.07097,35.61121],[6.0714,35.61138],[6.07176,35.61134],[6.07196,35.61117],[6.07174,35.61083],[6.07175,35.61062],[6.07199,35.61053],[6.07293,35.61047],[6.07311,35.6106],[6.07329,35.61128],[6.07359,35.61167],[6.07341,35.61179],[6.07306,35.61177],[6.07304,35.6121],[6.0728,35.61223],[6.07234,35.61226],[6.07149,35.61182],[6.07045,35.61155],[6.07001,35.61161],[6.06972,35.61201],[6.06945,35.61203],[6.06833,35.61129],[6.06798,35.61139]]],[[[6.10394,35.62203],[6.102,35.6213],[6.10222,35.62076],[6.1025,35.62051],[6.10247,35.62028],[6.10232,35.62021],[6.10223,35.62002],[6.10234,35.61985],[6.10278,35.61951],[6.1031,35.61943],[6.10333,35.61957],[6.10433,35.61969],[6.10464,35.61956],[6.10482,35.61934],[6.10541,35.61913],[6.10585,35.61916],[6.10602,35.61936],[6.10621,35.61939],[6.1064,35.61889],[6.10688,35.61875],[6.10716,35.61888],[6.10718,35.61904],[6.10643,35.62047],[6.10647,35.62088],[6.10664,35.62111],[6.10704,35.62125],[6.10752,35.62125],[6.1081,35.62139],[6.10912,35.62187],[6.10935,35.62188],[6.10967,35.62172],[6.11004,35.62201],[6.11026,35.62249],[6.10978,35.62261],[6.10917,35.62262],[6.1064,35.6223],[6.1059,35.62301],[6.10594,35.62386],[6.10605,35.62406],[6.10394,35.62203]]],[[[5.97539,35.62106],[5.97306,35.62154],[5.97044,35.62462],[5.96851,35.62525],[5.96554,35.6245],[5.96524,35.6158],[5.96613,35.61272],[5.96936,35.60906],[5.97283,35.606],[5.97346,35.60589],[5.97419,35.60636],[5.97487,35.60703],[5.97569,35.60754],[5.97653,35.60837],[5.97752,35.60903],[5.97969,35.60964],[5.97875,35.61117],[5.97889,35.61172],[5.97888,35.61323],[5.97901,35.61421],[5.97987,35.61596],[5.98036,35.61717],[5.9818,35.61618],[5.98387,35.61457],[5.98577,35.61367],[5.98552,35.6129],[5.98499,35.61217],[5.9861,35.6111],[5.98862,35.61129],[5.99277,35.61051],[5.99374,35.61013],[5.99423,35.60956],[5.99517,35.60881],[5.99606,35.60824],[5.9959,35.60766],[5.99605,35.60709],[5.99581,35.60663],[5.99543,35.60617],[5.99508,35.60522],[5.99538,35.60441],[5.99545,35.60394],[5.99535,35.60336],[5.99483,35.60272],[5.99491,35.60188],[5.99566,35.60135],[5.99768,35.60208],[5.99836,35.60254],[5.99881,35.60299],[6.00031,35.60496],[6.00017,35.60673],[6.00024,35.60727],[6.00009,35.60788],[6.00043,35.60841],[6.00078,35.60852],[6.00251,35.60699],[6.00392,35.60661],[6.0041,35.60605],[6.0044,35.60576],[6.0051,35.60583],[6.00576,35.60559],[6.00669,35.60499],[6.00731,35.60474],[6.00825,35.60476],[6.00891,35.60501],[6.00826,35.60593],[6.0079,35.60668],[6.00942,35.60898],[6.0129,35.61098],[6.01356,35.61165],[6.0142,35.61317],[6.01518,35.61469],[6.01558,35.61478],[6.01715,35.61455],[6.0184,35.61424],[6.02132,35.61524],[6.02259,35.61506],[6.0256,35.61392],[6.02312,35.61232],[6.02283,35.61202],[6.02268,35.61165],[6.02268,35.61114],[6.02283,35.6105],[6.0235,35.61076],[6.02411,35.61126],[6.02484,35.6116],[6.02518,35.61204],[6.02743,35.61263],[6.02779,35.61291],[6.02809,35.61349],[6.02868,35.61374],[6.02928,35.61369],[6.03043,35.61342],[6.03159,35.61237],[6.0316,35.61173],[6.03199,35.61145],[6.03147,35.61055],[6.03216,35.60983],[6.03247,35.60918],[6.03211,35.60845],[6.03137,35.60761],[6.03221,35.60724],[6.0333,35.60579],[6.03408,35.6054],[6.0347,35.60479],[6.03525,35.60465],[6.03479,35.60485],[6.03489,35.6073],[6.03476,35.60766],[6.03549,35.60885],[6.03737,35.60895],[6.0403,35.60745],[6.04199,35.60681],[6.04291,35.60605],[6.0436,35.6058],[6.04384,35.60618],[6.04353,35.60686],[6.04259,35.60771],[6.0413,35.60815],[6.04139,35.6084],[6.04266,35.60916],[6.04322,35.60983],[6.04597,35.61227],[6.04648,35.61254],[6.04716,35.61219],[6.04722,35.61168],[6.04768,35.61097],[6.04949,35.6105],[6.05145,35.6102],[6.0521,35.61034],[6.0535,35.61111],[6.05435,35.61214],[6.0549,35.61263],[6.05561,35.61305],[6.05646,35.61318],[6.0569,35.6135],[6.05729,35.61252],[6.05755,35.6121],[6.05841,35.60991],[6.05881,35.61011],[6.05907,35.6105],[6.05928,35.61109],[6.05926,35.61122],[6.05897,35.61123],[6.05897,35.61135],[6.05923,35.61141],[6.05917,35.61173],[6.05899,35.61174],[6.05909,35.61408],[6.0562,35.61553],[6.05321,35.61584],[6.05033,35.61597],[6.04817,35.61596],[6.04508,35.61452],[6.04373,35.61646],[6.04284,35.61894],[6.0398,35.61838],[6.03782,35.6173],[6.03762,35.61413],[6.0353,35.61433],[6.03393,35.61512],[6.03387,35.61767],[6.02991,35.61812],[6.02559,35.61832],[6.02303,35.62002],[6.01245,35.62183],[6.01076,35.62323],[6.00635,35.62296],[6.0049,35.62125],[6.00414,35.61866],[6.00375,35.61474],[6.00124,35.61369],[5.99832,35.61383],[5.99617,35.61586],[5.99467,35.62009],[5.99172,35.62237],[5.98918,35.62205],[5.98315,35.6208],[5.97911,35.62108],[5.97539,35.62106]]],[[[6.10904,35.62535],[6.1074,35.62477],[6.10759,35.62481],[6.10827,35.62457],[6.10882,35.62462],[6.10898,35.62447],[6.10918,35.62446],[6.11,35.62484],[6.11026,35.62482],[6.11056,35.62449],[6.11124,35.62403],[6.11068,35.62481],[6.10904,35.62535]]],[[[6.2599,35.67761],[6.25722,35.679],[6.25378,35.67866],[6.25078,35.67863],[6.24806,35.67732],[6.24443,35.67625],[6.23888,35.67384],[6.23836,35.67277],[6.23713,35.67117],[6.23381,35.66924],[6.23134,35.6684],[6.22918,35.66921],[6.22881,35.67028],[6.22792,35.67374],[6.22677,35.6737],[6.22479,35.67394],[6.22329,35.67342],[6.22176,35.67203],[6.22109,35.67123],[6.21986,35.669],[6.21865,35.66833],[6.21774,35.66804],[6.21645,35.6695],[6.21583,35.66926],[6.21463,35.66873],[6.21326,35.66618],[6.21011,35.66646],[6.20759,35.66527],[6.20559,35.6642],[6.20427,35.66342],[6.20121,35.66132],[6.20077,35.66155],[6.19989,35.66225],[6.19938,35.6628],[6.19867,35.66323],[6.1983,35.66334],[6.1968,35.66326],[6.19406,35.6626],[6.19321,35.66145],[6.19262,35.66091],[6.19235,35.66079],[6.19134,35.66062],[6.18949,35.661],[6.18836,35.66104],[6.18782,35.66096],[6.18703,35.66073],[6.18645,35.66044],[6.18559,35.65978],[6.18503,35.65973],[6.18376,35.65891],[6.18341,35.6589],[6.18209,35.65828],[6.18001,35.65773],[6.17881,35.65732],[6.17641,35.65584],[6.1756,35.65412],[6.17523,35.65375],[6.17401,35.6529],[6.17351,35.65264],[6.17196,35.65217],[6.17158,35.6519],[6.17022,35.6515],[6.16922,35.65102],[6.16834,35.65044],[6.16725,35.64894],[6.16575,35.64864],[6.16345,35.64781],[6.16195,35.64708],[6.16181,35.64684],[6.16189,35.64663],[6.16266,35.64647],[6.16264,35.6464],[6.16364,35.64642],[6.16545,35.6477],[6.16642,35.64815],[6.16718,35.64819],[6.16818,35.64862],[6.16949,35.6496],[6.1722,35.65131],[6.17308,35.65151],[6.17531,35.65286],[6.17616,35.65305],[6.17629,35.65368],[6.17888,35.65596],[6.18136,35.6573],[6.18346,35.65785],[6.1848,35.65754],[6.18563,35.65699],[6.18628,35.65638],[6.18784,35.65571],[6.18897,35.65567],[6.1902,35.65642],[6.19088,35.65649],[6.19162,35.65628],[6.19345,35.65539],[6.19403,35.65539],[6.19551,35.65777],[6.19647,35.65868],[6.19807,35.65952],[6.20583,35.66141],[6.2157,35.66318],[6.21741,35.66363],[6.21906,35.66445],[6.22336,35.66629],[6.22631,35.66737],[6.22718,35.66749],[6.23129,35.66736],[6.23226,35.66776],[6.2359,35.66861],[6.23818,35.66929],[6.23979,35.6729],[6.24135,35.67394],[6.24239,35.67413],[6.24655,35.67568],[6.24756,35.67628],[6.24863,35.67631],[6.24981,35.67665],[6.25153,35.6767],[6.25455,35.67815],[6.25856,35.67783],[6.25934,35.67762],[6.25929,35.67664],[6.25904,35.67631],[6.25832,35.67625],[6.25775,35.67569],[6.25774,35.67509],[6.25672,35.67493],[6.25558,35.67427],[6.25535,35.67393],[6.25532,35.6735],[6.25586,35.67301],[6.2558,35.67262],[6.25557,35.67226],[6.25436,35.67182],[6.25339,35.67088],[6.25348,35.66764],[6.25293,35.6669],[6.25067,35.66542],[6.24852,35.66461],[6.24727,35.66445],[6.24509,35.66214],[6.24326,35.65974],[6.24189,35.65884],[6.24056,35.65665],[6.23905,35.65583],[6.23708,35.65568],[6.2342,35.65524],[6.23263,35.65442],[6.23075,35.6545],[6.22966,35.65404],[6.22402,35.65224],[6.2204,35.6521],[6.21874,35.65189],[6.21751,35.65087],[6.21629,35.65008],[6.21467,35.64934],[6.21369,35.64912],[6.2106,35.6478],[6.20893,35.64822],[6.2082,35.64815],[6.20729,35.6478],[6.20375,35.64794],[6.20236,35.64768],[6.20079,35.64675],[6.1956,35.64565],[6.19429,35.64448],[6.19379,35.64386],[6.19216,35.64313],[6.19079,35.64278],[6.18948,35.64306],[6.18897,35.64343],[6.18845,35.64355],[6.18754,35.6441],[6.18628,35.64408],[6.18208,35.64288],[6.18074,35.64231],[6.17923,35.64128],[6.1778,35.64093],[6.17372,35.64053],[6.17122,35.64045],[6.16901,35.63938],[6.16732,35.63991],[6.16606,35.63981],[6.16374,35.63992],[6.16258,35.63912],[6.16068,35.63816],[6.15951,35.63696],[6.15797,35.63623],[6.15559,35.63581],[6.15171,35.63538],[6.14931,35.6356],[6.14746,35.63546],[6.14548,35.63492],[6.14425,35.63419],[6.14365,35.63358],[6.14274,35.63292],[6.14074,35.63208],[6.13993,35.63207],[6.13954,35.63172],[6.13877,35.63132],[6.13817,35.63079],[6.13725,35.63056],[6.13606,35.63005],[6.13549,35.63029],[6.13534,35.63046],[6.13476,35.63027],[6.13434,35.62979],[6.13422,35.62941],[6.13347,35.62925],[6.13351,35.62905],[6.13389,35.62896],[6.13377,35.62869],[6.13292,35.62858],[6.13251,35.62831],[6.13197,35.62745],[6.13081,35.62666],[6.12978,35.62561],[6.1296,35.62497],[6.1298,35.62401],[6.13019,35.62359],[6.13074,35.62343],[6.13162,35.62369],[6.13353,35.62466],[6.13446,35.62497],[6.13643,35.62518],[6.13739,35.6252],[6.1378,35.62505],[6.13799,35.62476],[6.13721,35.62346],[6.13569,35.6224],[6.13401,35.62165],[6.13227,35.62123],[6.13097,35.62125],[6.13049,35.62106],[6.12967,35.62106],[6.12808,35.62123],[6.12753,35.62086],[6.12672,35.62073],[6.12519,35.62009],[6.12382,35.62002],[6.1231,35.61975],[6.12283,35.61981],[6.12239,35.62031],[6.12198,35.62053],[6.12166,35.62084],[6.12137,35.62085],[6.12124,35.62071],[6.12183,35.62032],[6.122,35.61984],[6.12199,35.61957],[6.12162,35.61912],[6.12166,35.61899],[6.12194,35.61891],[6.12225,35.61868],[6.12225,35.61858],[6.12132,35.61823],[6.11833,35.61756],[6.11625,35.61627],[6.11487,35.61567],[6.11244,35.61495],[6.11124,35.61482],[6.10977,35.61418],[6.10762,35.6137],[6.10597,35.61309],[6.10582,35.61257],[6.10596,35.61214],[6.10643,35.6121],[6.10894,35.61268],[6.10909,35.61229],[6.10641,35.61144],[6.1046,35.61045],[6.10327,35.61048],[6.10177,35.61001],[6.10071,35.60982],[6.09929,35.61003],[6.09833,35.60997],[6.09823,35.61036],[6.09799,35.61062],[6.09744,35.61074],[6.0966,35.61045],[6.09559,35.61044],[6.09522,35.61053],[6.09495,35.6102],[6.09548,35.60969],[6.09492,35.60911],[6.09388,35.60855],[6.09278,35.60829],[6.09233,35.60861],[6.09157,35.60808],[6.08977,35.60723],[6.08911,35.60683],[6.0888,35.60696],[6.08801,35.60703],[6.0866,35.6065],[6.08533,35.60551],[6.08348,35.60492],[6.08077,35.60421],[6.07826,35.60411],[6.0738,35.60227],[6.07183,35.60087],[6.07126,35.60014],[6.07026,35.59977],[6.06447,35.59452],[6.06508,35.59468],[6.06485,35.59262],[6.06261,35.59093],[6.06066,35.59132],[6.06072,35.5904],[6.06021,35.58953],[6.05958,35.5888],[6.05822,35.5878],[6.05658,35.58734],[6.0559,35.58633],[6.05663,35.58607],[6.05684,35.58557],[6.05674,35.58533],[6.05531,35.58464],[6.05462,35.584],[6.05494,35.58401],[6.05519,35.5837],[6.05532,35.58336],[6.05523,35.58315],[6.05498,35.58296],[6.05455,35.583],[6.05412,35.58362],[6.05367,35.58364],[6.05345,35.58332],[6.0535,35.58313],[6.05281,35.58253],[6.05218,35.58215],[6.05207,35.58178],[6.05168,35.58145],[6.05098,35.58154],[6.05019,35.58078],[6.05006,35.58036],[6.05021,35.58012],[6.05048,35.57999],[6.05127,35.58022],[6.05187,35.58007],[6.05236,35.58011],[6.05249,35.58019],[6.05245,35.58029],[6.05197,35.58049],[6.05226,35.58091],[6.05257,35.58096],[6.05281,35.58089],[6.05325,35.58103],[6.05594,35.58285],[6.05735,35.58198],[6.05876,35.58178],[6.0612,35.58191],[6.06214,35.58162],[6.06351,35.58092],[6.06436,35.58074],[6.06619,35.58091],[6.06796,35.58134],[6.06873,35.58214],[6.069,35.5823],[6.07079,35.58434],[6.07114,35.58489],[6.07155,35.58614],[6.0733,35.58864],[6.07374,35.58983],[6.07378,35.59029],[6.07402,35.59101],[6.07422,35.59205],[6.07404,35.59277],[6.07382,35.59316],[6.07391,35.59345],[6.0742,35.59358],[6.07504,35.59344],[6.07584,35.59349],[6.07624,35.59396],[6.07643,35.59458],[6.07641,35.59488],[6.07653,35.59505],[6.07864,35.5956],[6.07948,35.59566],[6.07951,35.5961],[6.07986,35.59719],[6.08014,35.59741],[6.08061,35.59751],[6.08252,35.59712],[6.08399,35.59663],[6.08465,35.59657],[6.08695,35.59723],[6.08799,35.59728],[6.08887,35.59744],[6.08921,35.59787],[6.09004,35.59758],[6.09087,35.59748],[6.09138,35.59791],[6.09161,35.59896],[6.09214,35.59969],[6.09335,35.60011],[6.09429,35.59967],[6.09464,35.5991],[6.09506,35.59901],[6.09556,35.59904],[6.09711,35.59967],[6.09763,35.59978],[6.09796,35.60003],[6.09804,35.60013],[6.09801,35.60025],[6.09762,35.60061],[6.09762,35.60074],[6.0978,35.60079],[6.09855,35.60065],[6.10071,35.59986],[6.101,35.59991],[6.10241,35.59973],[6.10324,35.59988],[6.10363,35.60095],[6.10411,35.60184],[6.10459,35.60251],[6.10499,35.60282],[6.10557,35.60312],[6.10702,35.60327],[6.10823,35.60358],[6.10862,35.60388],[6.10902,35.60491],[6.10936,35.60546],[6.11068,35.60618],[6.11161,35.60699],[6.11349,35.6076],[6.11395,35.60765],[6.11807,35.60958],[6.11942,35.61053],[6.12126,35.61103],[6.12196,35.61179],[6.12224,35.61282],[6.12239,35.61307],[6.12331,35.61379],[6.12496,35.61462],[6.12688,35.61526],[6.12784,35.61526],[6.1293,35.61586],[6.12983,35.61621],[6.13015,35.61684],[6.13055,35.61713],[6.13106,35.61733],[6.13414,35.61796],[6.13778,35.61923],[6.13948,35.62011],[6.13995,35.62053],[6.14318,35.62248],[6.14396,35.62279],[6.14424,35.62303],[6.14522,35.62323],[6.14579,35.62319],[6.14701,35.62337],[6.14826,35.62319],[6.15044,35.6231],[6.15149,35.62328],[6.15271,35.62374],[6.15354,35.62441],[6.15405,35.625],[6.15453,35.62678],[6.15452,35.62718],[6.15491,35.62801],[6.15537,35.62849],[6.15613,35.62893],[6.15718,35.62925],[6.15914,35.62941],[6.1603,35.62965],[6.16269,35.63042],[6.1632,35.63064],[6.16365,35.63102],[6.16406,35.63153],[6.16448,35.63252],[6.16448,35.63289],[6.16438,35.63303],[6.16426,35.6338],[6.16432,35.63396],[6.16453,35.63442],[6.16494,35.63457],[6.16778,35.63449],[6.1688,35.63425],[6.16998,35.63414],[6.17043,35.63402],[6.17084,35.63382],[6.17161,35.63276],[6.17211,35.63243],[6.17291,35.6323],[6.1731,35.63236],[6.1748,35.63159],[6.1759,35.63137],[6.17715,35.63132],[6.1786,35.6316],[6.181,35.6324],[6.18205,35.633],[6.18452,35.63129],[6.1861,35.62986],[6.18648,35.62937],[6.18725,35.62877],[6.18796,35.62752],[6.18928,35.62433],[6.18995,35.62365],[6.1899,35.62358],[6.18981,35.62365],[6.18598,35.6233],[6.18148,35.62318],[6.18005,35.62428],[6.17731,35.62442],[6.17394,35.62356],[6.17129,35.62084],[6.1725,35.61828],[6.16798,35.61773],[6.16695,35.61742],[6.16577,35.61686],[6.1643,35.61655],[6.16392,35.61653],[6.1634,35.61709],[6.16296,35.6173],[6.16187,35.61749],[6.16097,35.6173],[6.15857,35.61658],[6.15665,35.61543],[6.15501,35.61491],[6.15417,35.61443],[6.15344,35.61421],[6.15289,35.61435],[6.15217,35.61433],[6.15172,35.61414],[6.15085,35.61355],[6.14906,35.61294],[6.14891,35.61281],[6.13389,35.6086],[6.13209,35.60799],[6.13185,35.60549],[6.13078,35.60614],[6.1291,35.60508],[6.12577,35.60356],[6.12425,35.60174],[6.12226,35.60207],[6.12075,35.6018],[6.12005,35.60158],[6.11851,35.60096],[6.11754,35.60043],[6.11687,35.60002],[6.11667,35.59964],[6.11636,35.59941],[6.11469,35.59856],[6.11424,35.59799],[6.11429,35.59788],[6.1138,35.59623],[6.11427,35.59545],[6.11474,35.59494],[6.11471,35.5948],[6.1152,35.59375],[6.1152,35.59345],[6.11465,35.5928],[6.11465,35.59264],[6.11385,35.59182],[6.11275,35.59113],[6.11083,35.59056],[6.10846,35.59],[6.10654,35.58878],[6.10558,35.58804],[6.10479,35.58716],[6.1042,35.58667],[6.10318,35.58673],[6.10267,35.58665],[6.10152,35.58627],[6.09914,35.58579],[6.0981,35.58536],[6.09739,35.5849],[6.09652,35.58453],[6.09545,35.58446],[6.09491,35.58421],[6.09417,35.58331],[6.0933,35.58287],[6.09325,35.58249],[6.09307,35.58239],[6.09187,35.58198],[6.0902,35.58182],[6.08974,35.58135],[6.08861,35.58109],[6.08777,35.58052],[6.08719,35.58039],[6.08613,35.57973],[6.08124,35.57931],[6.08076,35.57909],[6.08055,35.57885],[6.08053,35.57868],[6.08078,35.57834],[6.08117,35.57804],[6.08201,35.57768],[6.0822,35.57749],[6.08394,35.57729],[6.08428,35.57738],[6.08443,35.57723],[6.0847,35.57717],[6.08541,35.57729],[6.08573,35.57686],[6.08583,35.5764],[6.08556,35.57564],[6.08337,35.57448],[6.0832,35.57429],[6.08316,35.57385],[6.08359,35.57262],[6.08358,35.572],[6.08346,35.57146],[6.08367,35.57086],[6.08435,35.57066],[6.08448,35.57049],[6.08473,35.57038],[6.08543,35.56955],[6.08603,35.56955],[6.08641,35.56932],[6.08678,35.56943],[6.087,35.56937],[6.08943,35.57058],[6.09001,35.57065],[6.09016,35.57054],[6.09057,35.57057],[6.09081,35.56985],[6.09099,35.56871],[6.08926,35.56557],[6.089,35.56537],[6.08721,35.56465],[6.08663,35.56346],[6.08695,35.56346],[6.08749,35.56326],[6.08901,35.56313],[6.08989,35.56322],[6.0902,35.56313],[6.09142,35.56312],[6.0949,35.56374],[6.09633,35.56417],[6.0974,35.56463],[6.10035,35.56625],[6.10136,35.56697],[6.10165,35.56708],[6.10218,35.56761],[6.10301,35.56807],[6.10315,35.56828],[6.10366,35.5686],[6.10396,35.56863],[6.10516,35.56962],[6.10592,35.57002],[6.10794,35.57137],[6.10964,35.57203],[6.11205,35.57274],[6.11411,35.57363],[6.11471,35.57396],[6.11499,35.57426],[6.11528,35.57502],[6.11475,35.57586],[6.11429,35.5761],[6.11392,35.5766],[6.11411,35.57755],[6.11407,35.57899],[6.11398,35.57924],[6.1141,35.5795],[6.11405,35.57984],[6.11413,35.58053],[6.11443,35.58124],[6.11434,35.58155],[6.11463,35.58275],[6.11484,35.58345],[6.11514,35.58407],[6.1153,35.58482],[6.11605,35.58617],[6.11615,35.58699],[6.11638,35.58772],[6.11599,35.58808],[6.11579,35.58815],[6.11557,35.58895],[6.11593,35.59002],[6.11595,35.59071],[6.11632,35.59157],[6.11688,35.59208],[6.11714,35.59253],[6.1174,35.59278],[6.11796,35.59323],[6.11859,35.59351],[6.11992,35.59367],[6.12129,35.59354],[6.1218,35.59378],[6.12221,35.59418],[6.12314,35.59479],[6.13506,35.59808],[6.13906,35.59944],[6.14388,35.59958],[6.15067,35.6011],[6.15394,35.60162],[6.15764,35.60325],[6.15842,35.60372],[6.16124,35.60448],[6.1622,35.60492],[6.16316,35.60554],[6.16413,35.60585],[6.16721,35.60602],[6.16924,35.60653],[6.17128,35.60681],[6.17183,35.60727],[6.17211,35.60738],[6.17227,35.60763],[6.1724,35.60797],[6.17235,35.60827],[6.17243,35.60881],[6.17262,35.60923],[6.17626,35.61193],[6.17665,35.61233],[6.17797,35.61316],[6.17825,35.61323],[6.17883,35.61373],[6.17935,35.61397],[6.18013,35.6147],[6.18046,35.61482],[6.18081,35.61518],[6.1827,35.61577],[6.18304,35.61598],[6.18332,35.61638],[6.18435,35.61679],[6.1853,35.61669],[6.18611,35.61641],[6.18646,35.61616],[6.18656,35.61595],[6.18635,35.61492],[6.18639,35.61467],[6.18689,35.61349],[6.18687,35.61332],[6.18729,35.61255],[6.18758,35.61232],[6.18812,35.61213],[6.1888,35.61234],[6.18898,35.61264],[6.18912,35.61337],[6.18908,35.61384],[6.18891,35.61422],[6.18909,35.61496],[6.19134,35.61491],[6.19345,35.61526],[6.19476,35.6157],[6.19497,35.61605],[6.19471,35.61618],[6.19548,35.61592],[6.19701,35.61577],[6.19828,35.61593],[6.19921,35.61622],[6.19988,35.61631],[6.2004,35.61652],[6.20069,35.61681],[6.20133,35.61711],[6.20277,35.61756],[6.20361,35.61793],[6.20677,35.61962],[6.20966,35.61947],[6.21161,35.62101],[6.21566,35.62281],[6.21596,35.62287],[6.21624,35.62318],[6.21621,35.62383],[6.21663,35.62506],[6.21746,35.62555],[6.21853,35.62587],[6.21903,35.62616],[6.21968,35.62635],[6.22104,35.62638],[6.2217,35.62649],[6.22224,35.62667],[6.22342,35.62729],[6.2241,35.62743],[6.22816,35.62619],[6.22853,35.62619],[6.23054,35.62509],[6.23225,35.62443],[6.23301,35.62428],[6.23441,35.62449],[6.23529,35.62476],[6.23576,35.62502],[6.23574,35.62517],[6.23758,35.62603],[6.23904,35.62708],[6.24125,35.62827],[6.24275,35.62925],[6.24423,35.63108],[6.2445,35.63161],[6.24468,35.63231],[6.24466,35.63263],[6.24443,35.63332],[6.24369,35.63407],[6.24343,35.63453],[6.24337,35.63488],[6.24342,35.63558],[6.24356,35.63609],[6.244,35.63662],[6.24625,35.63805],[6.2473,35.63856],[6.25173,35.64005],[6.25276,35.64056],[6.25432,35.64104],[6.25499,35.64144],[6.25612,35.64179],[6.25727,35.64185],[6.25821,35.64202],[6.26142,35.64573],[6.26213,35.64615],[6.26309,35.6469],[6.26376,35.64725],[6.26488,35.64758],[6.26506,35.64794],[6.26472,35.64874],[6.2645,35.64901],[6.26564,35.64965],[6.26617,35.65018],[6.26747,35.65099],[6.26834,35.65169],[6.26863,35.65213],[6.26869,35.65273],[6.26832,35.6535],[6.26819,35.65366],[6.26768,35.6539],[6.26678,35.65456],[6.26507,35.65489],[6.26339,35.6548],[6.2621,35.65501],[6.2604,35.6557],[6.26001,35.65615],[6.2589,35.65671],[6.25853,35.65831],[6.26095,35.66153],[6.25908,35.66514],[6.26278,35.66919],[6.26385,35.67226],[6.26465,35.67385],[6.26433,35.67634],[6.26386,35.67729],[6.2599,35.67761]]]]}}]}