{"type":"FeatureCollection","features":[{"type":"Feature","properties":{"Name":"CENTRALE"},"geometry":{"type":"MultiPolygon","coordinates":[[[[5.97633,35.54182],[5.97543,35.5418],[5.97531,35.5417],[5.97531,35.54149],[5.9756,35.54107],[5.97746,35.53991],[5.97775,35.5399],[5.97832,35.54011],[5.97878,35.5405],[5.97831,35.54047],[5.97786,35.54064],[5.97774,35.54071],[5.9777,35.54089],[5.97666,35.54168],[5.97633,35.54182]]],[[[5.98667,35.54368],[5.98534,35.54398],[5.98488,35.54393],[5.98405,35.54365],[5.98388,35.54354],[5.98385,35.54338],[5.98423,35.54305],[5.98472,35.54301],[5.98586,35.54336],[5.98636,35.54344],[5.98675,35.54332],[5.98696,35.54338],[5.98667,35.54368]]],[[[5.92864,35.58456],[5.92637,35.58536],[5.92389,35.58538],[5.92046,35.58588],[5.91921,35.58675],[5.91778,35.58691],[5.91762,35.58693],[5.91677,35.58657],[5.91641,35.58609],[5.91641,35.5859],[5.91709,35.58534],[5.91888,35.58294],[5.91897,35.58249],[5.91923,35.58192],[5.91982,35.58103],[5.92168,35.57991],[5.92255,35.57892],[5.92275,35.57893],[5.92282,35.5788],[5.92323,35.57881],[5.92388,35.57945],[5.92514,35.58003],[5.92621,35.58022],[5.9265,35.58008],[5.92651,35.57992],[5.92582,35.57969],[5.92567,35.57902],[5.9267,35.57841],[5.92697,35.57762],[5.92802,35.57671],[5.93129,35.57432],[5.93137,35.5741],[5.9328,35.57225],[5.93333,35.57135],[5.93351,35.57073],[5.9339,35.57021],[5.93675,35.5678],[5.93793,35.56639],[5.9389,35.5642],[5.93909,35.56223],[5.93973,35.56181],[5.94055,35.56181],[5.94166,35.56151],[5.94454,35.56228],[5.94577,35.56228],[5.94663,35.56218],[5.94687,35.56183],[5.94747,35.56131],[5.94709,35.56109],[5.94661,35.56104],[5.946,35.56052],[5.94565,35.56054],[5.94535,35.56031],[5.94531,35.55956],[5.94562,35.5593],[5.94548,35.55901],[5.94528,35.55888],[5.94449,35.55872],[5.9444,35.55879],[5.94457,35.55919],[5.94412,35.55959],[5.94316,35.55916],[5.94165,35.55885],[5.9409,35.55834],[5.93933,35.55749],[5.9375,35.55667],[5.93552,35.55622],[5.93445,35.55633],[5.93145,35.5554],[5.93104,35.55553],[5.93152,35.55587],[5.93244,35.55612],[5.93299,35.55603],[5.93375,35.55627],[5.93387,35.55691],[5.93208,35.55766],[5.93133,35.55862],[5.9303,35.55934],[5.92913,35.55966],[5.92778,35.55963],[5.92704,35.55908],[5.92484,35.55829],[5.92418,35.55775],[5.92309,35.55725],[5.92303,35.55697],[5.92323,35.55649],[5.9231,35.5562],[5.92312,35.55492],[5.92335,35.55464],[5.92406,35.55458],[5.9249,35.55473],[5.92565,35.55459],[5.92671,35.55417],[5.92947,35.5528],[5.92985,35.55285],[5.93095,35.55143],[5.93182,35.55158],[5.9323,35.55154],[5.9328,35.55137],[5.93277,35.55094],[5.93245,35.55079],[5.93196,35.5513],[5.93138,35.55129],[5.93066,35.55097],[5.93033,35.55066],[5.9299,35.54991],[5.92849,35.54896],[5.92853,35.54865],[5.92879,35.54858],[5.9312,35.54878],[5.93188,35.54812],[5.9319,35.54769],[5.93069,35.54664],[5.93061,35.54588],[5.93067,35.5457],[5.93031,35.54532],[5.93076,35.545],[5.93139,35.54488],[5.93317,35.54515],[5.93432,35.54521],[5.93475,35.54538],[5.93528,35.5458],[5.93697,35.5464],[5.93725,35.54613],[5.93662,35.54486],[5.93657,35.54292],[5.93711,35.54284],[5.93775,35.54259],[5.93861,35.54264],[5.93944,35.54275],[5.94094,35.54339],[5.94195,35.54333],[5.9421,35.54212],[5.94202,35.54171],[5.94234,35.54125],[5.94301,35.54077],[5.94399,35.54067],[5.94623,35.54113],[5.94723,35.54004],[5.9473,35.5396],[5.94715,35.53838],[5.94674,35.53743],[5.94683,35.53651],[5.94725,35.53617],[5.94844,35.53667],[5.94882,35.53747],[5.94955,35.53814],[5.95004,35.53706],[5.95081,35.5365],[5.9524,35.53649],[5.95737,35.53611],[5.95855,35.53629],[5.95949,35.53658],[5.96044,35.53666],[5.96237,35.53513],[5.95899,35.53398],[5.95741,35.53367],[5.95719,35.53319],[5.95729,35.53262],[5.95597,35.53152],[5.95545,35.53064],[5.9538,35.52878],[5.95377,35.52812],[5.95388,35.52762],[5.9544,35.52774],[5.95729,35.52795],[5.95858,35.52848],[5.96044,35.5298],[5.96169,35.5301],[5.96256,35.53048],[5.96302,35.53104],[5.96582,35.53291],[5.96683,35.53273],[5.96786,35.53147],[5.96893,35.53101],[5.97023,35.53104],[5.97392,35.53158],[5.97477,35.53193],[5.97613,35.53298],[5.97599,35.5332],[5.97529,35.53339],[5.97357,35.5334],[5.97144,35.53391],[5.96915,35.53405],[5.9687,35.53427],[5.96805,35.53417],[5.96756,35.53471],[5.967,35.53497],[5.96647,35.53496],[5.96618,35.53518],[5.96662,35.53546],[5.96649,35.53555],[5.96654,35.53592],[5.96715,35.53647],[5.96746,35.53644],[5.9681,35.53674],[5.96886,35.53681],[5.96928,35.53676],[5.96978,35.53689],[5.97038,35.53657],[5.97118,35.5364],[5.97169,35.53646],[5.97423,35.53595],[5.97481,35.53616],[5.97476,35.53648],[5.97424,35.53706],[5.97446,35.53766],[5.97478,35.53774],[5.97528,35.5377],[5.97683,35.53716],[5.9774,35.53724],[5.97803,35.53757],[5.97768,35.53806],[5.97663,35.53888],[5.97381,35.53924],[5.97178,35.53885],[5.97111,35.53886],[5.96848,35.5397],[5.96771,35.54062],[5.96765,35.54117],[5.96779,35.54203],[5.96825,35.5426],[5.96906,35.5429],[5.97021,35.54272],[5.97124,35.5434],[5.97135,35.54371],[5.97112,35.54401],[5.97111,35.54465],[5.97159,35.54493],[5.974,35.54493],[5.97752,35.54514],[5.97807,35.54528],[5.97894,35.54605],[5.97952,35.54636],[5.97999,35.54646],[5.98095,35.54615],[5.98188,35.54607],[5.98526,35.54722],[5.98801,35.54729],[5.98883,35.54709],[5.99005,35.54712],[5.99368,35.5487],[5.99477,35.54926],[5.9939,35.55004],[5.99265,35.55087],[5.99181,35.5511],[5.99045,35.55101],[5.98916,35.55125],[5.98731,35.55106],[5.98615,35.55114],[5.98567,35.55157],[5.98527,35.55165],[5.985,35.55121],[5.98357,35.551],[5.98259,35.55101],[5.98198,35.55117],[5.98033,35.55114],[5.97922,35.5514],[5.97854,35.55179],[5.97755,35.55175],[5.9765,35.55153],[5.97569,35.55118],[5.97465,35.55041],[5.97488,35.54994],[5.97545,35.55013],[5.97604,35.5506],[5.9765,35.55072],[5.97653,35.54944],[5.9768,35.54904],[5.97698,35.5484],[5.97756,35.54803],[5.97761,35.54749],[5.97469,35.54835],[5.9732,35.54853],[5.97207,35.5488],[5.97104,35.54918],[5.96994,35.54936],[5.96745,35.54884],[5.96677,35.54886],[5.96673,35.5492],[5.96682,35.54972],[5.96726,35.55032],[5.9675,35.55105],[5.96828,35.55204],[5.96834,35.55284],[5.96913,35.55295],[5.96984,35.5534],[5.97096,35.55348],[5.97118,35.55392],[5.97211,35.55367],[5.97306,35.55394],[5.97469,35.55372],[5.97552,35.55453],[5.97531,35.55585],[5.97501,35.55618],[5.97549,35.5563],[5.97708,35.55622],[5.98105,35.55707],[5.98191,35.55748],[5.98366,35.55808],[5.98551,35.5591],[5.98483,35.56021],[5.98317,35.56092],[5.98201,35.56109],[5.9821,35.5612],[5.98257,35.56111],[5.98354,35.56205],[5.98482,35.56243],[5.9859,35.56364],[5.9862,35.56351],[5.98645,35.56358],[5.98694,35.56378],[5.98722,35.56418],[5.98834,35.5642],[5.98969,35.56342],[5.99123,35.56288],[5.99214,35.56221],[5.99245,35.56167],[5.99294,35.56133],[5.99322,35.56135],[5.9938,35.5615],[5.99418,35.56178],[5.99425,35.56208],[5.99475,35.56271],[5.99545,35.563],[5.99596,35.56334],[5.99474,35.56393],[5.99423,35.56435],[5.99398,35.56485],[5.99445,35.56505],[5.99518,35.5649],[5.99611,35.56543],[5.99689,35.56556],[5.99755,35.56592],[5.99746,35.56618],[5.99801,35.56662],[5.99913,35.5672],[6.0003,35.56695],[6.00108,35.5665],[6.00131,35.56758],[6.00167,35.56798],[6.00095,35.56976],[6.00179,35.57032],[5.99968,35.57158],[5.99929,35.57171],[5.99842,35.57246],[5.9981,35.57299],[5.9981,35.57345],[5.99759,35.57398],[5.99647,35.57424],[5.99548,35.57431],[5.99524,35.57446],[5.99617,35.5748],[5.99623,35.5757],[5.99614,35.57609],[5.9958,35.57649],[5.99446,35.57671],[5.99375,35.57658],[5.99285,35.5761],[5.99248,35.57572],[5.99242,35.57542],[5.99144,35.57487],[5.99142,35.57445],[5.99088,35.57409],[5.99078,35.5737],[5.99111,35.57325],[5.99114,35.57246],[5.99098,35.57175],[5.99107,35.57135],[5.99092,35.57115],[5.99069,35.57106],[5.99058,35.57129],[5.9901,35.57168],[5.98968,35.57175],[5.98965,35.57169],[5.98911,35.572],[5.98932,35.57203],[5.98808,35.57286],[5.98716,35.5737],[5.98717,35.57429],[5.98664,35.57553],[5.98645,35.57583],[5.986,35.57614],[5.98572,35.5761],[5.98549,35.57582],[5.98447,35.57601],[5.98436,35.57521],[5.98405,35.57516],[5.97922,35.57518],[5.97905,35.5736],[5.97885,35.57286],[5.97835,35.57195],[5.97798,35.5715],[5.97672,35.57137],[5.97535,35.5728],[5.97472,35.57292],[5.97161,35.57425],[5.97067,35.57428],[5.97001,35.57469],[5.96887,35.57462],[5.96862,35.57432],[5.96752,35.57399],[5.96523,35.57361],[5.96497,35.57476],[5.96468,35.57509],[5.96258,35.57529],[5.9639,35.5768],[5.96393,35.57728],[5.96314,35.57729],[5.96325,35.57785],[5.96264,35.57852],[5.96218,35.57855],[5.96182,35.57949],[5.96093,35.57971],[5.95979,35.57972],[5.95868,35.58065],[5.9576,35.5813],[5.95492,35.58197],[5.955,35.58178],[5.95603,35.58082],[5.95745,35.58038],[5.95833,35.58031],[5.95855,35.58019],[5.95883,35.57947],[5.95776,35.57919],[5.95659,35.57928],[5.95517,35.58052],[5.95461,35.58004],[5.9529,35.57906],[5.95092,35.57847],[5.94973,35.57923],[5.94831,35.57957],[5.94665,35.57989],[5.94173,35.58059],[5.94089,35.5803],[5.94001,35.57969],[5.93901,35.57793],[5.93863,35.57746],[5.93734,35.57751],[5.93418,35.5772],[5.93298,35.57768],[5.9321,35.5782],[5.93197,35.57887],[5.93221,35.57932],[5.93333,35.57976],[5.934,35.58041],[5.93417,35.58094],[5.93345,35.58181],[5.93323,35.58185],[5.93131,35.58099],[5.93111,35.58134],[5.93134,35.5821],[5.93172,35.58246],[5.93143,35.58315],[5.93183,35.58372],[5.93237,35.58488],[5.93257,35.58569],[5.93189,35.58578],[5.92864,35.58456]]],[[[6.10975,35.59637],[6.10935,35.59706],[6.10786,35.59723],[6.10564,35.59773],[6.10328,35.5988],[6.10219,35.59908],[6.09919,35.59873],[6.09837,35.59828],[6.09701,35.59691],[6.09567,35.59695],[6.09464,35.59675],[6.09433,35.59663],[6.09385,35.59619],[6.09303,35.59595],[6.09276,35.59596],[6.09249,35.59623],[6.09215,35.59632],[6.09177,35.59581],[6.09058,35.59567],[6.09004,35.5955],[6.08847,35.59472],[6.08312,35.59168],[6.08233,35.59057],[6.08204,35.5895],[6.08167,35.58875],[6.0812,35.58811],[6.08077,35.58779],[6.08048,35.58739],[6.08006,35.58723],[6.07934,35.58601],[6.0783,35.58508],[6.07823,35.58481],[6.07837,35.58401],[6.07761,35.58341],[6.07735,35.58275],[6.0773,35.58243],[6.07749,35.58129],[6.07785,35.58098],[6.07865,35.58067],[6.0799,35.58071],[6.08012,35.58057],[6.08031,35.58019],[6.08,35.57968],[6.08002,35.57938],[6.08157,35.5793],[6.08445,35.57962],[6.08622,35.57968],[6.08746,35.58038],[6.08804,35.58052],[6.08888,35.58108],[6.08989,35.58128],[6.09047,35.58181],[6.09214,35.58197],[6.09334,35.58238],[6.09352,35.58248],[6.09357,35.58286],[6.09445,35.5833],[6.09519,35.5842],[6.09573,35.58445],[6.0968,35.58452],[6.09766,35.5849],[6.09838,35.58535],[6.09941,35.58578],[6.10179,35.58626],[6.10294,35.58665],[6.10346,35.58672],[6.10447,35.58666],[6.10506,35.58716],[6.10586,35.58803],[6.10797,35.58956],[6.10874,35.58999],[6.1111,35.59055],[6.11303,35.59112],[6.11412,35.59182],[6.11492,35.59263],[6.11483,35.59312],[6.11499,35.59324],[6.1142,35.5932],[6.11327,35.59387],[6.11304,35.59438],[6.11273,35.59477],[6.11192,35.59492],[6.11123,35.59488],[6.11073,35.59553],[6.10975,35.59637]]],[[[6.11216,35.62362],[6.11084,35.62448],[6.11053,35.62481],[6.11027,35.62483],[6.10945,35.62446],[6.10925,35.62446],[6.10909,35.62462],[6.10854,35.62456],[6.10787,35.6248],[6.10701,35.62462],[6.1064,35.62418],[6.10622,35.62387],[6.10617,35.62301],[6.10668,35.6223],[6.10945,35.62261],[6.11006,35.6226],[6.11053,35.62248],[6.11032,35.622],[6.10994,35.62171],[6.10963,35.62187],[6.10939,35.62186],[6.10837,35.62139],[6.10779,35.62125],[6.10731,35.62124],[6.10691,35.6211],[6.10674,35.62088],[6.1067,35.62046],[6.10745,35.61904],[6.10732,35.61877],[6.1069,35.61878],[6.10667,35.61889],[6.10648,35.61938],[6.10629,35.61935],[6.10612,35.61915],[6.10586,35.6191],[6.10551,35.61914],[6.10509,35.61933],[6.10491,35.61955],[6.10454,35.6197],[6.1036,35.61957],[6.10337,35.61942],[6.10305,35.6195],[6.1025,35.62001],[6.1026,35.6202],[6.10274,35.62027],[6.10277,35.6205],[6.10249,35.62075],[6.10228,35.62129],[6.10201,35.62148],[6.10172,35.62188],[6.10131,35.6222],[6.09966,35.62283],[6.0986,35.6231],[6.09817,35.62294],[6.09799,35.62266],[6.09834,35.62256],[6.0982,35.6222],[6.0977,35.622],[6.09718,35.62207],[6.09722,35.6222],[6.09711,35.62226],[6.09655,35.62213],[6.09588,35.6222],[6.09516,35.62184],[6.09525,35.62143],[6.09517,35.62133],[6.09481,35.62132],[6.0949,35.6207],[6.09475,35.62042],[6.09388,35.61972],[6.09336,35.6195],[6.09158,35.61967],[6.08989,35.61917],[6.08936,35.61921],[6.08858,35.61951],[6.0877,35.62026],[6.08714,35.62033],[6.08686,35.62019],[6.0867,35.61994],[6.08519,35.61984],[6.08216,35.61917],[6.08208,35.61902],[6.08179,35.61897],[6.08181,35.61843],[6.08191,35.6182],[6.08178,35.61793],[6.08146,35.61779],[6.08108,35.61787],[6.08088,35.61821],[6.08066,35.61812],[6.08102,35.61775],[6.08227,35.61742],[6.08231,35.6172],[6.08214,35.61706],[6.08184,35.61706],[6.08081,35.6176],[6.08158,35.6168],[6.08095,35.61681],[6.08081,35.61666],[6.08088,35.61649],[6.07987,35.61643],[6.07918,35.61586],[6.07868,35.61567],[6.07775,35.61596],[6.07725,35.61578],[6.07692,35.61588],[6.07666,35.61577],[6.07649,35.61555],[6.07556,35.61532],[6.07549,35.61509],[6.07406,35.61551],[6.07365,35.616],[6.07342,35.61611],[6.0718,35.6158],[6.06974,35.61567],[6.0693,35.61609],[6.06902,35.61586],[6.06856,35.61575],[6.06846,35.61562],[6.06811,35.61577],[6.06748,35.61564],[6.06717,35.61569],[6.06707,35.61567],[6.06682,35.6153],[6.06475,35.61496],[6.06418,35.61468],[6.06428,35.6144],[6.06409,35.61417],[6.06404,35.61368],[6.06472,35.6127],[6.06608,35.61168],[6.06672,35.61137],[6.06741,35.61163],[6.0686,35.61128],[6.06973,35.61202],[6.06999,35.612],[6.07028,35.6116],[6.07073,35.61155],[6.07176,35.61181],[6.07261,35.61226],[6.07307,35.61222],[6.07332,35.6121],[6.07333,35.61176],[6.07368,35.61179],[6.07386,35.61166],[6.07357,35.61127],[6.07338,35.61059],[6.0732,35.61046],[6.07226,35.61052],[6.07203,35.61062],[6.07201,35.61083],[6.07223,35.61116],[6.07219,35.61127],[6.07168,35.61138],[6.07091,35.61097],[6.07016,35.61109],[6.06896,35.61069],[6.06601,35.61105],[6.06542,35.61158],[6.06525,35.61128],[6.06467,35.61146],[6.06427,35.61192],[6.06342,35.61356],[6.06291,35.61432],[6.06214,35.61461],[6.06134,35.61518],[6.06032,35.6153],[6.05955,35.61529],[6.05935,35.61471],[6.05956,35.6139],[6.05963,35.61302],[6.05938,35.61215],[6.05955,35.61108],[6.05934,35.61049],[6.05908,35.6101],[6.05868,35.6099],[6.05783,35.61209],[6.05756,35.61251],[6.05717,35.6135],[6.05673,35.61317],[6.05589,35.61304],[6.05517,35.61262],[6.05462,35.61214],[6.05377,35.6111],[6.05238,35.61033],[6.05172,35.61019],[6.04976,35.61049],[6.04795,35.61096],[6.04749,35.61168],[6.04743,35.61218],[6.04675,35.61253],[6.04624,35.61226],[6.04349,35.60983],[6.04293,35.60915],[6.04166,35.60839],[6.04158,35.60814],[6.04286,35.6077],[6.0438,35.60685],[6.04412,35.60617],[6.04387,35.60579],[6.04319,35.60605],[6.04226,35.6068],[6.04057,35.60744],[6.03764,35.60895],[6.03576,35.60884],[6.03503,35.60766],[6.03517,35.6073],[6.03507,35.60484],[6.03552,35.60464],[6.03497,35.60478],[6.03436,35.60539],[6.03357,35.60578],[6.03248,35.60723],[6.03164,35.6076],[6.03238,35.60844],[6.03274,35.60918],[6.03244,35.60982],[6.03174,35.61055],[6.03226,35.61144],[6.03187,35.61173],[6.03186,35.61236],[6.0307,35.61341],[6.02956,35.61368],[6.02895,35.61373],[6.02836,35.61348],[6.02806,35.6129],[6.0277,35.61262],[6.02545,35.61203],[6.02512,35.61159],[6.02438,35.61125],[6.02377,35.61075],[6.02311,35.6105],[6.02295,35.61114],[6.02295,35.61164],[6.02311,35.61201],[6.0234,35.61232],[6.02587,35.61391],[6.02286,35.61505],[6.02159,35.61524],[6.01867,35.61424],[6.01742,35.61454],[6.01586,35.61477],[6.01545,35.61469],[6.01447,35.61316],[6.01383,35.61164],[6.01317,35.61097],[6.00969,35.60898],[6.00817,35.60668],[6.00854,35.60593],[6.00918,35.605],[6.00852,35.60475],[6.00758,35.60473],[6.00697,35.60498],[6.00603,35.60558],[6.00538,35.60582],[6.00467,35.60576],[6.00437,35.60604],[6.00419,35.60661],[6.00278,35.60698],[6.00106,35.60851],[6.00071,35.6084],[6.00036,35.60787],[6.00052,35.60726],[6.00044,35.60673],[6.00058,35.60495],[5.99908,35.60299],[5.99863,35.60254],[5.99795,35.60207],[5.99593,35.60135],[5.99519,35.60187],[5.9951,35.60271],[5.99562,35.60336],[5.99572,35.60394],[5.99565,35.60441],[5.99535,35.60522],[5.9957,35.60616],[5.99609,35.60662],[5.99633,35.60708],[5.99618,35.60766],[5.99633,35.60824],[5.99544,35.6088],[5.9945,35.60955],[5.99401,35.61012],[5.99305,35.6105],[5.98889,35.61129],[5.98638,35.61109],[5.98526,35.61216],[5.98579,35.61289],[5.98605,35.61366],[5.98414,35.61457],[5.98207,35.61618],[5.98063,35.61716],[5.98015,35.61595],[5.97928,35.6142],[5.97915,35.61322],[5.97916,35.61171],[5.97902,35.61117],[5.97996,35.60963],[5.97779,35.60902],[5.9768,35.60836],[5.97597,35.60753],[5.97514,35.60702],[5.97446,35.60636],[5.97337,35.60564],[5.97279,35.60556],[5.97264,35.60509],[5.97219,35.60427],[5.97213,35.60394],[5.97289,35.60324],[5.97372,35.60279],[5.97383,35.60234],[5.97375,35.60201],[5.97712,35.59989],[5.9771,35.59953],[5.9777,35.59862],[5.97826,35.59822],[5.97949,35.59768],[5.98116,35.5973],[5.98195,35.59683],[5.9825,35.5963],[5.98221,35.59622],[5.98193,35.59579],[5.98132,35.59442],[5.98103,35.59272],[5.98024,35.59308],[5.97932,35.5941],[5.97913,35.59446],[5.97904,35.59566],[5.9793,35.59628],[5.97921,35.59623],[5.97881,35.59664],[5.97722,35.59752],[5.97646,35.59982],[5.97608,35.60027],[5.97427,35.60133],[5.97076,35.60297],[5.96843,35.60339],[5.96764,35.60279],[5.96721,35.60216],[5.96783,35.59998],[5.96781,35.59956],[5.96637,35.59788],[5.96628,35.59705],[5.96633,35.59624],[5.96663,35.59541],[5.96641,35.59518],[5.96517,35.59564],[5.96151,35.59791],[5.96049,35.5984],[5.95941,35.59882],[5.9585,35.59888],[5.95765,35.59875],[5.95715,35.59842],[5.95697,35.59805],[5.95718,35.59716],[5.9571,35.59678],[5.95668,35.59668],[5.95508,35.59739],[5.95427,35.59748],[5.95375,35.59695],[5.95367,35.59569],[5.95444,35.59494],[5.95469,35.59422],[5.95508,35.59382],[5.95704,35.59277],[5.95795,35.59085],[5.95814,35.59],[5.95827,35.58874],[5.9585,35.58831],[5.95918,35.58787],[5.96095,35.58748],[5.96242,35.58777],[5.96334,35.58772],[5.96414,35.58815],[5.96576,35.58866],[5.96651,35.58833],[5.96823,35.58813],[5.96862,35.58756],[5.96911,35.58607],[5.96846,35.58449],[5.96788,35.58361],[5.96746,35.58262],[5.9674,35.58204],[5.96765,35.58175],[5.96758,35.5811],[5.9677,35.58038],[5.96791,35.58003],[5.96835,35.57973],[5.96907,35.57942],[5.97102,35.57957],[5.97246,35.57917],[5.97315,35.57931],[5.97413,35.57929],[5.97488,35.57972],[5.9752,35.57977],[5.97538,35.57972],[5.97547,35.57908],[5.97598,35.57835],[5.97767,35.57774],[5.9793,35.57737],[5.98165,35.577],[5.98364,35.57653],[5.98449,35.57691],[5.98493,35.57745],[5.98675,35.57588],[5.98907,35.57528],[5.99066,35.57527],[5.99139,35.57564],[5.99217,35.57565],[5.99356,35.57669],[5.9947,35.57691],[5.99568,35.57689],[5.99628,35.5767],[5.99824,35.57717],[5.99976,35.57702],[6.00137,35.57708],[6.00337,35.57755],[6.0055,35.57786],[6.00725,35.57871],[6.00875,35.5787],[6.01012,35.57901],[6.01342,35.57882],[6.01552,35.5791],[6.01751,35.57967],[6.0188,35.58016],[6.02024,35.57997],[6.02131,35.58043],[6.02354,35.5816],[6.02414,35.582],[6.02474,35.58224],[6.02542,35.58348],[6.02555,35.58357],[6.03024,35.58457],[6.03079,35.58442],[6.03168,35.58384],[6.03197,35.58349],[6.0323,35.58251],[6.03199,35.58182],[6.03127,35.5811],[6.02955,35.58016],[6.02871,35.57981],[6.02798,35.57928],[6.0276,35.57866],[6.02764,35.57759],[6.02785,35.57667],[6.0278,35.57644],[6.02756,35.57615],[6.02791,35.57528],[6.02693,35.57581],[6.02657,35.57583],[6.02503,35.574],[6.0243,35.57361],[6.02336,35.57288],[6.02255,35.57241],[6.02198,35.57163],[6.02196,35.57134],[6.02209,35.57084],[6.02224,35.57064],[6.02218,35.57014],[6.02022,35.56883],[6.01995,35.56869],[6.0193,35.5686],[6.01882,35.56821],[6.01672,35.56803],[6.01589,35.56832],[6.01483,35.56738],[6.01393,35.56691],[6.01218,35.56624],[6.01107,35.56549],[6.01084,35.56509],[6.01017,35.56486],[6.00948,35.56446],[6.0088,35.56435],[6.00824,35.56438],[6.00723,35.56473],[6.00612,35.56482],[6.00559,35.56466],[6.00533,35.56446],[6.00477,35.56439],[6.00397,35.56408],[6.00364,35.56363],[6.00334,35.56361],[6.0031,35.56376],[6.00276,35.5638],[6.00227,35.56366],[6.00131,35.56306],[6.00089,35.5626],[6.00055,35.56189],[6.0014,35.56173],[6.00239,35.5617],[6.00433,35.56206],[6.00492,35.56209],[6.00647,35.56253],[6.00761,35.56268],[6.00883,35.56262],[6.01058,35.56144],[6.01116,35.56144],[6.01163,35.56188],[6.01189,35.56247],[6.01181,35.56315],[6.01142,35.56373],[6.01145,35.56403],[6.01163,35.56427],[6.01384,35.56473],[6.01437,35.56529],[6.01697,35.56731],[6.01803,35.56782],[6.01826,35.56745],[6.01809,35.56706],[6.01778,35.56672],[6.01689,35.56632],[6.01629,35.5659],[6.01627,35.56492],[6.01601,35.56451],[6.01574,35.56428],[6.01499,35.56392],[6.01459,35.56329],[6.01421,35.56303],[6.01352,35.56281],[6.01281,35.56285],[6.0127,35.56277],[6.01307,35.56207],[6.01257,35.56183],[6.01245,35.56193],[6.01248,35.56217],[6.01234,35.56229],[6.01217,35.56223],[6.01221,35.56122],[6.01166,35.56029],[6.01137,35.55999],[6.01086,35.55974],[6.01027,35.55965],[6.00881,35.55984],[6.00846,35.55958],[6.00811,35.55899],[6.00788,35.55816],[6.00796,35.55765],[6.00828,35.55689],[6.00827,35.55659],[6.00805,35.556],[6.00758,35.55566],[6.00694,35.55486],[6.00714,35.55474],[6.00718,35.55433],[6.007,35.55318],[6.00721,35.55277],[6.00706,35.55248],[6.00705,35.55225],[6.00691,35.55216],[6.00678,35.55187],[6.00708,35.55179],[6.00833,35.55229],[6.00938,35.55285],[6.0102,35.55312],[6.01216,35.55291],[6.01262,35.55312],[6.01274,35.55344],[6.01228,35.55347],[6.01149,35.55394],[6.01128,35.55419],[6.01123,35.55459],[6.01057,35.55496],[6.01022,35.55536],[6.0093,35.55586],[6.00886,35.55643],[6.00867,35.55722],[6.00872,35.5578],[6.0091,35.55817],[6.00984,35.55836],[6.01027,35.55831],[6.01215,35.55751],[6.01301,35.55736],[6.01418,35.55747],[6.01526,35.55785],[6.01781,35.55683],[6.01747,35.55661],[6.01706,35.5561],[6.01331,35.55498],[6.01154,35.55456],[6.01135,35.55449],[6.01129,35.55422],[6.01163,35.5539],[6.01225,35.55354],[6.01412,35.55318],[6.01528,35.55321],[6.01638,35.55344],[6.01667,35.55336],[6.01675,35.55346],[6.01702,35.55345],[6.01714,35.55332],[6.01717,35.55301],[6.0174,35.5528],[6.01783,35.55277],[6.01876,35.55291],[6.01953,35.55314],[6.02,35.55356],[6.02071,35.55371],[6.02084,35.55384],[6.0229,35.55418],[6.02342,35.55437],[6.02549,35.55477],[6.02646,35.5551],[6.02836,35.55492],[6.02915,35.55497],[6.02957,35.55488],[6.03069,35.55441],[6.03101,35.55398],[6.03132,35.55385],[6.03351,35.5542],[6.03453,35.55357],[6.03534,35.55347],[6.0359,35.55361],[6.03713,35.55419],[6.03819,35.55538],[6.03847,35.55555],[6.03917,35.55574],[6.03974,35.55573],[6.04031,35.55552],[6.04088,35.55517],[6.04162,35.55395],[6.0419,35.55379],[6.0427,35.55362],[6.04279,35.55333],[6.04252,35.55297],[6.0417,35.55273],[6.04036,35.5526],[6.03861,35.55223],[6.03772,35.5517],[6.03718,35.55056],[6.03646,35.55011],[6.03563,35.55001],[6.03505,35.5504],[6.03403,35.55044],[6.03306,35.5502],[6.03258,35.54989],[6.03234,35.54949],[6.03275,35.54833],[6.0332,35.54776],[6.03337,35.54761],[6.03475,35.54724],[6.03501,35.54707],[6.03524,35.54639],[6.0356,35.54589],[6.03623,35.5458],[6.03685,35.54611],[6.03737,35.54592],[6.03781,35.54589],[6.03958,35.54614],[6.04124,35.54682],[6.04409,35.547],[6.04445,35.5471],[6.04559,35.54772],[6.04661,35.54782],[6.04737,35.54764],[6.04758,35.54776],[6.04754,35.54816],[6.04688,35.54856],[6.0443,35.54853],[6.04398,35.54862],[6.04356,35.54894],[6.04324,35.54953],[6.04328,35.54994],[6.04344,35.55017],[6.04398,35.55046],[6.04494,35.55054],[6.04536,35.5508],[6.04554,35.55109],[6.04546,35.55132],[6.04492,35.55165],[6.04457,35.55226],[6.04441,35.55277],[6.04462,35.55415],[6.04414,35.55516],[6.04426,35.55621],[6.04398,35.55675],[6.04394,35.55703],[6.04397,35.55729],[6.04454,35.55824],[6.0451,35.55885],[6.04836,35.55992],[6.04896,35.55994],[6.0493,35.55978],[6.04995,35.55975],[6.0503,35.56008],[6.05052,35.56054],[6.05104,35.56081],[6.0514,35.56079],[6.05175,35.56064],[6.05387,35.56016],[6.05522,35.55936],[6.05587,35.55918],[6.05649,35.55916],[6.05751,35.55937],[6.058,35.55981],[6.05818,35.56023],[6.05818,35.56056],[6.0578,35.5609],[6.05712,35.56093],[6.0559,35.56063],[6.05517,35.56034],[6.0542,35.56048],[6.05368,35.56062],[6.05342,35.56079],[6.05317,35.56113],[6.05309,35.56145],[6.05329,35.56281],[6.05396,35.56384],[6.05481,35.56489],[6.055,35.56539],[6.05544,35.56578],[6.05601,35.56585],[6.05643,35.56573],[6.05704,35.56572],[6.05827,35.56604],[6.06011,35.56592],[6.0603,35.56617],[6.06018,35.5664],[6.05966,35.56665],[6.05615,35.56672],[6.05522,35.56717],[6.05434,35.56728],[6.05365,35.56714],[6.05291,35.5665],[6.05145,35.56577],[6.0507,35.56568],[6.04862,35.56569],[6.04738,35.56603],[6.04674,35.56656],[6.04668,35.56689],[6.0468,35.56717],[6.04714,35.56755],[6.04876,35.56872],[6.05002,35.56894],[6.05052,35.56925],[6.05112,35.56939],[6.05152,35.5696],[6.05213,35.5697],[6.05256,35.56996],[6.05373,35.57016],[6.0544,35.57062],[6.05654,35.57113],[6.05757,35.57123],[6.05852,35.57104],[6.05973,35.57108],[6.06048,35.57143],[6.06096,35.57188],[6.06139,35.572],[6.06193,35.57181],[6.06277,35.57181],[6.06378,35.57163],[6.06509,35.57155],[6.06587,35.5719],[6.06665,35.57206],[6.06717,35.57299],[6.06769,35.5735],[6.06989,35.57496],[6.07059,35.57511],[6.07396,35.57694],[6.07553,35.57738],[6.0762,35.57767],[6.07651,35.57795],[6.07646,35.57846],[6.07629,35.57883],[6.07551,35.57972],[6.07516,35.58073],[6.07509,35.5813],[6.07544,35.58124],[6.07564,35.58145],[6.07556,35.58165],[6.07471,35.58217],[6.07358,35.582],[6.07322,35.58184],[6.07166,35.58164],[6.0704,35.58128],[6.06949,35.58118],[6.06932,35.5811],[6.06942,35.58096],[6.07006,35.58096],[6.0702,35.58087],[6.07019,35.58052],[6.0698,35.58021],[6.06901,35.58001],[6.06835,35.58],[6.06624,35.57969],[6.06599,35.57961],[6.06596,35.57923],[6.06574,35.57908],[6.06498,35.57947],[6.06331,35.57959],[6.06285,35.57985],[6.06267,35.57997],[6.06275,35.58011],[6.06351,35.57995],[6.06377,35.58009],[6.0634,35.58029],[6.06327,35.58101],[6.06229,35.58129],[6.06152,35.58135],[6.06038,35.58124],[6.0599,35.58135],[6.05838,35.58134],[6.05802,35.58119],[6.05809,35.58089],[6.05841,35.58065],[6.05723,35.58009],[6.05652,35.57997],[6.05603,35.58027],[6.05531,35.58032],[6.05507,35.58058],[6.05503,35.58085],[6.05515,35.58115],[6.05472,35.58134],[6.05308,35.58088],[6.05259,35.58095],[6.05224,35.58052],[6.05272,35.58029],[6.05276,35.58018],[6.05252,35.58006],[6.05155,35.58022],[6.05075,35.57998],[6.05058,35.58005],[6.05033,35.58035],[6.05032,35.58053],[6.05066,35.58102],[6.05125,35.58153],[6.05195,35.58145],[6.05235,35.58177],[6.05246,35.58214],[6.05308,35.58252],[6.05377,35.58313],[6.05372,35.58331],[6.05395,35.58363],[6.05439,35.58361],[6.05482,35.58299],[6.05525,35.58295],[6.0555,35.58314],[6.05559,35.58335],[6.05546,35.58369],[6.05521,35.584],[6.05489,35.58399],[6.05558,35.58463],[6.05701,35.58532],[6.05711,35.58556],[6.0569,35.58607],[6.05617,35.58633],[6.05685,35.58733],[6.05849,35.58779],[6.05986,35.58879],[6.06048,35.58953],[6.06099,35.5904],[6.06093,35.59131],[6.06288,35.59092],[6.06512,35.59261],[6.06535,35.59467],[6.06474,35.59452],[6.07054,35.59976],[6.07153,35.60013],[6.0721,35.60086],[6.07408,35.60227],[6.07853,35.60411],[6.08104,35.6042],[6.08375,35.60491],[6.0856,35.6055],[6.08687,35.60649],[6.08828,35.60702],[6.08907,35.60696],[6.08938,35.60682],[6.09004,35.60723],[6.09184,35.60807],[6.0926,35.6086],[6.09305,35.60828],[6.09415,35.60854],[6.09519,35.60911],[6.09575,35.60968],[6.09522,35.61019],[6.09549,35.61052],[6.09586,35.61043],[6.09687,35.61044],[6.09771,35.61074],[6.09827,35.61061],[6.0985,35.61035],[6.0986,35.60997],[6.09956,35.61003],[6.10098,35.60982],[6.10205,35.61],[6.10354,35.61048],[6.10487,35.61045],[6.10668,35.61143],[6.10936,35.61228],[6.10921,35.61268],[6.1067,35.6121],[6.10623,35.61213],[6.10609,35.61256],[6.10624,35.61308],[6.10789,35.61369],[6.11005,35.61417],[6.11152,35.61482],[6.11271,35.61495],[6.11514,35.61566],[6.11653,35.61627],[6.11876,35.61768],[6.11876,35.61776],[6.11839,35.61779],[6.11822,35.61798],[6.118,35.61832],[6.11787,35.61882],[6.11771,35.61894],[6.11757,35.6195],[6.11776,35.61957],[6.11791,35.61998],[6.11789,35.62023],[6.11745,35.62029],[6.11715,35.62018],[6.11702,35.62002],[6.11606,35.61947],[6.11538,35.6193],[6.11422,35.62009],[6.11423,35.62033],[6.11449,35.62058],[6.11483,35.62066],[6.1152,35.62109],[6.11521,35.62131],[6.11479,35.62155],[6.11459,35.62155],[6.11415,35.62121],[6.11395,35.62089],[6.11386,35.62119],[6.11327,35.62136],[6.11288,35.62116],[6.11269,35.62119],[6.11246,35.62182],[6.11228,35.62201],[6.11224,35.62262],[6.11234,35.62341],[6.11216,35.62362]]],[[[6.2532,35.66689],[6.25375,35.66764],[6.25366,35.67088],[6.25463,35.67181],[6.25584,35.67225],[6.25607,35.67261],[6.25614,35.673],[6.25559,35.67349],[6.25563,35.67392],[6.25586,35.67426],[6.25699,35.67492],[6.25802,35.67508],[6.25802,35.67569],[6.25859,35.67624],[6.25932,35.6763],[6.25956,35.67663],[6.25961,35.67761],[6.25651,35.67807],[6.25482,35.67814],[6.2518,35.67669],[6.25008,35.67665],[6.2489,35.67631],[6.24783,35.67627],[6.24682,35.67567],[6.24267,35.67412],[6.24163,35.67394],[6.24006,35.6729],[6.23845,35.66928],[6.23617,35.66861],[6.23254,35.66776],[6.23156,35.66735],[6.22745,35.66748],[6.22658,35.66736],[6.22363,35.66629],[6.21934,35.66445],[6.21768,35.66362],[6.21597,35.66318],[6.20611,35.6614],[6.19834,35.65951],[6.19674,35.65867],[6.19579,35.65776],[6.19431,35.65538],[6.19372,35.65539],[6.19189,35.65628],[6.19115,35.65648],[6.19047,35.65642],[6.18925,35.65566],[6.18811,35.6557],[6.18655,35.65637],[6.1859,35.65698],[6.18507,35.65753],[6.18373,35.65784],[6.18164,35.65729],[6.17916,35.65595],[6.17656,35.65368],[6.17643,35.65304],[6.17558,35.65285],[6.17335,35.65151],[6.17248,35.65131],[6.16976,35.64959],[6.16845,35.64861],[6.16745,35.64818],[6.16669,35.64814],[6.16572,35.64769],[6.16392,35.64641],[6.16292,35.6464],[6.16015,35.64452],[6.15869,35.64428],[6.15711,35.64371],[6.15616,35.64303],[6.15498,35.64235],[6.15415,35.64131],[6.153,35.64156],[6.1524,35.64135],[6.15127,35.64152],[6.15088,35.64132],[6.15019,35.64071],[6.1497,35.64086],[6.14948,35.64103],[6.14896,35.64104],[6.14886,35.64144],[6.14795,35.64142],[6.14727,35.64154],[6.14615,35.64114],[6.1459,35.64112],[6.14549,35.64135],[6.14511,35.6412],[6.14461,35.64074],[6.14437,35.64065],[6.14283,35.64104],[6.14245,35.64096],[6.14193,35.64042],[6.14157,35.64053],[6.14058,35.64059],[6.13897,35.64033],[6.13786,35.6399],[6.13624,35.6391],[6.13591,35.63879],[6.13343,35.6376],[6.1308,35.63651],[6.1298,35.63594],[6.12986,35.63577],[6.13012,35.6357],[6.13078,35.63571],[6.13242,35.63615],[6.13378,35.63635],[6.13392,35.63622],[6.13358,35.63587],[6.13392,35.63586],[6.13435,35.63567],[6.13446,35.63542],[6.13426,35.6344],[6.13409,35.63429],[6.13364,35.63431],[6.13327,35.63461],[6.13306,35.63454],[6.13239,35.63498],[6.13146,35.63526],[6.13124,35.63515],[6.13102,35.63479],[6.13087,35.63483],[6.13068,35.63495],[6.13046,35.6353],[6.13007,35.63538],[6.12806,35.63544],[6.12705,35.63518],[6.12661,35.63519],[6.12576,35.6349],[6.12498,35.63437],[6.12476,35.63393],[6.12361,35.63332],[6.12262,35.63308],[6.12184,35.63248],[6.12118,35.6322],[6.12111,35.63198],[6.12086,35.63181],[6.12079,35.63159],[6.12088,35.63123],[6.12049,35.63064],[6.12047,35.63023],[6.12239,35.63047],[6.1229,35.63044],[6.12317,35.63032],[6.1229,35.62973],[6.12151,35.62982],[6.12221,35.62969],[6.12282,35.62937],[6.12301,35.62889],[6.12274,35.62895],[6.12229,35.62936],[6.12157,35.62959],[6.12083,35.62962],[6.12029,35.62921],[6.11814,35.62856],[6.11713,35.62792],[6.11723,35.62668],[6.1183,35.62667],[6.11806,35.62631],[6.11805,35.62616],[6.11783,35.626],[6.1166,35.62596],[6.11649,35.62586],[6.11618,35.62584],[6.11557,35.62552],[6.11561,35.62524],[6.11578,35.625],[6.11681,35.62479],[6.11711,35.62512],[6.11715,35.62527],[6.11698,35.62549],[6.11705,35.62571],[6.1176,35.62578],[6.11817,35.62568],[6.11823,35.62561],[6.1179,35.62544],[6.11755,35.62461],[6.11769,35.62418],[6.11858,35.62383],[6.11941,35.6237],[6.11971,35.62354],[6.11974,35.62318],[6.11991,35.62283],[6.12078,35.62163],[6.12087,35.62113],[6.11971,35.62119],[6.11921,35.62086],[6.11911,35.62101],[6.11877,35.62069],[6.11885,35.6204],[6.11924,35.61982],[6.11947,35.61907],[6.11945,35.61877],[6.11971,35.61824],[6.11962,35.61796],[6.11939,35.6178],[6.11886,35.61776],[6.11887,35.61765],[6.12159,35.61822],[6.12252,35.61858],[6.12252,35.61868],[6.12222,35.6189],[6.12193,35.61898],[6.12189,35.61912],[6.12226,35.61956],[6.12227,35.61983],[6.1221,35.62031],[6.12151,35.6207],[6.12164,35.62084],[6.12193,35.62083],[6.12225,35.62053],[6.12266,35.6203],[6.1231,35.61981],[6.12337,35.61974],[6.1241,35.62001],[6.12547,35.62008],[6.12699,35.62072],[6.1278,35.62085],[6.12835,35.62123],[6.12994,35.62105],[6.13076,35.62106],[6.13124,35.62124],[6.13254,35.62122],[6.13428,35.62165],[6.13596,35.62239],[6.13748,35.62345],[6.13827,35.62475],[6.13807,35.62504],[6.13766,35.62519],[6.1367,35.62517],[6.13473,35.62496],[6.1338,35.62465],[6.13189,35.62368],[6.13101,35.62342],[6.13046,35.62359],[6.13008,35.624],[6.12987,35.62496],[6.13006,35.62561],[6.13108,35.62665],[6.13224,35.62745],[6.13279,35.62831],[6.1332,35.62857],[6.13404,35.62868],[6.13416,35.62895],[6.13379,35.62904],[6.13375,35.62924],[6.13449,35.6294],[6.13461,35.62978],[6.13503,35.63027],[6.13561,35.63046],[6.13576,35.63029],[6.13634,35.63004],[6.13752,35.63055],[6.13844,35.63079],[6.13904,35.63131],[6.13981,35.63172],[6.1402,35.63206],[6.14101,35.63208],[6.14301,35.63292],[6.14392,35.63357],[6.14452,35.63418],[6.14575,35.63492],[6.14773,35.63545],[6.14958,35.6356],[6.15198,35.63537],[6.15587,35.6358],[6.15825,35.63622],[6.15979,35.63695],[6.16095,35.63816],[6.16285,35.63911],[6.16401,35.63991],[6.16634,35.63981],[6.16759,35.6399],[6.16928,35.63937],[6.17149,35.64044],[6.17399,35.64052],[6.17808,35.64093],[6.1795,35.64127],[6.18102,35.64231],[6.18235,35.64287],[6.18655,35.64407],[6.18781,35.64409],[6.18872,35.64354],[6.18924,35.64343],[6.18975,35.64305],[6.19107,35.64277],[6.19243,35.64312],[6.19407,35.64386],[6.19457,35.64447],[6.19587,35.64564],[6.20106,35.64674],[6.20264,35.64767],[6.20403,35.64793],[6.20756,35.6478],[6.20847,35.64814],[6.2092,35.64821],[6.21087,35.64779],[6.21396,35.64911],[6.21495,35.64934],[6.21657,35.65007],[6.21778,35.65086],[6.21902,35.65188],[6.22067,35.65209],[6.22429,35.65223],[6.22994,35.65403],[6.23102,35.65449],[6.23291,35.65441],[6.23447,35.65523],[6.23736,35.65567],[6.23933,35.65582],[6.24084,35.65664],[6.24217,35.65883],[6.24353,35.65973],[6.24537,35.66213],[6.24755,35.66445],[6.2488,35.66461],[6.25094,35.66542],[6.2532,35.66689]]]]}}]}